skz,name,street,zip,city,phone,email,website,principal,school_type
09P05,Grone - Bildungszentren Berlin GmbH - gemeinnützig,Eichenstr. 3B,12435,Berlin (Alt-Treptow),+49 30 549727141,akademie-berlin@grone.de,www.berufsschule-grone-berlin.de,"Brandt, Angelika",Střední odborná škola (SOŠ)
09Y12,12. Schule (Gymnasium),Kiefholzstr. 274,12437,Berlin (Baumschulenweg),+49 30 5329141,schulleitung@gymnasium09y12.de,gymnasium09y12.de,"Haase, Bianka",Gymnázium
11Y12,12. Schule (Gymnasium),Allee der Kosmonauten 20-22,10315,Berlin (Lichtenberg),+49 03 2639114000,11Y12@11Y12.schule.berlin.de,gym.adkosmos.eu,"Kurzeja, Sebastian",Gymnázium
10Y12,12. Schule (Gymnasium),Erich-Kästner-Str. 52,12619,Berlin (Hellersdorf),+49 03,10Y12@10Y12.schule.berlin.de,,N.N.,Gymnázium
01Y13,13. Schule (Gymnasium),Turmstr. 75,10551,Berlin (Moabit),+49 30 9018 38210,schulleitung@gymnasium-13.de,gymnasium-13.de,"Sladek, Steffen",Gymnázium
11P18,Akademie für berufliche Bildung (AFBB) gGmbH,Bornitzstr. 73-75,10365,Berlin (Lichtenberg),+49 30 2888690,berlin@afbb-ggmbh.de,www.afbb.de,"Preußer, Bianca (komm.) ; Puchert Jacqueline",Vyšší odborná škola
08Y03,Albert-Einstein-Gymnasium,Parchimer Allee 109,12359,Berlin (Britz),+49 30 6009020,sekretariat@aeo.de,www.aeo.de,"Gerhardt-Acquarone, Wolfgang",Gymnázium
08Y02,Albert-Schweitzer-Gymnasium,Karl-Marx-Str. 14,12043,Berlin (Neukölln),+49 30 225009830,sekretariat@08Y02.schule.berlin.de,www.die-schweitzer.de,"Pille, Thomas",Gymnázium
08Y01,Albrecht-Dürer-Gymnasium,Emser Str. 133-137,12051,Berlin (Neukölln),+49 30 221994310,08Y01@08Y01.schule.berlin.de,albrecht-duerer-gymnasium.de,"Keller, Lonie",Gymnázium
09Y05,Alexander-von-Humboldt-Gymnasium,Oberspreestr. 173,12555,Berlin (Köpenick),+49 30 6519788,sekretariat@avh.berlin,www.avh.berlin,"Oestreich, Katrin",Gymnázium
02Y01,Andreas-Gymnasium,Koppenstr. 76,10243,Berlin (Friedrichshain),+49 30 29369020,sekretariat@andreas.schule.berlin.de,www.andreas-schule.org,"Dr. Strohmeyer, Birgit",Gymnázium
04B05,Anna-Freud-Schule (OSZ Sozialwesen),Halemweg 22,13627,Berlin (Charlottenburg-Nord),+49 30 901893501,04B05@04B05.schule.berlin.de,www.anna-freud-osz.de,"Priebsch, Anne",Odborné učiliště / škola praxe
08B01,Annedore-Leber-Oberschule,Paster-Behrens-Str. 88,12359,Berlin (Britz),+49 30 66588361,sekr.br@aloberlin.de,www.aloberlin.de,"Szymanski, Michael",Odborné učiliště / škola praxe
09Y04,Anne-Frank-Gymnasium,Uranusstr. 15-17,12524,Berlin (Altglienicke),+49 30 51653360,sekretariat@afg.schule.berlin.de,www.anne-frank-schule-berlin.de,"Hentsch, Andrea",Gymnázium
09Y03,Archenhold-Gymnasium,Rudower Str. 7,12439,Berlin (Niederschöneweide),+49 30 6360195,sekretariat@archenhold.de,archenhold.de,"Uhlig, Michael",Gymnázium
06Y03,Arndt-Gymnasium Dahlem,Königin-Luise-Str. 80-84,14195,Berlin (Dahlem),+49 30 8315052,sekretariat@arndt-gymnasium.de,arndt-gymnasium.de,"Lehmann-Schmidkunz, Claudia",Gymnázium
07Y06,Askanisches Gymnasium,Kaiserin-Augusta-Str. 19/20,12103,Berlin (Tempelhof),+49 30 902772679,sekretariat@askanisches-gymnasium.de,www.askanisches-gymnasium.de,"Draude, Claudia",Gymnázium
02B01,August-Sander-Schule,Naglerstr. 1-3,10245,Berlin (Friedrichshain),+49 30 29362760,schulbuero@august-sander-schule.de,www.august-sander-schule.de,"Baldeweg, Maren",Odborné učiliště / škola praxe
11Y09,Barnim-Gymnasium,Ahrensfelder Chaussee 41,13057,Berlin (Falkenberg),+49 30 9366690,kontakt@barnim-gym.de,www.barnim-gymnasium.net,"Koven, Sebastian",Gymnázium
07P21,BBA-Akademie für Immobilienwirtschaft e.V.,Hauptstr. 78-79,12159,Berlin (Friedenau),+49 30 2308550,Berufsschule@bba-campus.de,www.bba-campus.de,"Hildebrand, Silke",Odborné učiliště / škola praxe
11P02,bbw Akademie für Betriebswirtschaftliche Weiterbildung GmbH,Rheinpfalzallee 82,10318,Berlin (Karlshorst),+49 30 50929403,schulsekretariat@bbw-berufliche-schulen.de,www.bbw-berufliche-schulen.de,"Schulz, Birgit",Vyšší odborná škola
06Y06,Beethoven-Gymnasium,Barbarastr. 9,12249,Berlin (Lankwitz),+49 30 76890530,Leitung@beethoven-gymnasium.eu,www.beethoven-gymnasium.eu,"Dr. Neukirchen, Gunilla",Gymnázium
01P22,Berlin Cosmopolitan School,Rückerstr. 9,10119,Berlin (Mitte),+49 30 688332324,mail@cosmopolitanschool.de,www.cosmopolitanschool.de,"Wende, Yvonne; Brennan, James; Röschel, Katrin",Gymnázium
03B02,Berufliche Schule für Sozialwesen Pankow,Erbeskopfweg 6-8,13158,Berlin (Rosenthal),+49 30 50019910,sekretariat@soz-pankow.de,www.schule-sozialwesen-pankow.de,"Willuweit, Etta",Odborné učiliště / škola praxe
09P11,Berufsbildungszentrum Chemie,Adlergestell 333,12489,Berlin (Adlershof),+49 30 6700040,schelhase@bbz-chemie.de,www.bbz-chemie.de,"Dr. Schelhase, Frauke",Vyšší odborná škola
01P40,Berufsfachschule Paulo Freire im Zentrum ÜBERLEBEN,Turmstr. 21,10559,Berlin (Moabit),+49 30 30390653,info@pflege-lernen.org,www.pflege-lernen.org,"Hahn, Marco",Střední odborná škola (SOŠ)
05P05,Berufsschule des Rotkreuz-Instituts,Krampnitzer Weg 83-87,14089,Berlin (Kladow),+49 30 36502191,behrendt.k@bbw-rki-berlin.de,www.rkibbw.de,"Koch, Cordula",Odborná škola se speciální pedagogikou
01P14,BEST-Sabel Berufsakademie,Littenstr. 109,10179,Berlin (Mitte),+49 30 4284910,schule@best-sabel.de,best-sabel.de,"Kissling, Kilian",Vyšší odborná škola
09P22,BEST-Sabel Berufsakademie,Lindenstr. 42,12555,Berlin (Köpenick),+49 03,schule@best-sabel.de,best-sabel.de,,Vyšší odborná škola (FOS)
09P09,BEST-Sabel-Oberschule,Lindenstr. 1,12555,Berlin (Köpenick),+49 30 280360970,oberschule@best-sabel.de,best-sabel.de,"Germer, Jana",Gymnázium
06S02,Biesalski-Schule,Hüttenweg 40,14195,Berlin (Dahlem),+49 30 902996474,buero@biesalski-schule.de,www.biesalski-schule.de,"Kurandt-Ruhnau dos Santos, Michaela",Odborná škola se speciální pedagogikou
01P18,Bilinguale Schule Phorms Berlin Mitte,Ackerstr. 76,13355,Berlin (Gesundbrunnen),+49 30 318737100,berlin-mitte@phorms.de,berlin-mitte.phorms.de,"Stölting, Jana",Gymnázium
06P18,Bilinguale Schule Phorms Berlin Süd,Harry-S.-Truman-Allee 3,14167,Berlin (Lichterfelde),+49 30 91684990,berlin-sued@phorms.de,www.berlin-sued.phorms.de,"Hardt, Valèrie; Mell, Selena",Gymnázium
03B04,Brillat-Savarin-Schule (OSZ Gastgewerbe),Buschallee 23A,13088,Berlin (Weißensee),+49 30 9142660,sekretariat@osz-gastgewerbe.de,www.osz-gastgewerbe.de,"Dietrich, Jürgen",Vyšší odborná škola
01P36,BTB Schulzentrum gGmbH,Alexanderstr. 5,10178,Berlin (Mitte),+49 30 2888589925,info@btb-schulzentrum.de,btb-schulzentrum.de,"Dr. Schmidt-Wittner, H.; Behrens, F.",Odborné učiliště / škola praxe
08P13,b-trend-setting gGmbH,Lahnstr. 19,12055,Berlin (Neukölln),+49 30 921028980,info@b-trend.academy,www.b-trend.academy,"Schneider, Jochen",Odborné učiliště / škola praxe
02P07,Campus Berufsbildung e.V.,Friedrichstr. 231,10969,Berlin (Kreuzberg),+49 30 25931877,tbfs@campus-bb.de,www.campus-berlin.de/friedrichstrasse,"Schilli, Nadja",Odborné učiliště / škola praxe
07P10,Campus Berufsbildung e.V.,Geneststr. 5,10829,Berlin (Schöneberg),+49 30 515668332,g.luebbers@campus-bb.de,www.campus-berlin.de,"Lübbers, Gerlinde",Vyšší odborná škola
04P37,Campus Berufsbildung e.V.,Wilmersdorfer Str. 126-127,10627,Berlin (Charlottenburg),+49 30 420827900,d.hoffmeister@campus-bb.de,www.campus-berlin.de,"Hoffmeister, Detlev",Střední odborná škola (SOŠ)
01P06,Canisius-Kolleg,Tiergartenstr. 30-31,10785,Berlin (Tiergarten),+49 30 26481105,schulleitung@canisius.de,canisius.de,"Dr. Bernhardt, Jan",Gymnázium
05Y04,Carl-Friedrich-von-Siemens-Gymnasium,Jungfernheideweg 79,13629,Berlin (Siemensstadt),+49 30 34505680,mail@cfvsiemens.de,www.cfvsiemens.de,"Kremer, Claudia",Gymnázium
08B05,Carl-Legien-Schule (Schulbetrieb an 01B04),Schwyzer Str. 6-8,13349,Berlin (Wedding),+49 30,,,,Odborná škola se speciální pedagogikou
11S07,Carl-von-Linné-Schule,Paul-Junius-Str. 15,10367,Berlin (Lichtenberg),+49 30 5050960,sekretariat@linne.schule.berlin.de,linne.schule,"Kast-Rützel, Kerstin",Odborná škola se speciální pedagogikou
03Y08,Carl-von-Ossietzky-Gymnasium,Görschstr. 42-44,13187,Berlin (Pankow),+49 30 49400390,sekretariat@cvo.berlin,cvo.berlin,"Dr. Musold, Harald",Gymnázium
01P54,CeFi - Fachschule für Sozialpädagogik,Turmstr. 44,10551,Berlin (Moabit),+49 30 91692880,sekretariat@cefi-akademie.de,www.cefi-akademie.de,"Dr. Zimmermann, Ulrike",Vyšší odborná škola
08P08,Cenfila gGmbH,Karl-Marx-Str. 255,12057,Berlin (Neukölln),+49 30 667767970,info@acenta-berlin.de,cenfila.de,"Neumann, Cornelia; Ünsalsudan, Ebru",Střední odborná škola (SOŠ)
10P20,"Chance Bildung, Jugend und Sport BJS gGmbH",Allee der Kosmonauten 35A,12681,Berlin (Marzahn),+49 30 40754614,bfs@chance-berlin.com,chance-berlin.com,"Wurmsee-Purschke, Sabrina",Vyšší odborná škola
04S07,Comenius-Schule,Gieselerstr. 4,10713,Berlin (Wilmersdorf),+49 30 8649950,Schulleitung@comenius.schule.berlin.de,www.schule-comenius.de,"Walther, Ulrike",Odborná škola se speciální pedagogikou
02P30,Concept - Fachschule für Sozialpädagogik,Gubener Str. 47,10243,Berlin (Friedrichshain),+49 30 33916940,info@concept-berlin.de,www.concept-berlin.de,"Schulz-Behrendt, Claudia",Vyšší odborná škola
02P23,Concept Berufliche Schulen gGmbH Berlin,Revaler Str. 100,10245,Berlin (Friedrichshain),+49 30 48485850,info@concept-berlin.de,www.concept-berlin.de,"Thümler, W.; Petermann, L.; Galbiers, N.",Střední odborná škola (SOŠ)
10P21,D&B Dienstleistung und Bildung gGmbH,Leunaer Str. 7,12681,Berlin (Marzahn),+49 30 9860090,schulen-marzahn@semper-schulen.de,www.dub-berlin.de,"Dr. May-Witt, K.; Mushold, C.; Staar, Y.",Vyšší odborná škola
08P17,DAA - Deutsche Angestellten-Akademie GmbH,Buckower Damm 114,12349,Berlin (Britz),+49 30 78902341,info.berlin@daa.de,www.daa-berlin.de,"Kröger, Mirja",Vyšší odborná škola
02Y05,Dathe-Gymnasium,Helsingforser Str. 11-13,10243,Berlin (Friedrichshain),+49 30 2936063,sek@dathe-gymnasium.de,www.dathe-gymnasium.de,"Mücke, Matthias Jonas",Gymnázium
01P46,DDA Destiny Diversity Academy GmbH,Brunnenstr. 110D,13355,Berlin (Gesundbrunnen),+49 30 76236766,info@ddacademy.de,www.ddacademy.de,"Özdemir, Zehra",Střední odborná škola (SOŠ)
01Y09,Diesterweg-Gymnasium,Böttgerstr. 2-6,13357,Berlin (Gesundbrunnen),+49 30 46309620,sekretariat@dwgym.berlin,www.dwgym.berlin,"Lehmann, Volker",Gymnázium
11P15,Donner+ Kern gGmbH,Möllendorffstr. 48,10367,Berlin (Fennpfuhl),+49 30 27591090,b.krause@donner-kern.schule; b.kieslinger@donner-kern.schule,www.donner-kern.schule,"Krause, Belma; Kieslinger,Bastian",Vyšší odborná škola
06Y04,Dreilinden-Gymnasium,Dreilindenstr. 49,14109,Berlin (Nikolassee),+49 30 8031087,sekretariat@dreilinden-gymnasium.de,www.dreilinden-gymnasium.de,"Stiller, Jens",Gymnázium
10P19,DRK - Schule für soziale Berufe Berlin gGmbH,Meeraner Str. 5,12681,Berlin (Marzahn),+49 17632042034,schule@drk-berlin.de,www.drk-schule.berlin,"Wischnewski, Daniela",Vyšší odborná škola
06Y02,Droste-Hülshoff-Gymnasium,Schönower Str. 8,14165,Berlin (Zehlendorf),+49 30 84508466,schulbuero@droste-berlin.de,droste-berlin.de,"Seydel, Christian",Gymnázium
07Y07,Eckener-Gymnasium,Kaiserstr. 17-21,12105,Berlin (Mariendorf),+49 30 902777448,info@eckener-gymnasium.de,www.eckener-gymnasium.de,"Reich, Heike",Gymnázium
12P15,EJF - Fachschule für soziale Berufe,Keilerstr. 17A,13503,Berlin (Heiligensee),+49 30 4306710,info-fachschule@ejf.de,www.ejf.de,"Grigoleit, Kerstin",Vyšší odborná škola
03B07,Elinor-Ostrom-Schule (OSZ Bürowirtschaft und Dienstleistungen),Mandelstr. 6-8,10409,Berlin (Prenzlauer Berg),+49 30 42185411,info@oszeos.de,www.oszeos.de,"Grimm, Katrin",Odborné gymnázium
09P20,Elisabeth-Schulen,Edisonstraße 63,12459,Berlin (Oberschöneweide),+49 30 22183860,elisabeth-schulen@hoffbauer-bildung.de,www.elisabeth-schulen.de,"Friedrich, Bernd",Vyšší odborná škola
12B02,Emil-Fischer-Schule (OSZ Ernährung und Lebensmitteltechnik),Cyclopstr. 1-5,13437,Berlin (Wittenau),+49 30 4147210,sekretariat@emilfischerschule.de,www.emilfischerschule.de,"Brandenburg-Kühne, Nicole",Vyšší odborná škola
09Y11,Emmy-Noether-Gymnasium,Pablo-Neruda-Str. 6-7,12559,Berlin (Köpenick),+49 30 6542160,sekretariat@noether-gymnasium.de,www.noether-gymnasium.de,"Arndt, Heike",Gymnázium
08Y04,Ernst-Abbe-Gymnasium,Sonnenallee 79,12045,Berlin (Neukölln),+49 30 225013030,sekretariat@ernst-abbe.schule.berlin.de,www.ernst-abbe.de,"Großmann, Lutz",Gymnázium
04S05,Ernst-Adolf-Eschke-Schule für Gehörlose,Waldschulallee 29,14055,Berlin (Westend),+49 30 902925000,sekretariat@eschke.schule.berlin.de,eschke-schule.de,"Möbius, Ulrich",Odborné učiliště / škola praxe
12B03,Ernst-Litfaß-Schule (OSZ Mediengestaltung und Medientechnologie),Cyclopstr. 1-5,13437,Berlin (Wittenau),+49 30 4147920,litfass@ernst-litfass-schule.de,ernst-litfass-schule.de,"Förster, Mike",Vyšší odborná škola
12P13,Euro Akademie Berlin,Berliner Str. 66,13507,Berlin (Tegel),+49 30 43557030,berlin@euroakademie.de,www.euroakademie.de/standorte/berlin.html,"Schoefer, M.; Köszeghy, S.; Romrod, F.",Střední odborná škola (SOŠ)
12Y02,Europäisches Gymnasium Bertha-von-Suttner,Reginhardstr. 172,13409,Berlin (Reinickendorf),+49 30 491 60 57,12Y02@12Y02.schule.berlin.de,www.bertha-von-suttner.de,"Junge-Ehmke, Anke",Gymnázium
12P03,Evangelische Schule Frohnau,Benediktinerstr. 11-19,13465,Berlin (Frohnau),+49 30 509305310,sekretariat@ev-frohnau.de,www.ev-frohnau.de,"Behnken, Christine",Gymnázium
09P07,Evangelische Schule Köpenick (Gymnasium),Grüne Trift 169,12557,Berlin (Köpenick),+49 30 32532401,leitung@ev-schule-koepenick.de,www.ev-schule-koepenick.de,"Tiedje, Michael",Gymnázium
04P11,Evangelisches Gymnasium zum Grauen Kloster,Salzbrunner Str. 41,14193,Berlin (Schmargendorf),+49 30 8254011,sekretariat@graues-kloster.de,www.graues-kloster.de,"Dr. Martinez Moreno, Annette",Gymnázium
12P23,Eventus - Fachschule für Sozialpädagogik,Dianastr. 42-43,13469,Berlin (Waidmannslust),+49 30 23535239,schulleitung@eventusfachschule.de,eventusfachschule.de,"Wieland, Emese",Vyšší odborná škola
12P26,Fachschule für Sozialpädagogik am Elisabethstift Berlin,Berliner Str. 118,13467,Berlin (Hermsdorf),+49 30 40507233,fachschule@elisabethstift-berlin.de,www.elisabethstift-berlin.de/fachschule,"Schweitzer, Johanna",Vyšší odborná škola
03Y13,Felix-Mendelssohn-Bartholdy-Gymnasium,Pasteurstr. 7,10407,Berlin (Prenzlauer Berg),+49 30 4208274 00,sekretariat@fmbg.schule.berlin.de,www.fmbg-berlin.de,"Tschiche, Pierre",Gymnázium
06Y09,Fichtenberg-Oberschule,Rothenburgstr. 18,12165,Berlin (Steglitz),+49 30 902992354,info@fichtenberg-oberschule.net,fichtenberg-oberschule.net,"Golus-Steiner, Andreas",Gymnázium
02P19,FORUM Berufsbildung e.V.,Charlottenstr. 2,10969,Berlin (Kreuzberg),+49 30 2590080,info@forum-berufsbildung.de,www.forum-berufsbildung.de,Hida; Loesener; Schässburger; Fichtmair,Vyšší odborná škola
01Y07,Französisches Gymnasium,Derfflingerstr. 7,10785,Berlin (Tiergarten),+49 30 25758910,sekretariat@fg-berlin.eru,www.fg-berlin.eu,"Dzembritzki, Nikola",Gymnázium
06P20,Freie Schule Anne-Sophie Berlin,Clayallee 328-334,14169,Berlin (Zehlendorf),+49 30 8471463910,info.berlin@freie-schule-anne-sophie.de,www.freie-schule-anne-sophie.de,"Tscherniak, A.; Herzig, Ch.; Rockenstein, A.",Gymnázium
05Y01,Freiherr-vom-Stein-Gymnasium,Galenstr. 40-44,13597,Berlin (Spandau),+49 30 3309653,freiherr-vom-stein-gymnasium@t-online.de,www.steingymnasium.de,"Verch, Norbert",Gymnázium
04Y07,Friedrich-Ebert-Gymnasium,Blissestr. 22,10713,Berlin (Wilmersdorf),+49 30 8974510,bock@feo-berlin.de,feoberlin.de,"Bock, Marc-Thomas",Gymnázium
12Y01,Friedrich-Engels-Gymnasium,Emmentaler Str. 67,13407,Berlin (Reinickendorf),+49 30 4955056,12Y01@12Y01.schule.berlin.de,www.feg.berlin,"Dr. Hellmuth, Doris",Gymnázium
11B04,Friedrich-List-Schule (OSZ Büromanagement und Wirtschaftssprachen),Marktstr. 2-3,10317,Berlin (Rummelsburg),+49 30 55779060,info@fls-berlin.de,www.fls-berlin.de,"Kühn, Christian",Vyšší odborná škola
01P55,FRÖBEL Akademie gGmbH - Fachschule für Sozialpädagogik,Leipziger Str. 54,10117,Berlin (Mitte),+49 30 21235280,berlin@froebel-akademie.de,froebel-akademie.de,"Wildt, Christoph",Vyšší odborná škola
12P24,G.A.L.B Förderung gGmbH,Holzhauser Str. 180,13509,Berlin (Borsigwalde),+49 30 409998000,klaus.aleker-owens@galb-berlin.de,www.galb-berlin.de,"Aleker-Owens, Klaus",Vyšší odborná škola
12Y04,Gabriele-von-Bülow-Gymnasium,Tile-Brügge-Weg 63,13509,Berlin (Tegel),+49 30 210052460,12Y04@12Y04.schule.berlin.de,www.gvb-berlin.de,"Briesemeister, Heike",Gymnázium
09Y10,Gebrüder-Montgolfier-Gymnasium,Ellernweg 20-22,12487,Berlin (Johannisthal),+49 30 6316677,sekretariat@gemont.de,www.gemont.de,"Teichmann, Kerstin",Gymnázium
07Y09,Georg-Büchner-Gymnasium,Lichtenrader Damm 224,12305,Berlin (Lichtenrade),+49 30 902778208,sekretariat@gbgonline.de,www.gbgonline.de,"Zimmermann, Jan",Gymnázium
02Y04,Georg-Friedrich-Händel-Gymnasium,Frankfurter Allee 6A,10247,Berlin (Friedrichshain),+49 30 2250279011,sekretariat@haendelgym.de,www.haendelgym.de,"Klee, Meike",Gymnázium
12Y05,Georg-Herwegh-Gymnasium,Fellbacher Str. 18-19,13467,Berlin (Hermsdorf),+49 30 4042070,mail@herwegh-gymnasium.de,www.herwegh-gymnasium.de,"Toll, Kolja",Gymnázium
12B01,Georg-Schlesinger-Schule (OSZ Maschinen- und Fertigungstechnik),Kühleweinstr. 5,13409,Berlin (Reinickendorf),+49 30 4979060,schulbuero@osz-gss.de,www.gs-schule.de,"Stahn, Hartmut",Odborné gymnázium
09Y06,Gerhart-Hauptmann-Gymnasium,Bruno-Wille-Str. 37-39,12587,Berlin (Friedrichshagen),+49 30 6451839,sekretariat@ghs-berlin.de,www.ghs-berlin.de,"Hähnert, Thomas",Gymnázium
10P03,Gesellschaft für Pflege- und Sozialberufe gGmbH,Bitterfelder Str. 13,12681,Berlin (Marzahn),+49 30 9302070,info@gfp-berlin.de,www.gfp-berlin.de,"Metzner, Andrea; Raeder, Steffen; Kreis, Cornelia",Střední odborná škola (SOŠ)
04Y11,Goethe-Gymnasium,Gasteiner Str. 23,10717,Berlin (Wilmersdorf),+49 30 8649960,info.goethe-gymnasium@t-online.de,goethe-gymnasium.berlin,"Meurer, Arienne",Gymnázium
06Y11,Goethe-Gymnasium Lichterfelde,Drakestr. 72-7,12205,Berlin (Lichterfelde),+49 30 84416730,sekretariat@goethe-lichterfelde.schule.berlin.de,www.goethe-gymnasium-lichterfelde.de,"Gläser, Constantin",Gymnázium
04Y04,Gottfried-Keller-Gymnasium,Olbersstr. 38,10589,Berlin (Charlottenburg),+49 30 902927310,kontakt@gks-berlin.de,www.gks-berlin.de,"Kany, Uwe",Gymnázium
01P39,GPB College gGmbH,Beuthstr. 8,10117,Berlin (Mitte),+49 30 39048148,info@gpb-college.de,www.gpb-college.de,"Hartmann, Sven",Odborné učiliště / škola praxe
03P15,GPB-College gGmbH,Storkower Str. 115A,10407,Berlin (Prenzlauer Berg),+49 30 39048171,pankow@gpb-college.de,www.gpb-college.de,"Fleischer, Jörg",Vyšší odborná škola
06Y13,Gymnasium Steglitz,Heesestr. 15,12169,Berlin (Steglitz),+49 30 93951937,sekretariat@gymnasiumsteglitz.de,www.gymnasiumsteglitz.de,"Lükemann, Antje Florentine",Gymnázium
01Y12,Gymnasium Tiergarten,Altonaer Str. 26,10555,Berlin (Hansaviertel),+49 30 398009710,sekretariat@gymnasium-tiergarten.de,www.gymnasium-tiergarten.de,"Lingnau, Ariane",Gymnázium
08Y06,Hannah-Arendt-Gymnasium,Elfriede-Kuhr-Str. 17,12355,Berlin (Rudow),+49 30 6097180,sekretariat@hag-berlin.net,www.hag-berlin.net,"Ulrich, Torsten",Gymnázium
02B02,Hans-Böckler-Schule (OSZ Konstruktionsbautechnik),Lobeckstr. 76,10969,Berlin (Kreuzberg),+49 30 61670510,info@osz-kt.de,osz-kt.de,"Seypt, Karen",Odborné učiliště / škola praxe
05Y03,Hans-Carossa-Gymnasium,Am Landschaftspark Gatow 40,14089,Berlin (Kladow),+49 30 36996511,Sekretariat@05Y03.schule.berlin.de,www.hcg-berlin.de,"Rußbült, Henning",Gymnázium
04B02,Hans-Litten-Schule (OSZ Recht und Wirtschaft),Danckelmannstr. 26-28,14059,Berlin (Charlottenburg),+49 30 901893200,sekretariat@hans-litten-schule.de,www.hlsberlin.de,"Finger, Jens",Vyšší odborná škola (FOS)
11Y05,Hans-und-Hilde-Coppi-Gymnasium,Römerweg 30-32,10318,Berlin (Karlshorst),+49 30 5098116,sekretariat@coppi-gym.de,www.coppi-gym.de,"Gosse, Ulf",Gymnázium
11B01,Hein-Moeller-Schule (OSZ Energietechnik II),Allee der Kosmonauten 18,10315,Berlin (Lichtenberg),+49 30 549330,sekretariat@hein-moeller.schule,www.hein-moeller-schule.de,"Herrmann, Veit",Střední odborná škola (SOŠ)
02Y03,Heinrich-Hertz-Gymnasium,Rigaer Str. 81-82,10247,Berlin (Friedrichshain),+49 30 42262080,sekretariat@hhgym.de,hhgym.de,"Wesche,Corinna",Gymnázium
03Y04,Heinrich-Schliemann-Gymnasium,Dunckerstr. 64,10439,Berlin (Prenzlauer Berg),+49 30 4468950,sekretariat@hsg-berlin.eu,www.hsg-berlin.de,"Pietraßyk-Kendziorra, Sascha",Gymnázium
04Y06,Heinz-Berggruen-Gymnasium,Bayernallee 4,14052,Berlin (Westend),+49 30 902928702,Info@hbgym.de,www.hbgym.de,"Gebauer-Kwee, Dirk",Gymnázium
04Y05,Herder-Gymnasium,Westendallee 45-46,14052,Berlin (Westend),+49 30 902927800,sekretariat@herder-gymnasium.eu,www.herder-gymnasium.eu,"Schallbruch, Karin",Gymnázium
06Y08,Hermann-Ehlers-Gymnasium,Elisenstr. 3-4,12169,Berlin (Steglitz),+49 30 902992353,sekretariat@heg.schule.berlin.de,hermann-ehlers-schule.de,"Kötterheinrich-Wedekind, Tilmann",Gymnázium
02Y08,Hermann-Hesse-Gymnasium,Böckhstr. 16,10967,Berlin (Kreuzberg),+49 30 666434090,kontakt@hhg-kreuzberg.de,hesse-kreuzberg.de,"Roschke, Sylke",Gymnázium
09B03,Hermann-Scheer-Schule (OSZ Wirtschaft),Helmholtzstr. 37,12459,Berlin (Oberschöneweide),+49 30 5389580,sekretariat@hs-osz.de,www.hermann-scheer-schule.de,"Kucharzewski, Sibylle",Odborné gymnázium
04Y08,Hildegard-Wegscheider-Gymnasium,Lassenstr. 16-20,14193,Berlin (Grunewald),+49 30 897454210,wegscheider-gymnasium@gmx.de,www.wegscheider-gymnasium.de,"Krause, Ulrike",Gymnázium
07P17,Humanistische Fachschule für Sozialpädagogik,Ullsteinstr. 130,12109,Berlin (Tempelhof),+49 30 27576786,fachschule@hvd-bb.de,humanistisch.de/fachschule,"Dr. Billeb, Konstanze",Vyšší odborná škola
12Y03,Humboldt-Gymnasium,Hatzfeldtallee 2-4,13509,Berlin (Tegel),+49 30 4337008,12Y03@12Y03.schule.berlin.de,www.humboldtschule-berlin.de,"Roth, Martin",Gymnázium
08P15,IB-Berlin-Brandenburg gGmbH - Medizinische Akademie Berlin,Neuköllnische Allee 10,12057,Berlin (Neukölln),+49 30 68298471,sozialberufe-berlin@ib.de,www.med-akademie.de,"Hoghe, Sandra",Vyšší odborná škola
11Y11,Immanuel-Kant-Gymnasium,Lückstr. 63,10317,Berlin (Rummelsburg),+49 30 5139748,sekretariat@kant-gymnasium.de,www.kant-gymnasium.de,"Niedermöller, Arnd",Gymnázium
03Y17,Inge-Deutschkron-Gymnasium,Kopenhagener Str. 83-87,13158,Berlin (Wilhelmsruh),+49 30 405771260,03Y17@03Y17.schule.berlin.de,www.idg.berlin,"Schäffer, Katrin",Gymnázium
06S05,J.-A.-Zeune-Schule für Blinde und Berufsfachschule Dr. Silex,Rothenburgstr. 14,12165,Berlin (Steglitz),+49 30 902992390,sekretariat@zeune-schule.de,www.zeune-schule.de,"Röhl, Ellen",Odborná škola se speciální pedagogikou
02B05,Jane-Addams-Schule (OSZ Sozialwesen),Straßmannstr. 14-16,10249,Berlin (Friedrichshain),+49 30 4202760,kontakt@osz-jas.de,www.osz-soz.de,"Vielrose, Nicole",Odborné učiliště / škola praxe
11Y02,Johann-Gottfried-Herder-Gymnasium,Franz-Jacob-Str. 8,10369,Berlin (Fennpfuhl),+49 30 97609567,sekretariat@jgherder.de,www.jgherder.de,"Wagner, Martin",Gymnázium
01Y02,John-Lennon-Gymnasium,Zehdenicker Str. 17,10119,Berlin (Mitte),+49 30 40500110,sekretariat@jlgym-berlin.de,www.jlgym-berlin.de,"Berisha, Antoneta",Gymnázium
04P23,Jüdische Traditionsschule,Westfälische Str. 15,10709,Berlin (Wilmersdorf),+49 30 32678897,heike.michalak@jschule.de,www.jschule.de,"Michalak, Heike",Gymnázium
01P03,Jüdisches Gymnasium Moses Mendelssohn,Große Hamburger Str. 27,10115,Berlin (Mitte),+49 30 726265700,eckstaedt@jgmm.de,jgmm.de,"Dr. Eckstaedt, Aaron",Gymnázium
05Y02,Kant-Gymnasium,Bismarckstr. 54,13585,Berlin (Spandau),+49 30 3539480,info@kant-gym.de,www.Kant-gymnasium-berlin.de,"Vehlow, Marc",Gymnázium
03Y03,Käthe-Kollwitz-Gymnasium,Dunckerstr. 65-66,10439,Berlin (Prenzlauer Berg),+49 30 4447671,sekretariat@kkos.net,www.kaethe-kollwitz-gymnasium.de,"Ley, Simone",Gymnázium
04P04,Katholische Schule Liebfrauen (Gymnasium),Ahornallee 33,14050,Berlin (Westend),+49 30 30613013,sekretariat@ksl.schulerzbistum.de,ksliebfrauen.de,"Krüger, Clemens",Gymnázium
12P04,Katholische Schule Salvator,Fürst-Bismarck-Str. 8-10,13469,Berlin (Waidmannslust),+49 30 4111198,sekretariat@kss.schulerzbistum.de; sekretariat@kss-gs.schulerzbistum.de,salvator.net; salvator-grundschule.de,"Malz, Ralf; Pritsch, Thomas",Gymnázium
08P04,Katholische Schule Sankt Marien,Donaustr. 58,12043,Berlin (Neukölln),+49 30 39881620,sekretariat@kssm.schulerzbistum.de,marienschule-berlin.de,"Rahner Theresa; Dr. Keitsch, Markus",Gymnázium
03P10,Katholische Theresienschule (Gymnasium),Behaimstr. 29,13086,Berlin (Weißensee),+49 30 9246425,sekretariat@ksth.schulerzbistum.de,www.Theresienschule.de,"Tentschert, Matthias",Gymnázium
03P08,Katholisches Schulzentrum Edith Stein,Greifswalder Str. 18,10405,Berlin (Prenzlauer Berg),+49 30 4243930,sekreatariat@kses.schulerzbistum.de,schulzentrum-edithstein.de,"Gertzen, Stephan",Střední odborná škola (SOŠ)
07P23,Kenntnisreich gGmbH,Colditzstr. 34,12099,Berlin (Tempelhof),+49 30 98510786,fachschule@kenntnisreich.de,www.kenntnisreich-kindertagesstaetten.de,"Sell, Delaney",Vyšší odborná škola
03P27,Klax Berufsakademie,Langhansstr. 74B,13086,Berlin (Weißensee),+49 30 6665470,info@klax-ausbildung.de,klax.de/de/berufsakademie,Jost Hartwig,Střední odborná škola (SOŠ)
03B06,Konrad-Zuse-Schule,Hermann-Hesse-Str. 34/36,13156,Berlin (Niederschönhausen),+49 30 91609411,sekretariat@kzsb.online,www.konrad-zuse-schule-berlin.de,"Joschko, Thorsten",Odborné učiliště / škola praxe
01P07,Lazarus Schulen der Hoffnungstaler Stiftung Lobetal,Bernauer Str. 115-118,13355,Berlin (Gesundbrunnen),+49 30 46705204,C.Herbst-Anacker@lazarus-schulen.berlin,www.lazarus-schulen.de,"Herbst-Anacker, Christine",Vyšší odborná škola
02Y06,Leibniz-Gymnasium,Schleiermacherstr. 23,10961,Berlin (Kreuzberg),+49 30 50586711,sekretariat@leibniz-gymnasium.berlin,www.leibnizschule-berlin.de,"Krollpfeiffer-Kuhring, Renate",Gymnázium
08Y05,Leonardo-da-Vinci-Gymnasium,Christoph-Ruden-Str. 3,12349,Berlin (Buckow),+49 30 742010,sekretariat@08y05.schule.berlin.de,www.leonardo-da-vinci-gymnasium.de,"Reiter-Ost, Anja",Gymnázium
04B06,Leopold-Ullstein-Schule (OSZ Wirtschaft),Prinzregentenstr. 32,10715,Berlin (Wilmersdorf),+49 30 85758533,info@osz-lus.de,www.leopold-ullstein-schule.de,"Heinze, Tatjana",Nástavbová odborná škola (BOS)
01Y08,Lessing-Gymnasium,Schöningstr. 17,13349,Berlin (Wedding),+49 30 45798510,post@lessing-gymnasium-berlin.de,lessing-gymnasium-berlin.de,"Wüstenberg, Michael",Gymnázium
07P03,Lette-Verein Stiftung des öffentlichen Rechts,Viktoria-Luise-Platz 6,10777,Berlin (Schöneberg),+49 30 21994135,n.forstmann@letteverein.berlin,www.letteverein.berlin,"Forstmann, Norbert",Odborné učiliště / škola praxe
06Y10,Lilienthal-Gymnasium,Ringstr. 2-3,12203,Berlin (Lichterfelde),+49 30 84415360,sekretariat@lilienthal-gymnasium-berlin.de,www.lilienthal-gymnasium-berlin.de,"Beyer, Thorsten",Gymnázium
05Y05,Lily-Braun-Gymnasium,Münsingerstr. 2,13597,Berlin (Spandau),+49 30 3389040,e-post@lily-braun-gymnasium.de,www.lily-braun-gymnasium.de,"Kaufmann, Ulrike",Gymnázium
08B02,"Lise-Meitner-Schule (OSZ Chemie, Physik und Biologie)",Lipschitzallee 25,12351,Berlin (Gropiusstadt),+49 30 6606890,sekretariat@osz-lise-meitner.eu,www.osz-lise-meitner.eu,"Rietzschel, Almut",Vyšší odborná škola
04B01,Loschmidt-Oberschule,Loschmidtstr. 19,10587,Berlin (Charlottenburg),+49 30 34505810,zentrale@loschmidt-berlin.de,www.loschmidt-oberschule.de,"Rose, Franziska (stellv.)",Odborné učiliště / škola praxe
06B02,Louise-Schroeder-Schule (OSZ Bürowirtschaft und Verwaltung),Lippstädter Str. 9-11,12207,Berlin (Lichterfelde),+49 30 901894601,r.buss@oszlss.de,www.osz-louise-schroeder.de,"Buß, Ralph",Nástavbová odborná škola (BOS)
07Y05,Luise-Henriette-Gymnasium,Kurfürstenstraße 53-54,12105,Berlin (Mariendorf),+49 30 902772678,sekretariat@l-h-g.de,www.luise-henriette-berlin.de,"Fischer, Gerlind",Gymnázium
10P22,MANEGE gGmbH,Otto-Rosenberg-Str. 1/4,12681,Berlin (Marzahn),+49 30 8560686200,haerting@manege-berlin.de,www.manege-berlin.de,"Härting, Simon",Odborné učiliště / škola praxe
11Y10,Manfred-von-Ardenne-Gymnasium,Werneuchener Str. 27-28,13055,Berlin (Alt-Hohenschönhausen),+49 30 9865002,info@ardenne-gymnasium.de,www.ardenne-gymnasium.de,"Herberg, Stephan",Gymnázium
04Y10,Marie-Curie-Gymnasium,Weimarische Str. 21,10715,Berlin (Wilmersdorf),+49 30 8599497110,schulleitung@mcg-berlin.de,www.mcg-berlin.de,"Petters, Enrico",Gymnázium
07B02,Marie-Elisabeth-Lüders-Oberschule,Steinmetzstr. 79,10783,Berlin (Schöneberg),+49 30 26391660,sekretariat@melo-sozialwesen.de,melo-berlin.de,"Funk-Horn, Gabriela",Odborné učiliště / škola praxe
03B10,"Max-Bill-Schule (OSZ Planen, Bauen, Gestalten)",Gustav-Adolf-Str. 66,13086,Berlin (Weißensee),+49 30 901892800,03B10@03B10.schule.berlin.de,www.max-bill-schule.de,"Klein, Bernard",Odborné gymnázium
03Y15,Max-Delbrück-Gymnasium,Kuckhoffstr. 2,13156,Berlin (Niederschönhausen),+49 30 47596720,sekretariat@max-delbrueck-gymnasium.de,max-delbrueck-gymnasium.de,"Peters, Nicole",Gymnázium
01Y11,Max-Planck-Gymnasium,Singerstr. 8A,10179,Berlin (Mitte),+49 30 847118830,sekretariat@mpg-berlin.de,www.mpg-berlin.de,"Dr. Kopke, Trix",Gymnázium
11B02,"Max-Taut-Schule (OSZ Gebäude, Umwelt, Technik)",Fischerstr. 36,10317,Berlin (Rummelsburg),+49 30 52280148,michael.nitsche@mts.berlin,www.max-taut-schule.de,"Nitsche, Michael",Nástavbová odborná škola (BOS)
01P48,meco Akademie gGmbH,Seestr. 64,13347,Berlin (Wedding),+49 30 81005820,info@meco-akademie.de,www.meco-akademie.de,"Reinsch, Beate; Dr. Dahmen, Marius",Střední odborná škola (SOŠ)
01P51,mediencollege Berlin gGmbH,Invalidenstr. 17,10115,Berlin (Mitte),+49 30 28873093,grimmer@mediencollege-berlin.de,mediencollege.berlin,"Driese-Baumann, Barbara",Střední odborná škola (SOŠ)
10Y11,Melanchthon-Gymnasium,Adele-Sandrock-Str. 73-75,12627,Berlin (Hellersdorf),+49 30 9918008,spieler@melanchthon-schule-berlin.de,www.melanchthon-schule-berlin.de,"Spieler, Jörg",Gymnázium
04P35,Mentora Gymnasium,Salzufer 6,10587,Berlin (Charlottenburg),+49 30 810580838,info@mentora-gymnasium.de,www.mentora-gymnasium.de,"Grüning, Zoia",Gymnázium
02B03,Modeschule Berlin (OSZ Bekleidung und Mode),Kochstr. 9,10969,Berlin (Kreuzberg),+49 30 25391511,Schulleitung@modeschule-berlin.de,www.modeschule-berlin.de,"Lilienthal, Carmen",Vyšší odborná škola (FOS)
12P22,Mosaik Fachschule für Sozialpädagogik,Flohrstr. 21,13507,Berlin (Tegel),+49 30 41471090,a.hoof@jus-or.de; sekretariat@mosaik-fs.de,www.jugendundsozialwerk.de,"Hoof, Angelika",Vyšší odborná škola
04P24,Moser-Schule - Schweizer Gymnasium,Badenallee 31-32,14052,Berlin (Westend),+49 30 30838282,info@moserschule.de,www.moserschule.de,"Plümecke, Daniela",Gymnázium
01Y04,Musikgymnasium Carl Philipp Emanuel Bach,Rheinsberger Str. 4-5,10115,Berlin (Mitte),+49 30 40505830,bach.musikgymnasium@berlin.de,musikgymnasium-berlin.de,"Timreck, Ina",Gymnázium
06P15,Oberlin-Seminar,Tietzenweg 130,12203,Berlin (Lichterfelde),+49 30 79701440,buero@oberlin-seminar.de,oberlin-seminar.de,"Olschewski, Jan",Vyšší odborná škola (FOS)
10B01,Oscar-Tietz-Schule (OSZ Handel II),Marzahner Chaussee 231,12681,Berlin (Marzahn),+49 30 901895700,info@oscar-tietz-schule.de,www.oscar-tietz-schule.de,"Merscher, Katrin",Nástavbová odborná škola (BOS)
04B07,OSZ Ästhetik und Technik,Schillerstr. 120,10625,Berlin (Charlottenburg),+49 30 8649700,info@osz-koerperpflege.de,www.osz-koerperpflege.de,"Marien, Stefan",Vyšší odborná škola (FOS)
01B01,"OSZ Banken, Immobilien und Versicherungen",Alt-Moabit 10,10557,Berlin (Moabit),+49 30 901891010,info@osz-biv.de,www.osz-biv.de,"Wieland, Ingo",Nástavbová odborná škola (BOS)
06B03,OSZ Bürowirtschaft 1,Ostpreußendamm 40,12207,Berlin (Lichterfelde),+49 30 901894701,schulleitung@oszbw1.de,www.osz-buerowirtschaft-eins.de,"Rähse, Jörg",Nástavbová odborná škola (BOS)
01B04,OSZ Gesundheit I,Schwyzer Str. 6-8,13349,Berlin (Wedding),+49 30 4530800,sekretariat@osz-gesundheit.de,www.osz-gesundheit.de,"Heringhaus, Heike",Nástavbová odborná škola (BOS)
02B04,OSZ Handel 1,Wrangelstr. 98,10997,Berlin (Kreuzberg),+49 30 901891993,info@oszhandel1.org,www.oszhandel.de,"Lehsnau, Frau",Nástavbová odborná škola (BOS)
08B04,OSZ Informations- und Medizintechnik,Haarlemer Str. 23-27,12359,Berlin (Britz),+49 30 225027800,dahms@oszimt.de,www.oszimt.de,"Dahms, Volker",Vyšší odborná škola
01B03,"OSZ Kommunikations-, Informations- und Medientechnik",Osloer Str. 23-26,13359,Berlin (Gesundbrunnen),+49 30 493070,Sekretariat@oszkim.de,www.oszkim.de/wp,"Jäger, Helmut",Nástavbová odborná škola (BOS)
04B03,OSZ Kraftfahrzeugtechnik,Gierkeplatz 1-3,10585,Berlin (Charlottenburg),+49 30 901893300,info@osz-mobil.de,www.oszkfz.de,"Rahmig, Ronald",Střední odborná škola (SOŠ)
07B03,"OSZ Lotis (Logistik, Touristik und Steuern)",Dudenstr. 35-37,10965,Berlin (Tempelhof),+49 30 78604511,schmitz@osz-lotis.de,www.osz-lotis.de,"Schmitz, Angelika",Nástavbová odborná škola (BOS)
05B01,"OSZ TIEM (Technische Informatik, Industrieelektronik und EnergieManagement)",Goldbeckweg 8-14,13599,Berlin (Haselhorst),+49 30 3549460,kontakt@osztiem-edu.de,www.osztiem.de,"Schütte, Mario",Střední odborná škola (SOŠ)
10Y02,Otto-Nagel-Gymnasium,Schulstr. 11,12683,Berlin (Biesdorf),+49 30 5143864,sekretariat@ong.berlin,ong.berlin,"Wolfram-Gagel, Dana",Gymnázium
11P17,Pädalogik GmbH - Fachschule für Sozialpädagogik,Rudolf-Seiffert-Str. 50A,10369,Berlin (Fennpfuhl),+49 30 98195738,schulleitung@paedalogik.de,paedalogik.de,"Krage, Kathrin",Vyšší odborná škola
07Y04,Paul-Natorp-Gymnasium,Goßlerstr. 13-15,12161,Berlin (Friedenau),+49 30 902777921,sekretariat@natorp-gymnasium.de,www.natorp-gymnasium.de,"Bösch, Sarah",Gymnázium
06Y07,Paulsen-Gymnasium,Gritznerstr. 57,12163,Berlin (Steglitz),+49 30 79742530,paulsengymnasium@pg-berlin.de,wp.paulsen-gymnasium.de,"Kloppe-Langer, Stefan",Gymnázium
07P02,Pestalozzi-Fröbel-Haus,Karl-Schrader-Str. 7-8,10781,Berlin (Schöneberg),+49 30 21730242,07P02@07P02.schule.berlin.de,www.pfh-berlin.de,"Knopp, Jochen",Vyšší odborná škola (FOS)
06B01,Peter-Lenné-Schule (OSZ Natur und Umwelt),Hartmannsweilerweg 29,14163,Berlin (Zehlendorf),+49 30 81490112,info@peter-lenne-schule.de,www.peter-lenne-schule.de,N.N.,Nástavbová odborná škola (BOS)
03P43,Pfefferwerk - Fachschule für Sozialpädagogik,Christinenstr. 18-19,10119,Berlin (Prenzlauer Berg),+49 30 44383721,info@pfefferwerk-akademie.de,pfefferwerk-akademie.de,"Bunge, Elisabeth",Vyšší odborná škola
03Y14,Primo-Levi-Gymnasium,Pistoriusstr. 133,13086,Berlin (Weißensee),+49 30 9290168111,sekretariat@plg-berlin.de,www.plg-berlin.de,"Schramm, Uwe",Gymnázium
12P07,Private Goethe-Schulen,Wittenauer Str. 112,13435,Berlin (Wittenau),+49 30 40399849,sekretariatgoetheschulenberlin@gmail.com,goethe-grundschule.bifiz.de,"Kozlov, Alena; Kaiser, Elvira; Hirschnitz, Martin",Gymnázium
04P47,Privates Europa-Gymnasium Berlin,Haubachstr. 5,10585,Berlin (Charlottenburg),+49 30 74073717,info@europa-gymnasium.eu,www.europa-gymnasium.eu,"Konrad, Petra",Gymnázium
02P22,Pro Inklusio - Fachschule für Sozialpädagogik,Muskauer Str. 53,10997,Berlin (Kreuzberg),+49 30 20078010,proinklusio@diebildungspartner.de,proinklusio.diebildungspartner.de,"Schleifenbaum, Tessa",Vyšší odborná škola
02P31,procon College,Stresemannstr. 78,10963,Berlin (Kreuzberg),+49 176552 37525,info@procon-college.de,www.procon-college.de,"Hagen-Penther, Andreas",Vyšší odborná škola
04P20,Rackow-Schulen Berlin,Fasanenstr. 81,10623,Berlin (Charlottenburg),+49 30 31504243,infopost@rackow-berlin.de,rackow-schulen.de/berlin,"Michel, Karl",Odborné učiliště / škola praxe
10B02,Rahel-Hirsch-Schule (OSZ Gesundheit/Medizin),Peter-Weiss-Gasse 8,12627,Berlin (Hellersdorf),+49 30 99289030,info@rahel-hirsch.schule,www.rahel-hirsch-schule.de,"Verdenhalven, Nicole",Odborné gymnázium
07Y03,Rheingau-Gymnasium,Schwalbacher Str. 3-4,12161,Berlin (Friedenau),+49 30 902777920,sekretariat@rheingau-gymnasium.de,www.rheingau-gymnasium.de,"Schalow, Sebastian",Gymnázium
07Y01,Robert-Blum-Gymnasium,Kolonnenstr. 21,10829,Berlin (Schöneberg),+49 30 902777172,sekretariat@robert-blum-schule.de,www.robert-blum-schule.de,"Häger, Jörg",Gymnázium
03Y16,Robert-Havemann-Gymnasium,Achillesstr. 79,13125,Berlin (Karow),+49 30 94878511,03Y16@03Y16.schule.berlin.de,www.robert-havemann-gymnasium.de,"Borgwald, Franz",Gymnázium
02Y07,Robert-Koch-Gymnasium,Dieffenbachstr. 60,10967,Berlin (Kreuzberg),+49 30 50585731,sekretariat@robert-koch-gymnasium.berlin,www.robert-koch-gymnasium.berlin,"Schüßler, Steffen",Gymnázium
12Y07,Romain-Rolland-Gymnasium,Place Moliere 4,13469,Berlin (Wittenau),+49 30 4140170,12Y07@12Y07.schule.berlin.de,www.romain-rolland-gymnasium.eu,"Peters, Uwe",Gymnázium
03Y10,Rosa-Luxemburg-Gymnasium,Kissingenstr. 12,13189,Berlin (Pankow),+49 30 91607730,sekretariat@rlg.berlin,www.rosa-luxemburg-gymnasium.de,"Treptow, Ralf",Gymnázium
07Y02,Rückert-Gymnasium,Mettestr. 8,10825,Berlin (Schöneberg),+49 30 902777173,schulleitung@rueckert-gymnasium-berlin.de,www.rueckert-gymnasium.berlin,"Dr. Balke, Jörg",Gymnázium
07P20,Rudolf Steiner Bildungszentrum gGmbH,Monumentenstr. 13B,10829,Berlin (Schöneberg),+49 30 684028630,post@freie-fachschule-berlin.de,freie-fachschule-berlin.de,"Ostkämper, Frodo; Rindler, Antje",Střední odborná škola (SOŠ)
04B04,Ruth-Cohn-Schule (OSZ Sozialwesen),Bismarckstr. 20,10625,Berlin (Charlottenburg),+49 30 34506714,04B04@osz-rcs.de,www.osz-ruth-cohn.de,"Orsag, Andreja",Odborné učiliště / škola praxe
03P38,S.K.O.U.T. - Fachschule für Sozialpädagogik,Immanuelkirchstr. 10,10405,Berlin (Prenzlauer Berg),+49 30 484947111,info@s-k-o-u-t.de,www.s-k-o-u-t.de,"Kallensee, Anke",Vyšší odborná škola
03P40,SAfS - Spektrum Akademie für Sozialpädagogik,Tino-Schwierzina-Str. 32,13089,Berlin (Heinersdorf),+49 30 24531905,info@safs-berlin.de,www.spektrum-akademie.berlin/erzieher-ausbildung.html,"Dr. Schrader, Kerstin",Vyšší odborná škola
10Y08,Sartre-Gymnasium,Kyritzer Str. 103,12629,Berlin (Hellersdorf),+49 30 99281416,sekretariat@sartre-gymnasium.de,sartre-gymnasium.de,"Kausch-Miniers, Angela",Gymnázium
11A07,Schul- und Leistungssportzentrum Berlin (Sportforum),Fritz-Lesch-Str. 35,13053,Berlin (Alt-Hohenschönhausen),+49 30 983185205,sekretariat@slzb.de,www.slzb.de,"Götze, Gudrun",Střední odborná škola (SOŠ)
01P52,Schulen der ASIG Stiftung e.V.,Kaiserin-Augusta-Allee 14,10553,Berlin (Moabit),+49 30 4690540,leitung@asig-berlin.de,www.asig-berlin.de,"Dr. Erbach, Eva",Vyšší odborná škola
11P14,Schulen der BAWI gGmbH,Franz-Jacob-Str. 2,10369,Berlin (Fennpfuhl),+49 30 27593888,zentrale@bawi-berlin.de,www.bawi-berlin.de,"Dr. Balci, Erdinc",Vyšší odborná škola
11P19,Semper Schulen Berlin gGmbH,Möllendorffstr. 45-52,10367,Berlin (Fennpfuhl),+49 30 93693671,y.pielen@semper-schulen.de,www.semperschulen.de,"Pielen, Mira",Střední odborná škola (SOŠ)
,,,,,,,,,
07P12,SPI Fachschule für Sozialpädagogik,Priesterweg 4,10829,Berlin (Schöneberg),+49 30 25937390,fachschulen@stiftung-spi.de,www.spi-fachschulen.de,"Rieger, Martin Edgar",Vyšší odborná škola
03B08,Staatliche Ballett- und Artistikschule Berlin,Erich-Weinert-Str. 103,10409,Berlin (Prenzlauer Berg),+49 30 4057790,schulleitung@ballettschule-berlin.de,www.ballettschule-berlin.de,"Räther, Martina",Odborné gymnázium
01B02,Staatliche Technikerschule Berlin,Bochumer Str. 8B,10555,Berlin (Moabit),+49 30 901891400,info@technikerschule-berlin.de,www.technikerschule-berlin.de,"Girnus, Claudia",Vyšší odborná škola (FOS)
10Y01,Tagore-Gymnasium,Sella-Hasse-Str. 25,12687,Berlin (Marzahn),+49 30 9321069,schulleitung@tagore-gymnasium.de,www.tagore-gymnasium.de,"Touré, Angela",Gymnázium
03P46,Technische Jugendfreizeit- und Bildungsgesellschaft (tjfbg) gGmbH,Storkower Str. 139B,10407,Berlin (Prenzlauer Berg),+49 30 206089121,info@ffap.de,www.tjfbg.de,"Santos Silva, Tobias",Střední odborná škola (SOŠ)
02S01,Temple-Grandin-Schule,Lasdehner Str. 19,10243,Berlin (Friedrichshain),+49 30 293474231,Schulleitung@temple-grandin.schule.berlin.de,www.temple-grandin-schule.de,"Ahl, Stephanie",Odborná škola se speciální pedagogikou
12Y08,Thomas-Mann-Gymnasium,Königshorster Str. 10,13439,Berlin (Märkisches Viertel),+49 30 414763670,12Y08@12Y08.schule.berlin.de,www.tmgberlin.de,"Liedtke, Jan-Alexander",Gymnázium
12S06,Toulouse-Lautrec-Schule,Miraustraße 126,13509,Berlin (Borsigwalde),+49 30 4332097,12S06@12S06.schule.berlin.de,www.toulouse-lautrec-schule.de,"Kiermeier, Tobias",Odborná škola se speciální pedagogikou
07Y08,Ulrich-von-Hutten-Gymnasium,Rehagener Str. 35-37,12307,Berlin (Lichtenrade),+49 30 902778244,uvh@uvh-online.de,www.ulrich-von-hutten-gymnasium.de,"Meyenberg, Gudrun",Gymnázium
04Y02,Wald-Gymnasium,Waldschulallee 95,14055,Berlin (Westend),+49 30 902926930,sekretariat@waldgymnasium.schule.berlin.de,www.waldgymnasium.de,"Schwippl, Stefanie",Gymnázium
04Y09,Walther-Rathenau-Gymnasium,Herbertstr. 2-6,14193,Berlin (Grunewald),+49 30 8902990,sekretariat@wrg.schule.berlin.de,www.wrs-berlin.de,"Knobelsdorf, Solveig",Gymnázium
07P22,WBS Training Schulen gGmbH,Lorenzweg 5,12099,Berlin (Tempelhof),+49 30 24326902,schulen.berlin@wbs-schulen.de,www.wbs-schulen.de,"Dr. Masshammer, A.; Unkrig-Tepaß, Dirk",Vyšší odborná škola
03P42,Weiterdenker-Fachschule für Sozialpädagogik,Danziger Str. 50,10435,Berlin (Prenzlauer Berg),+49 30 868001030,weiterdenker@ifbw.info,weiterdenker-fachschule.de,"Doering, Geertje",Vyšší odborná škola
06Y05,Werner-von-Siemens-Gymnasium,Beskidenstr. 3,14129,Berlin (Nikolassee),+49 30 8039066,leitung@siemens-gymnasium-berlin.de,www.siemens-gymnasium-berlin.de,"Paubandt, Ute",Gymnázium
05P06,Werner-von-Siemens-Werkberufsschule der Siemens AG,Nonnendammallee 104,13629,Berlin (Siemensstadt),+49 1725667753,deniz.schmick@siemens.com,www.ausbildung.siemens.com,"Schmick, Deniz",Odborné učiliště / škola praxe
03P36,WETEK - Fachschule für Sozialpädagogik,Christinenstr. 18-19,10119,Berlin (Prenzlauer Berg),+49 30 225015033,fachschule@wetek.de,www.wetek.de,"Bayer, Vera",Vyšší odborná škola
06B04,Wilhelm-Ostwald-Schule (OSZ Gestaltung),Immenweg 6,12169,Berlin (Steglitz),+49 30 901894800,sekretariat@osz-gestaltung.de,www.wilhelm-ostwald-schule.de,"Giebert, Hanna",Odborné gymnázium
05P13,Wilhelmstadt Schulen,Wilhelmstr. 28-30,13593,Berlin (Wilhelmstadt),+49 30 36289213,a.reising@wilhelmstadtschulen.de,wilhelmstadtschulen.de,"Toy, Muzaffer; Baykus, Bünyamin",Gymnázium
10Y03,Wilhelm-von-Siemens-Gymnasium,Allee der Kosmonauten 134,12683,Berlin (Biesdorf),+49 30 549791340,schulleitung@wvsg.schule.berlin.de,www.wvsiemens-berlin.de,"Schulz, Andreas",Gymnázium
06Y12,Willi-Graf-Gymnasium,Ostpreußendamm 166,12207,Berlin (Lichterfelde),+49 30 7729004,sekretariat@willi-graf-os.de,willi-graf-gymnasium.de,"Steinke, Hans",Gymnázium
01P42,WWV Bildungsakademie gGmbH,Alexanderstr. 1,10178,Berlin (Mitte),+49 30 5146930,wwv@wwv-online.de,www.abizubi.de,"Farwer, Heiko",Odborné učiliště / škola praxe
