skz,name,street,zip,city,phone,email,website,principal,school_type
60272,"Andreas-Gordon-Schule Erfurt Staatliche Berufsbildende Schule 4, -Ausbildungsschule-",Weidengasse 8,99084,Erfurt,+49 361 6 57 84 00,info@ags-erfurt.de,https://www.ags-erfurt.de,,Odborná škola
50060,Bergschule Apolda Staatliches Gymnasium,Dr.-Theodor-Neubauer-Straße 10a,99510,Apolda,0 36 44/516350,gym-apolda@schulen.weimarerland.de,http://www.bergschule-apolda.de,,Gymnázium
78013,"Bergschule St. Elisabeth Staatlich anerkanntes katholisches Gymnasium, Europaschule",Friedensplatz 5/ 6,37308,Heilbad Heiligenstadt,03606/673402,Sekretariat@bergschule-heiligenstadt.de,http://www.bergschule-heiligenstadt.de,,Gymnázium
60287,Berufsbildende Schule der apm Süd GmbH,Anger 30,99084,Erfurt,036165365560,diana.szantai@apm.de,,,Odborná škola
63829,Berufsbildende Schulen St. Elisabeth des Caritasverbandes für das Bistum Erfurt e.V.,Mittelhäuser Straße 76/77,99089,Erfurt,0361/4219534,schulen-erfurt@caritas-bistum-erfurt.de,http://www.caritas-bbs-erfurt.de,,Odborná škola
64493,"Berufsfachschule für Arzthelferinnen des Innova Sozialwerkes e.V., Höhere Berufsfachschule für Altenpflege des Innova Sozialwerkes e.V.",Zschernitzscher Straße 13,04600,Altenburg,03447/85180,m.rosner@innova-sozialwerk.de,,,Odborná škola
61756,Berufsschulcampus Unstrut-Hainich,Sondershäuser Landstraße 39,99974,Mühlhausen,03601/450-0,leitung@bsc-uh.de,http://www.bsc-uh.de,,Odborná škola
64657,"Bildungswerk für Gesundheitsberufe e.V. Erfurt, Höhere Berufsfachschule und Berufsfachschule",Am Kühlhaus 27,99085,Erfurt,0361/7313537,kontakt@bw-gesundheitsberufe.de,,,Odborná škola
64597,Bildungszentrum für medizinische Heilhilfsberufe GmbH,Hainstraße 21,07545,Gera,0365 7737110,info@bmh-online.de,http://www.bmh-online.de,,Odborná škola
65288,Bildungszentrum Handel/Gewerbe/Freie Berufe e.V. Berufsbildende Schule,Bei der Breitsülze 1,99974,Mühlhausen,03601/401549,information@bz-muehlhausen.de,,,Odborná škola
51304,"Carl-Zeiss-Gymnasium Jena, Staatliches Gymnasium mit math.-nw. Spezialklassen",Erich-Kuithan-Straße 7,07743,Jena,+49 (0) 3641 310 303 0,sekretariat@cz-gymnasium.jena.de,,,Gymnázium
78207,Christliches Spalatin-Gymnasium Altenburg,Schulstraße 7,04600,Altenburg,03447/890858,info@spalatin-gymnasium.de,http://www.spalatin-gymnasium.de,,Gymnázium
64207,CJD Christophorusschule Gera - Förderberufsschule,Am Ferberturm 72,07546,Gera,0365/4354711,schule-gera@cjd.de,http://www.cjd-bbw-gera.de,,Odborná škola
50297,Arnoldischule Gotha Staatliches Gymnasium,Eisenacher Straße 5,99867,Gotha,03621/757000,sekretariat@gym-arnoldischule-gotha.de,http://www.arnoldi-gym.de,,Gymnázium
78060,"Edith-Stein-Schule, Staatlich anerkanntes katholisches Gymnasium",Trommsdorffstraße 26,99084,Erfurt,0361/576890,schulleitung@ess-erfurt.de,http://www.ess-erfurt.de,,Gymnázium
64150,"Eichsfeld Klinikum gGmbH, Bildungsinstitut - Berufsbildende Schule",Windische Gasse 112,37308,Heilbad Heiligenstadt,03606/761207,bildung@eichsfeld-klinikum.de,http://www.eichsfeld-klinikum.de/bildung,,Odborná škola
50180,Elisabeth-Gymnasium Eisenach Staatliches Gymnasium,Nebestraße 24,99817,Eisenach,03691/890074,eligym-sek@eisenach.schule,http://www.eligym.de,,Gymnázium
50300,Ernestinum Gotha Staatliches Gymnasium,Bergallee 8,99867,Gotha,03621/408033,sekretariat@gym-ernestinum-gotha.de,http://www.ernestinum-gotha.de,,Gymnázium
60256,"Ernst-Benary-Schule, Staatliche Berufsbildende Schule 5 Erfurt, Schule für Agrarwirtschaft, Ernährung/Hauswirtschaft, Körperpflege",Langer Graben 82,99092,Erfurt,0361/220250,info@ebs-erfurt.de,http://www.ebs-erfurt.de,,Odborná škola
64330,"Euro Akademie Erfurt, Euro Schulen gGmbH",Juri-Gagarin-Ring 90,99084,Erfurt,0361/ 302547-13,erfurt@euroakademie.de,http://www.euroakademie.de,,Odborná škola
64327,"Euro Akademie Gera, Berufsbildende Ersatzschule",Beethovenstraße 17,07548,Gera,0365 7733633,gera@euroakademie.de,,,Odborná škola
64943,"Euro Akademie Jena, Berufliche Ersatzschule",Göschwitzer Straße 22,07745,Jena,03641 387545,jena@euroakademie.de,www.euroakademie.de,,Odborná škola
64404,"Euro Akademie Pößneck, Berufsbildende Ersatzschule",Carl-Gustav-Vogel-Straße 13,07381,Pößneck,03647 5055210,poessneck@euroakademie.de,,,Odborná škola
64540,Euro-Schulen Altenburg Höhere Berufsfachschule für Diätik und Berufsfachschule für Kinderpflege,Münsaer Straße 33,04600,Altenburg,03447/310630,info@es.altenburg.eso.de,,,Odborná škola
64240,Evangelische Pflegeschule am Sophien- und Hufeland-Klinikum Weimar,Henry-van-de-Velde-Straße 2,99425,Weimar,03643/ 572084,pflegeschule@klinikum-weimar.de,,,Odborná škola
63772,"Evangelische Schule für soziale Berufe Eisenach, DBI - Diakonisches Bildungsinstitut Johannes Falk gGmbH",Ernst-Thälmann-Straße 90,99817,Eisenach,3691810201,info@dbi-falk.de,http://www.dbi-falk.de,,Odborná škola
78420,Evangelisches Gymnasium Meiningen,Berliner Straße 27,98617,Meiningen,03693/8806345,post@evg-meiningen.de,http://www.evg-meiningen.de,,Gymnázium
78253,Evangelisches Gymnasium Mühlhausen,Friedensstraße 16,99974,Mühlhausen,03601/406920,gymnasium@evsz.de,http://evsz.schulwerk-cms.de/Gymnasium/,,Gymnázium
78057,"Evangelisches Ratsgymnasium Erfurt, Staatl. anerkanntes Gymnasium in Trägerschaft der Ev. Schulstiftung in Mitteldeutschland St.Johannes",Meister-Eckehart-Straße 1,99084,Erfurt,0361/6011930,sekretariat@evrg-erfurt.de,,,Gymnázium
65231,"Fachschule für Gesundheitsfachberufe Bad Salzungen gGmbH, HBFS für Gesundheits- und Krankenpflege",Langenfelder Straße 8,36433,Bad Salzungen,03695/6091900,info@fachschule-badsalzungen.de,,,Odborná škola
65291,"Förderberufsschule der KAB gGmbH, Förderschwerpunkte Lernen und Emotionale und soziale Entwicklung",Feldstraße 43,99974,Mühlhausen,03601 88866416,foerderberufsschule@kab-thueringen.de,,,Odborná škola
64733,Förderberufsschule des Obereichsfelder Bildungswerks e.V.,Hertzstraße 41,37327,Leinefelde-Worbis,03605/580241,info@oebw-ev.de,http://www.oebw-ev.de,,Odborná škola
64298,Freie berufliche Schule für Pädagogik und Pflege Mellenbach-Glasbach,Karl-Marx-Straße 21,98744,Schwarzatal,036705 20921,bs-mellenbach-glasbach@ibkm-schulen.de,www.ibkm-schulen.de,,Odborná škola
64780,Freie Berufsbildende Schule Adolph Kolping im Kolping-Bildungswerk Thüringen e.V.,Wermutmühlenweg 11,99089,Erfurt,0361/730680,info@kbw-th.de,,,Odborná škola
64957,"Freie berufsbildende Schule Jena, Staatlich genehmigte Ersatzschule",Emil-Wölk-Straße 11,07747,Jena,03641-4738855,post.fbs-jena@tsapost.de,http://www.fbs-jena.de/,,Odborná škola
78403,Freie Ganztagsschule Milda Gymnasiale Oberstufe,Dorfstraße 92,07751,Milda,036422/63503,fg-milda@t-online.de,http://www.ganztagsschulemilda.de,,Gymnázium
78480,"Freie Reformschule ""Franz von Assisi"", Gymnasiale Oberstufe",Humboldtstraße 2,98693,Ilmenau,03677-689780,sekretariat@assisi-schule.de,http://www.assisi-schule.de,,Gymnázium
50014,Friedrichgymnasium Altenburg Staatliches Gymnasium,Geraer Straße 33,04600,Altenburg,03447/2616,sekretariat@fgymabg.de,,,Gymnázium
51321,"Friedrich-König-Gymnasium Suhl, Staatliches Gymnasium",Friedensstraße 1,98527,Suhl,03681/724321,sekretariat@gymnasium-suhl.de,http://www.eulegym.de,,Gymnázium
50210,Friedrich-Schiller-Gymnasium Eisenberg Staatliches Gymnasium,Schillerstraße 1,07607,Eisenberg,036691 42525,gym.eisenberg@sv.lrashk.de,,,Gymnázium
51364,Friedrich-Schiller-Gymnasium Weimar Staatliches Gymnasium,Thomas-Mann-Straße 2,99423,Weimar,03643/851610,fsg-weimar@gmx.de,http://www.schiller-gymnasium-weimar.de,,Gymnázium
64952,"GAW-Institut für berufliche Bildung gGmbH, Staatlich genehmigte Höhere Berufsfachschule für Pflegeberufe",Keßlerstraße 27,07745,Jena,03641/2327840,jena@gaw.de,,,Odborná škola
50267,Georg-Samuel-Dörffel-Gymnasium Staatliches Gymnasium Weida,Ernst-Thälmann-Straße 23,07570,Weida,036603/62272,gym.weida@schulen-greiz.de,http://www.doerffelgymnasium.de,,Gymnázium
64477,GoBi gGmbH Private Medizinische Berufsfachschule,Bürgeraue 2,99867,Gotha,03621/423112,schule@gobi-gotha.de,http://www.gobi-gotha.de,,Odborná škola
50447,"Goetheschule Ilmenau Staatliches Gymnasium, mit mat.-nw. Spezialklassen",Herderstraße 44,98693,Ilmenau,03677/67531,sk.haus1@gym-goethe-ilmenau.de,http://www.goetheschule-ilmenau.de,,Gymnázium
51051,Gottfried-Wilhelm-Leibniz-Gymnasium Staatliches Gymnasium Leinefelde,Leibnizplatz 1,37327,Leinefelde-Worbis,03605/513483,schulleitung@gymnasium-leinefelde.de,,,Gymnázium
65035,"Grone Gesundheitsakademie Thüringen - gemeinnützig, Berufsfachschule und Höhere Berufsfachschule",Otto-Schott-Straße 2,99427,Weimar,36434 - 80060,Gesundheitsakademie@grone.de,,,Odborná škola
63773,"Diakonisches Bildungsinstitut Johannes Falk gGmbH, Staatlich anerkannte berufsbildende Ersatzschule",Otto-Krebs-Weg 5a,99428,Weimar,(0 36 43) 49 64 30,k.mueller-bangert@dbi-falk.de,,,Odborná škola
50990,"Heinrich-Ehrhardt-Gymnasium, Staatliches Gymnasium",Alte Straße 69,98544,Zella-Mehlis,03682/482036,info@gymnasium-zella-mehlis.de,https://heg-zm.edupage.org,,Gymnázium
51155,Heinrich-Hertz-Gymnasium Erfurt Staatliches Gymnasium,Alfred-Delp-Ring 41,99087,Erfurt,0361/7911552,heinrich-hertz-gymnasium@erfurt.de,http://www.hhg-erfurt.de,,Gymnázium
52026,"Heinrich-Mann-Gymnasium Erfurt Staatliches Gymnasium ""Zur Himmelspforte""",Gustav-Freytag-Straße 65,99096,Erfurt,0361/3735366,heinrich-mann-gymnasium@erfurt.de,http://www.hmg-erfurt.de,,Gymnázium
50526,"Henfling-Gymnasium Meiningen, Staatliches Gymnasium",Moritz-Seebeck-Allee 1,98617,Meiningen,(0 36 93) 8 46 10,leitung@henfling-gymnasium.de,http://www.henfling-gymnasium.de,,Gymnázium
50987,Hennebergisches Gymnasium Georg Ernst Schleusingen Staatliches Gymnasium,Klosterstraße 2-4,98553,Schleusingen,0049 3685 679 1200,sekretariat@gym-schleusingen.de,http://www.gym-schleusingen.de,,Gymnázium
50657,"Herder-Gymnasium Nordhausen, Staatliches Gymnasium",Wiedigsburg 7/8,99734,Nordhausen,03631/46809-0,Schulleitung@Herder-Gymnasium.de,http://www.Herder-Gymnasium.de,,Gymnázium
65381,"Höhere Berufsfachschule für die Notfallsanitäterausbildung, DRK-Bildungswerk Thüringen gGmbH",Dammstraße 28,98617,Meiningen,03693/471005,dieter.rothmann@drk-bildungswerk-thueringen.de,http://www.daa-erfurt.de,,Odborná škola
64673,"Höhere Berufsfachschule für Gestaltung und Informatik, in der Semper Schulen Thüringen gGmbH",Friedericistraße 8a,07545,Gera,0365/551570,hoehere-berufsfachschule.gera@semper-schulen.de,http://www.semper-schulen.de,,Odborná škola
64986,Höhere Berufsfachschule für Gesundheits- und Krankenpflege,Albert-Schweitzer-Straße 2,98527,Suhl,03681/355214,kerstin.neumann@srh.de,,,Odborná škola
64728,Höhere Berufsfachschule für Podologie im Institut für Marktwirtschaft,Sorbenweg 4,99099,Erfurt,0361/3451381,christine.faupel@fswiso.com,,,Odborná škola
64314,"Hotelfachschule, Berufsfachschule und Berufsschule für Gastgewerbe und Tourismus",Witterdaer Weg 3,99092,Erfurt,0361/420 74 0,hotelfachschule@dehoga-komzet.de,,,Odborná škola
51408,Humboldt-Gymnasium Staatliches Gymnasium Weimar,Prager Straße 42,99427,Weimar,03643 / 42 77 77,info@humboldt-weimar.de,http://www.humboldt-weimar.de,,Gymnázium
65038,"IPB - Institut für Pflegeberufliche Bildung, Höhere Berufsfachschule und Berufsfachschule für Pflege",Bahnhofstraße 20,99867,Gotha,,IPB.Gotha@bildungswerk.de,,,Odborná škola
64523,"IPB - Institut für Pflegeberufliche Bildung, Höhere Berufsfachschule und Berufsfachschule für Pflegeberufe",Lisztstraße 2,37327,Leinefelde-Worbis,03605/501277,IPB.leinefelde@bildungswerk.de,,,Odborná škola
65184,IWK gGmbH - Berufsfachschule und Höhere Berufsfachschule für Pflegeberufe,Gerhart-Hauptmann-Straße 3,99734,Nordhausen,03631/9792991,nordhausen@iwk.eu,,,Odborná škola
60033,"Johann-Friedrich-Pierer-Schule, Berufliches Schulzentrum für Gewerbe und Technik",Siegfried-Flack-Straße 33a/b,04600,Altenburg,03447/8651-0,schulleitung@pierer-schule.de,http://www.pierer-schule.de,,Odborná škola
51201,"Karl-Theodor-Liebe-Gymnasium Gera, Staatliches Gymnasium",Trebnitzer Straße 18,07545,Gera,+49 365 412005,sekretariat@ktlgymgera.de,https://ktlg.edupage.org/,,Gymnázium
60899,"Karl-Volkmar-Stoy-Schule Jena, Staatliches Berufsschulzentrum Wirtschaft und Verwaltung",Paradiesstraße 5,07743,Jena,03641/45360,mail@stoyschule.jena.de,http://www.stoyschule.de,,Odborná škola
50583,Käthe-Kollwitz-Gymnasium Lengenfeld unterm Stein Staatliches Gymnasium,Effelder Weg 2,99976,Südeichsfeld,036027/70275,sekretariat@gym-kaethe-kollwitz.schulen-uh.de,http://www.kkgym.de,,Gymnázium
64627,Katholische höhere Berufsfachschule für Physiotherapie an der Bergschule,Friedensplatz 5/6,37308,Heilbad Heiligenstadt,,info-kbbs@smmp.de,,,Odborná škola
78386,Klosterschule Roßleben Gymnasium in freier Trägerschaft,Klosterschule 5,06571,Roßleben-Wiehe,034672/98100,gymnasium@rossleben.com,http://www.rossleben.com,,Gymnázium
51154,"Königin-Luise-Gymnasium, Staatliches Gymnasium",Melanchthonstraße 3,99084,Erfurt,0361/2251438,koenigin-luise-gymnasium@erfurt.de,http://www.klg-erfurt.de,,Gymnázium
64810,Krankenpflegeschule Altenburg gGmbH,Zschernitzscher Straße 13,04600,Altenburg,03447/85180,altenburg@innova-sozialwerk.de,,,Odborná škola
64193,Krankenpflegeschule am St. Georg Klinikum Eisenach,Mühlhäuser Straße 94-95,99817,Eisenach,03691/6981017,gentsch.sabine@stgeorgklinikum.de,,,Odborná škola
50120,Kyffhäusergymnasium Bad Frankenhausen Staatliches Gymnasium,Bahnhofstraße 5a,06567,Bad Frankenhausen,034671/79300,kyfgym@t-online.de,http://kyffhaeusergymnasium.de/,,Gymnázium
64507,Kyffhäuser-Paracelsus-Schule Bad Frankenhausen,Kyffhäuserstraße 61,06567,Bad Frankenhausen,034671/5107-0,paracelsusschule@int-bsw.de,http://www.kyffhaeuser-paracelsus-schule.de,,Odborná škola
64508,"Kyffhäuser-Paracelsus-Schule Leinefelde, Berufsbildende Schule in freier Trägerschaft",Gewerbepark Süd 7,37327,Leinefelde-Worbis,03605-519956,leinefelde@int-bsw.de,,,Odborná škola
64509,"Kyffhäuser-Paracelsus-Schule Nordhausen, Berufsbildende Schule in freier Trägerschaft",Geseniusstraße 19,99734,Nordhausen,03631/434790,nordhausen@int-bsw.de,,,Odborná škola
50030,Lerchenberggymnasium Altenburg Staatliches Gymnasium,Borchertstraße 2- 4,04600,Altenburg,03447/500021,lerchenberggymnasium@gmx.de,http://www.lerchenberggymnasium.de,,Gymnázium
64538,"Ludwig Fresenius Schulen Erfurt, private berufsbildende Schule",Am Roten Berg 7,99086,Erfurt,0361 7442400,erfurt@ludwig-fresenius.de,https://www.ludwig-fresenius.de/,,Odborná škola
64537,"Ludwig Fresenius Schulen Mühlhausen, private berufsbildende Schule",Friedrich-Naumann-Straße 36,99974,Mühlhausen,03601/440556,muehlhausen@ludwig-fresenius.de,http://www.ludwig-fresenius.de,,Odborná škola
60302,"Ludwig-Erhard-Schule Erfurt, Staatliche Berufsbildende Schule 3",Talstraße 24,99089,Erfurt,0361 / 21 97 0,sbbs3@ludwig-erhard-schule.info,,,Odborná škola
51022,"Lyonel-Feininger-Gymnasium, Staatliches Gymnasium Mellingen/Berlstedt",Umpferstedter Straße 18A,99441,Mellingen,036453/81313,gym-mellingen@schulen.weimarerland.de,http://www.lyonel-feininger-gymnasium.de,,Gymnázium
51018,Marie-Curie-Gymnasium Staatliches Gymnasium,Bergstraße 9,99438,Bad Berka,036458/41192,gym-bad-berka@schulen.weimarerland.de,,,Gymnázium
78090,Martin-Luther-Gymnasium Staatlich anerkannte Ersatzschule,Predigerplatz 4,99817,Eisenach,03691/79553,luther@mlg-esa.de,,,Gymnázium
40101,"Musikgymnasium Schloss Belvedere, Staatliches Spezialgymnasium",Schloss Belvedere 1,99425,Weimar,03643/866310,post@musikgymnasium-belvedere.de,http://www.musikgymnasium-belvedere.de,,Gymnázium
65754,ÖKUS e.V. Höhere Berufsfachschule für Gesundheit und Soziales,Bahnhofstraße  6a,07318,Saalfeld/Saale,03671 5526-500,info@pflege-campus.net,,,Odborná škola
50690,Orlatal-Gymnasium Neustadt an der Orla Staatliches Gymnasium,Pößnecker Straße 24,07806,Neustadt an der Orla,036481 22525,gym-neustadt@schulen-sok.de,http://www.otg.edupage.org,,Gymnázium
50254,Oskar-Gründler-Gymnasium Staatliches Gymnasium Gebesee,Ernst-Thälmann-Straße 17,99189,Gebesee,036201/62130,gym.gebesee@schulen-soem.de,https://www.oggym.de/,,Gymnázium
50270,"Osterlandgymnasium, Staatliches Gymnasium Gera",Dehmelstraße 19,07546,Gera,0365/4390157,gym.gera-sr@schulen-greiz.de,http://www.osterlandgymnasium.de,,Gymnázium
51275,Otto-Schott-Gymnasium Jena Staatliches Gymnasium,Karl-Marx-Allee 7,07747,Jena,03641/337911,sekretariat@osg.jena.de,,,Gymnázium
50327,"Perthes-Gymnasium, Staatliches Gymnasium Friedrichroda",Engelsbacher Weg 13,99894,Friedrichroda,03623/304563,sekretariat@gym-perthes-friedrichroda.de,http://www.perthes-gymnasium.de,,Gymnázium
50807,Philipp-Melanchthon-Gymnasium Schmalkalden Staatliches Gymnasium,Geschwister-Scholl-Straße 1/10,98574,Schmalkalden,03683/69810,poststelle@pmg-schmalkalden.de,http://www.pmg-schmalkalden.de,,Gymnázium
50194,"Philipp-Melanchthon-Gymnasium Staatliches Gymnasium Gerstungen, Schule der deutschen Einheit",Gartenstraße 28,99834,Gerstungen,036922/20264,gym.gerstungen@schulen-wak.de,https://gymnasiumgerstungen.de,,Gymnázium
65198,Private Berufsschule Mechatroniker/in für Kältetechnik,Steinstraße 19,99768,Harztor,036331 42360,schmidt@bfs-kaelte-klima.de,http://www.bfs-kaelte-klima.de,,Odborná škola
64302,"Private Fachschule für Wirtschaft und Soziales gGmbH, Staatlich genehmigte/anerkannte Ersatzschule",Auenstraße 3-5,98529,Suhl,03681/800110,suhl@fswiso.de,,,Odborná škola
64301,"Private Fachschule für Wirtschaft und Soziales gGmbH, Staatlich genehmigte/anerkannte Ersatzschule",Keplerstraße 48,07549,Gera,0365/7106874,gera@fswiso.de,,,Odborná škola
64300,"Private Fachschule für Wirtschaft und Soziales gGmbH, Staatlich genehmigte/anerkannte Ersatzschule",Hermann-Danz-Straße 36,99706,Sondershausen,03632/702139,sondershausen@fswiso.com,https://www.fswiso.de,,Odborná škola
64303,"Private Fachschule für Wirtschaft und Soziales gGmbH, Staatlich genehmigte/anerkannte Ersatzschule",Sorbenweg 3-4,99099,Erfurt,0361/659390,bzerfurt@fswiso.de,,,Odborná škola
65588,"Private Pflegeakademie Arnstadt Berufsfachschule, Höhere Berufsfachschule für Altenpflege",Parkweg 3,99310,Arnstadt,03628/ 64 23 59,kontakt@pflegeakademie-arnstadt.de,,,Odborná škola
64283,"pro vita Akademie Nordhausen gGmbH, staatlich anerkannte berufsbildende Schule",Geschwister-Scholl-Straße 14,99734,Nordhausen,03631/988665,info@pro-vita-akademie.de,http://www.pro-vita-akademie.de,,Odborná škola
50540,Rhön-Gymnasium Kaltensundheim Staatliches Gymnasium,Petersgärten 12,36452,Kaltennordheim,036946/3370,info@gymnasium-kaltensundheim.de,http://www.rhoengym.de,,Gymnázium
50837,Roman-Herzog-Gymnasium Schmölln Staatliches Gymnasium,Hermann-von-Helmholtz-Straße 18,04626,Schmölln,034491/27500,sekretariat@gym-sln.de,http://www.rhgsln.de,,Gymnázium
51198,Rutheneum seit 1608 Staatliches Gymnasium,Burgstraße 2,07545,Gera,0365 214753-0,sekretariat@gymnasium-rutheneum.de,https://www.gymnasium-rutheneum.de,,Gymnázium
50480,Salza-Gymnasium Bad Langensalza Staatliches Gymnasium,Schulplatz 6,99947,Bad Langensalza,03603/86060,sekretariat.sp@salza-gymnasium.schulen-uh.de,http://www.salza-gymnasium.de,,Gymnázium
50360,"Salzmannschule Schnepfenthal, Staatliches Spezialgymnasium für Sprachen",Klostermühlenweg 2-8,99880,Waltershausen,03622/913-0,sekretariat@salzmannschule.de,http://www.salzmannschule.de,,Gymnázium
64224,"Schule für Gesundheits- und Krankenpflege am Katholischen Krankenhaus ""St. Johann Nepomuk""",Haarbergstraße 70,99097,Erfurt,0361 6541630,schule@kkh-erfurt.de,http://www.kkh-krankenpflegeschule.de,,Odborná škola
63019,Schulverbund Staatliche Berufsbildende Schulen Weimarer Land/Sömmerda,Parkweg 90,99439,Am Ettersberg,036452/70944,bs-schwerstedt@schulen.weimarerland.de,,,Odborná škola
60316,"Sebastian-Lucius-Schule Erfurt, Staatliche Berufsbildende Schule 1",Am Flüßchen 10,99091,Erfurt-Gispersleben,0361/740600,info@sls-erfurt.de,http://www.sls-erfurt.de,,Odborná škola
50614,Seiler-Gymnasium Staatliches Gymnasium Schlotheim,Heilinger Straße 9,99994,Nottertal-Heilinger Höhen,036021/80628,sekretariat@gym-schlotheim.schulen-uh.de,http://www.seiler-gymnasium.de,,Gymnázium
64837,Semper Schulen Thüringen - private berufsbildende Schulen,Neundorfer Straße 28,98527,Suhl,03681/35 29 0,suhl2@fswiso.com,http://semper-schulen.de,,Odborná škola
51048,St.-Josef-Gymnasium Dingelstädt Staatliches Gymnasium,Riethstieg 1,37351,Dingelstädt,036075/62275,Sekretariat@Gymnasium-Dingelstaedt.de,https://gymnasium-dingelstaedt.de/joomla/,,Gymnázium
64690,"Staatl. anerkannte Private Höhere Berufsfachschule für Pharmazeutisch-technische, und Chemisch-technische Assistenten des TBV e.V.",Werner-Seelenbinder-Straße 14,99096,Erfurt,"0361/4211878, 0361/6026982 und 01523/3665650",info@thueringer-bildungsverein.de,http://www.thueringer-bildungsverein.de,,Odborná škola
64420,"Staatlich anerkannte Berufsbildende Schule in freier Trägerschaft Gera-Kaimberg, Bildungswerk für Gesundheits- und Sozialberufe Gera Kaimberg",Kaimberg 1,07551,Gera,0365/31273,info@bildungswerk-kaimberg.de,,,Odborná škola
64433,Staatlich anerkannte Fachschule und höhere Berufsfachschule für Gesundheits- und Pflegeberufe,Am Vogelherd 50/51,98693,Ilmenau,03677/841089,ilmenau@gaw.de,,,Odborná škola
64297,"Staatlich anerkannte private berufliche Schulen für Therapie, Pädagogik und Pflege",Am Bahnhof 12/13,06577,An der Schmücke,034673/7600,bs-heldrungen@ibkm-schulen.de,http://www.ibkm-schulen.de,,Odborná škola
64387,"Staatlich anerkannte/genehmigte berufsbildende Schulen in Weimar, Fachschule und höhere Berufsfachschule für Gesundheits-, Pflege- und Sozialberufe",Buttelstedter Straße 90,99427,Weimar,03643/4826-0,weimar@deb-gruppe.org,,,Odborná škola
65394,"Staatlich anerkannte/genehmigte Fachschule und höhere Berufsfachschule für Gesundheits-, Sozial-, Pflege- und Assistenzberufe",Bernhardstraße 3,98617,Meiningen,03693/43345,meiningen@gaw.de,http://www.gaw.de,,Odborná škola
78150,Staatlich anerkanntes Christliches Gymnasium Jena,Altenburger Straße 10,07743,Jena,03641/520130,mail@c-g-j.de,http://www.christlichesgymnasium.jena.de/,,Gymnázium
65634,Staatlich genehmigte Höhere Berufsfachschule für Pflegeberufe,Jenaer Straße 66,99510,Apolda,,apolda@deb-gruppe.org,,,Odborná škola
60482,Staatliche Berufsbildende Schule 3 Technik Gera,Berliner Straße 157,07546,Gera,0365/4371611,sbbs.technik@gera.de,http://www.sbbs-technik.de,,Odborná škola
60346,"Staatliche Berufsbildende Schule 6 für Gesundheit und Soziales Erfurt, Marie-Elise-Kayser-Schule",Leipziger Straße 15,99085,Erfurt,0361/67920,marie-elise-kayser-schule@erfurt.de,http://www.meks-erfurt.de,,Odborná škola
63066,"Staatliche Berufsbildende Schule Friedrich Justin Bertuch Weimar, Wirtschaft/Verwaltung und Ernährung",Ernst-Busse-Straße 2,99427,Weimar,03643 804653,sek-berufsschule@sbbs-bertuch.de,,,Odborná škola
60959,Staatliche Berufsbildende Schule für Gesundheit und Soziales Jena,Rudolf-Breitscheid-Straße 56/58,07747,Jena,03641/35570,info@mefa.jena.de,http://www.mefa.jena.de,,Odborná škola
61743,Staatliche Berufsbildende Schule für Gesundheit und Soziales Meiningen,Ernststraße 9,98617,Meiningen,03693/44570,sekretariat-mgn@gus-mgn.de,,,Odborná škola
64147,Bergschule St. Elisabeth Katholische berufsbildende Schule,Friedensplatz 5/ 6,37308,Heilbad Heiligenstadt,03606/67302,g.sachse@smmp.de,http://www.bergschule-st-elisabeth.de/de/bbs,,Odborná škola
60003,Staatliche Berufsbildende Schule für Wirtschaft und Soziales,Platanenstraße 3,04600,Altenburg,03447 51186-0,sbbs.wiso@sbbs-wiso.de,http://www.sbbs-wiso.de,,Odborná škola
60539,"Staatliche Berufsbildende Schule Gesundheit, Soziales und Sozialpädagogik Gera",Maler-Fischer-Straße 2,07552,Gera,0365/552153-0,kontakt@gesuso-gera.de,,,Odborná škola
62315,"Staatliche Berufsbildende Schule Sonneberg, Ausbildungsschule",Max-Planck-Straße 49,96515,Sonneberg,03675/405-0,steffen.werner@sbbs-son.de,http://www.sbbs-son.de,,Odborná škola
60419,"Staatliche Berufsbildende Schule Wirtschaft/Verwaltung -Dr. Eduard Amthor- Gera, Ausbildungsschule",Enzianstraße 18,07545,Gera,0365/77335910,sbbs.amthorschule@gera.de,https://www.amthorschule-gera.de,,Odborná škola
63576,"Staatliche Berufsbildende Schulen Eichsfeld, SBBS Eichsfeld",Goethestraße 18,37327,Leinefelde-Worbis,03605/54261140,sekretariat@sbbs-eichsfeld.de,http://www.sbbs-eichsfeld.de,,Odborná škola
60675,Staatliche Fachschule für Bau Wirtschaft und Verkehr Gotha,Trützschlerplatz 1,99867,Gotha,03621/7763,poststelle@fachschule-gotha.thueringen.de,http://www.fachschule-gotha.de,,Odborná škola
51318,Staatliches Angergymnasium Jena,Karl-Liebknecht-Straße 87,07749,Jena,03641/489090,schulleiter@angergymnasium.jena.de,http://www.angergymnasium.jena.de,,Gymnázium
60946,Staatliches Berufsbildendes Schulzentrum Jena-Göschwitz,Rudolstädter Straße 95,07745,Jena,03641/29460,sekretariat@sbsz-jena.de,http://www.sbsz-jena.de,,Odborná škola
61187,"Staatliches Berufsbildungszentrum ""Ernst Arnold"" Greiz-Zeulenroda",Plauensche Straße 2a,07973,Greiz,03661 47930,sbbz-greiz@schulen-greiz.de,http://www.sbbz-grz-zr.schulen-greiz.de,,Odborná škola
62225,Staatliches Berufsbildungszentrum des Landkreises Saalfeld-Rudolstadt,Trommsdorffstraße 1,07407,Rudolstadt,03672/31480,schulleitung@sbz-slf-ru.de,http://www.sbz-slf-ru.de,,Odborná škola
62388,Staatliches Berufsbildungszentrum Meiningen,Am Drachenberg 4,98617,Meiningen,03693/8118-0,sekretariat@bbz-meiningen.de,https://www.bbz-meiningen.de,,Odborná škola
62061,"Staatliches Berufsbildungszentrum Schmalkalden, BBZ-SM",Grenzweg 1,98574,Schmalkalden,03683/69630,info@bbzsm.de,http://www.bbzsm.de,,Odborná škola
62418,Staatliches Berufsbildungszentrum Suhl/Zella-Mehlis,Gewerbestraße 1,98544,Zella-Mehlis,03682/45800,schulleitung@sbbz-szm.de,http://www.sbbz-szm.de,,Odborná škola
60779,Staatliches Berufsbildungszentrum und Medizinische Fachschule Bad Salzungen,Lindigallee 1,36433,Bad Salzungen,03695/69280,schulleitung@sbbz-lindig.de,http://www.sbbz-lindig.de,,Odborná škola
63082,"Staatliches Berufsbildungszentrum Weimar ""Janusz Korczak"", Kompetenzzentrum für Gesundheit, Soziales und Technik",Lützendorfer Straße 10,99427,Weimar,03643/48420,info@bbz-weimar.de,http://www.bbz-weimar.de,,Odborná škola
50597,Friedrich-Ludwig-Jahn-Gymnasium Großengottern Staatliches Gymnasium,Bahnhofstraße 34,99991,Unstrut-Hainich,036022/91803,Sekretariat@GYM-Grossengottern.schulen-uh.de,http://www.fljgym-grossengottern.de,,Gymnázium
60599,Staatliches Berufsschulzentrum Gotha-West,Von-Zach-Straße 61,99867,Gotha,03621 / 7236-0,sekretariat@bz-gotha-west.de,http://www.sbz-gotha-west.de,,Odborná škola
60269,Staatliches Berufsschulzentrum Heinrich Ehrhardt Eisenach,Palmental 14,99817,Eisenach,03691/8233208,Focke@sbsz-eisenach.de,http://www.sbsz-eisenach.de,,Odborná škola
62568,Staatliches Berufsschulzentrum Hermsdorf-Schleiz-Pößneck,Rodaer Straße 45,07629,Hermsdorf,036601/47402,info@sbsz-hsp.de,http://www.sbsz-hsp.de,,Odborná škola
60602,Staatliches Berufsschulzentrum Hugo Mairich,Kindleber Straße 99b,99867,Gotha,03621/3347-0,sekretariat@bsz-hm.de,http://www.bszhm.de,,Odborná škola
62331,Staatliches Berufsschulzentrum Kyffhäuserkreis,Salzstraße 16,99706,Sondershausen,03632 7418520 oder 03632 7418521,sekretariat-sbz@kyffhaeuser.de,http://www.sbz-kyffhaeuserkreis.de,,Odborná škola
61790,Staatliches Berufsschulzentrum Nordhausen,Straße der Genossenschaften 168,99734,Nordhausen,03631/927011,info@sbz-ndh.de,http://www.sbz-ndh.de,,Odborná škola
52519,Staatliches Dr.-Sulzberger-Gymnasium Bad Salzungen,Otto-Grotewohl-Straße 32,36433,Bad Salzungen,03695/850260,gym.basa@schulen-wak.de,http://www.gym-basa.de,,Gymnázium
51168,"Staatliches Gymnasium ""Albert Schweitzer"" Erfurt mit Spezialklassen im MINT- Bereich",Vilniuser Straße 17-19,99089,Erfurt,0361/2628300,albert-schweitzer-gymnasium@erfurt.de,https://www.asg-erfurt.de,,Gymnázium
50207,"Staatliches Gymnasium ""Albert Schweitzer"" Ruhla",Bermbachtal 24,99842,Ruhla,036929/6160,gym.ruhla@schulen-wak.de,https://www.gymnasium-ruhla.com,,Gymnázium
50434,"Staatliches Gymnasium ""Am Lindenberg"" Ilmenau",Professor-Deubel-Straße 1,98693,Ilmenau,03677/4656908,schule@gym-lindenberg-ilmenau.de,http://www.gym-amlindenberg.de,,Gymnázium
50780,"Staatliches Gymnasium ""Dr. Konrad Duden"" Schleiz",Hofer Straße 10,07907,Schleiz,03663/422289,gym-schleiz@schulen-sok.de,,,Gymnázium
50763,"Staatliches Gymnasium ""Erasmus Reinhold"" Saalfeld",Am Lerchenbühl 17,07318,Saalfeld/Saale,03671/672235,reinhold.gym.slf@gmx.de,http://www.erasmus-reinhold-gymnasium.de,,Gymnázium
50177,"Staatliches Gymnasium ""Ernst Abbe"" Eisenach",Wartburgallee 60,99817,Eisenach,03691/74580,eag-sek@eisenach.schule,http://www.ernstabbegymnasium.de,,Gymnázium
50660,"Staatliches Gymnasium ""Friedrich Schiller"" Bleicherode",Gartenstraße 67,99752,Bleicherode,036338/42340,gym-schiller-sekretariat@ndh-schule.de,http://www.gymnasium-bleicherode.de,,Gymnázium
51081,"Staatliches Gymnasium ""Friedrich Schiller"" Zeulenroda",Schopperstraße 26,07937,Zeulenroda-Triebes,036628/82228,gym.zeulenroda@schulen-greiz.de,http://www.fsgym.de,,Gymnázium
50344,"Staatliches Gymnasium ""Gleichense"" Ohrdruf",Trinitatisstraße 2,99885,Ohrdruf,03624/402337,sekretariat@gym-gleichense-ohrdruf.de,http://www.gymnasium-gleichense.de,,Gymnázium
50314,"Staatliches Gymnasium ""Gustav Freytag"" Gotha",Clara-Zetkin-Straße 58,99867,Gotha,03621/406650,gustavfreytag@gmx.de,http://www.gfg-gotha.de,,Gymnázium
52039,"Staatliches Gymnasium ""Hannah Arendt"" Erfurt",Scharnhorststraße 43,99099,Erfurt,0361/789 69 478,gym10@erfurt.de,,,Gymnázium
50750,"Staatliches Gymnasium ""Heinrich Böll"" Saalfeld",Sonneberger Straße 15,07318,Saalfeld/Saale,03671/35830,hbg.slf@gmx.de,http://www.boellgymnasium.de,,Gymnázium
51621,"Staatliches Gymnasium ""Hermann Pistor"" Sonneberg",Dammstraße 50,96515,Sonneberg,03675/702977,sekretariat@gymson.de,http://www.gymnasium-sonneberg.de,,Gymnázium
50957,"Staatliches Gymnasium ""J. H. Pestalozzi"" Stadtroda",Schloßstraße 15,07646,Stadtroda,036428/62018,gym.stadtroda@sv.lrashk.de,http://www.gymnasium-stadtroda.de,,Gymnázium
50390,"Staatliches Gymnasium ""Johann Georg Lingemann"" Heiligenstadt",Bahnhofstraße 17,37308,Heilbad Heiligenstadt,03606/612412,sekretariat@gymnasium-hig.de,http://www.lingemann-gymnasium.de,,Gymnázium
51124,"Staatliches Gymnasium ""Johann Gutenberg"" Erfurt",Gutenbergplatz 6,99092,Erfurt,0361/6634112,gutenberggymnasium@erfurt.de,https://www.gutenberg-erfurt.de,,Gymnázium
51395,"Staatliches Gymnasium ""Johann Wolfgang v. Goethe"" Weimar, Jugend debattiert Schule",Amalienstraße 4,99423,Weimar,03643/851672,schulleitung@goethegym.net,,,Gymnázium
50464,"Staatliches Gymnasium ""Leuchtenburg"" Kahla",Schulstraße 18,07768,Kahla,036424/52788,gym.kahla@sv.lrashk.de,http://www.gym-kahla.de,,Gymnázium
51064,"Staatliches Gymnasium ""Marie Curie"" Worbis",Elisabethstraße 23,37339,Leinefelde-Worbis,036074-94380,schulleitung@gymnasium-wbs.de,http://www.gymnasium-wbs.de,,Gymnázium
52926,"Staatliches Gymnasium ""MELISSANTES"" Arnstadt",Käfernburger Straße 2,99310,Arnstadt,03628-600225,sk@gym-arnstadt.de,https://melissantes-gymnasium.de/,,Gymnázium
50644,"Staatliches Gymnasium ""Wilhelm von Humboldt"" Nordhausen",Blasiistraße 16,99734,Nordhausen,03631/9118700,sekretariat@gymnasium-humboldt.de,http://www.humgym.net,,Gymnázium
51185,Staatliches Gymnasium 11,Grünstraße 9,99084,Erfurt,036164439804,gymnasium11@erfurt.de,https://gymnasium11.edupage.org,,Gymnázium
50853,Staatliches Gymnasium Albert Schweitzer Sömmerda,Salzmannstraße 39,99610,Sömmerda,03634/612420,gym.soemmerda@schulen-soem.de,,,Gymnázium
50687,Staatliches Gymnasium Am Weißen Turm Pößneck,Schulplatz 1,07381,Pößneck,03647/425412,gym-poessneck@schulen-sok.de,,,Gymnázium
50507,Staatliches Gymnasium Christian Gottlieb Reichard Lobenstein,Karl-Marx-Straße 24,07356,Bad Lobenstein,036651/396747,gym-badlobenstein@schulleitung.schulen-sok.de,http://www.gym-lbs.de,,Gymnázium
50734,Staatliches Gymnasium Dr. Max Näder Königsee,Neue Schulstraße 1,07426,Königsee,036738/4820,naedergymnasium@t-online.de,http://www.naedergymnasium.de,,Gymnázium
51291,Staatliches Gymnasium Ernst Abbe Jena,Ammerbacher Straße 21,07745,Jena,03641/215330,sekretariat@eag.jena.de,,,Gymnázium
50417,Staatliches Gymnasium Georgianum Hildburghausen,Geschwister-Scholl-Straße 15,98646,Hildburghausen,03685/6791150,robby.kraemer@schule.thueringen.de,http://www.gymgeorg.de,,Gymnázium
50894,Staatliches Gymnasium Geschwister Scholl Sondershausen,Güntherstraße 58,99706,Sondershausen,03632/71140,info.scholl@t-online.de,https://www.geschwister-scholl-gymnasium-sondershausen.de,,Gymnázium
50150,Staatliches Gymnasium Johann Gottfried Seume Vacha,Völkershäuser Straße 9,36404,Vacha,036962/24305,gym.vacha@schulen-wak.de,http://www.seume-gymnasium-vacha.de,,Gymnázium
50867,"Staatliches Gymnasium Kölleda, Prof. Fritz Hofmann",Langer Weg 165,99625,Kölleda,03635/479043,gym.koelleda@schulen-soem.de,http://www.gymnasium-kölleda.de,,Gymnázium
40041,"Staatliches Gymnasium Oberhof, Spezialschule für Sport mit angegliedertem Regelschulteil",Am Harzwald 3,98559,Oberhof,036842 / 268110,sekretariat@sportgymnasium-oberhof.info,https://www.sportgymnasium-oberhof.info,,Gymnázium
50704,"Staatliches Gymnasium Rudolstadt, Gymnasium Fridericianum",Weinbergstraße 1a,07407,Rudolstadt,03672/46590,fridericianum@arcor.de,https://www.fridericianum-rudolstadt.de,,Gymnázium
50960,Staatliches Holzland-Gymnasium Hermsdorf,Rudolf-Breitscheid-Straße 27,07629,Hermsdorf,036601/82933,gym.hermsdorf@sv.lrashk.de,http://www.holzlandgymnasium.de,,Gymnázium
40024,"Staatliches Pierre-de-Coubertin Gymnasium Erfurt, Spezialschule für Sport mit angegliedertem Regelschulteil",Mozartallee 4,99096,Erfurt,0361/34813,sportgym.erfurt@t-online.de,,,Gymnázium
40037,"Staatliches Sportgymnasium ""Joh. Chr. Fr. GutsMuths"" Jena, Spezialschule für Sport mit angegliedertem Regelschulteil",Wöllnitzer Straße 40,07749,Jena,03641/3815-0,info@sportgymnasium-jena.info,http://www.sportgymnasium-jena.de,,Gymnázium
50627,Staatliches Thüringisches Rennsteig-Gymnasium Neuhaus am Rennweg,Apelsbergstraße 62,98724,Neuhaus am Rennweg,03679/720043 und 7273780,sekretariat@gymneuhaus.de,http://www.gymnasium-neuhausamrennweg.de,,Gymnázium
64867,"Stiftung Deutsche Landerziehungsheime Hermann-Lietz-Schule Haubinda, Fachoberschule und Berufliches Gymnasium",Stiftung 1,98663,Westhausen,036875/671-31,r.schilha@hl-haubinda.de,,,Odborná škola
50567,"Tilesius-Gymnasium, Staatliches Gymnasium",An der Burg 19,99974,Mühlhausen,03601/880063,Sekretariat-Burg@tilesius-gymnasium.de,http://www.tilesius-gymnasium.net,,Gymnázium
64567,"Akademie für Wirtschaft und Technik, Private staatlich anerkannte Fachschule",Schwerborner Straße 35,99086,Erfurt,+49 361 51807- 0,ebz@ebz-verbund.de,awt.thueringer-stiftung.de,,Odborná škola
51296,"Adolf-Reichwein-Gymnasium Jena, Staatliches Gymnasium",Wöllnitzer Straße 1,07749,Jena,03641394841,sek@reichweingymnasium.jena.de,,,Gymnázium
50237,von-Bülow-Gymnasium Neudietendorf Staatliches Gymnasium,Zinzendorfstraße 19,99192,Nesse-Apfelstädt,036202/290-0,sekretariat@gym-buelow-neudietendorf.de,,,Gymnázium
60239,"Walter-Gropius-Schule Erfurt, Staatliche Berufsbildende Schule 7",Binderslebener Landstraße 162,99092,Erfurt-Bindersleben,0361/22120,walter-gropius-schule@erfurt.de,http://www.walter-gropius-schule.de,,Odborná škola
51215,Zabel-Gymnasium Gera Staatliches Gymnasium,Clara-Zetkin-Straße 7,07545,Gera,0365/8001515,sekretariat@zabel-gymnasium.de,https://zabel-gym.edupage.org/,,Gymnázium
50027,Veit-Ludwig-von-Seckendorff-Gymnasium Meuselwitz Staatliches Gymnasium,Rathausstraße 16,04610,Meuselwitz,0 34 48/75 14 0,sekretariat@seckendorffgymnasium.de,http://www.seckendorffgym.de,,Gymnázium
62028,"Staatliche Berufsbildende Schule für Gesundheit und Soziales Saalfeld ""Georgius Agricola"", Medizinische Fachschule",Pfortenstraße 42a,07318,Saalfeld/Saale,03671/45800,info@mefa-saalfeld.de,http://www.mefa-saalfeld.de,,Odborná škola
60719,"Staatliches Berufsbildendes Schulzentrum Hildburghausen, Europaschule",Wiesenstraße 20,98646,Hildburghausen,03685/6791250,schulleitung@sbsz-hildburghausen.de,,,Odborná škola
60752,Staatliches Berufsschulzentrum Arnstadt-Ilmenau,Am Ehrenberg 1,98693,Ilmenau,03677/64570,info@sbsz-arn-ilm.de,http://www.sbsz-arn-ilm.de,,Odborná škola
50381,Ulf-Merbold-Gymnasium Staatliches Gymnasium Greiz,Heinrich-Fritz-Straße 19,07973,Greiz,03661/430069,sl@ulf-merbold-gymnasium.de,http://www.ulf-merbold-gymnasium.de,,Gymnázium
64643,"Grundig Akademie Gera Staatlich genehmigte/anerkannte Fachschule für Wirtschaft und Technik, Staatlich genehmigte/anerkannte Höhere Berufsfachschule",Friedericistraße 11,07545,Gera,0365/55276-0,info-gera@grundig-akademie.de,http://www.grundig-akademie-gera.de,,Odborná škola
