skz,name,street,zip,city,phone,email,website,principal,school_type
5855,Landwirtschaftliche Fachschule Eisenstadt,Neusiedler Straße 6,7000,Eisenstadt,02682/63644 02682/6364430,,www.weinbauschule.at,Mag. Erich Unger,"LFMS, Sekundarbildung Oberstufe"
5823,Bundeshandelsakademie und Bundeshandelsschule Stegersbach,Kirchengasse 44,7551,Stegersbach,03326/52340,,www.hak-stegersbach.at,Mag. Chris Wagner,"Kaufmännische Schule, Sekundarbildung Oberstufe"
1588,MINT-Mittelschule Illmitz - Nationalparkschule,Zickhöhe 25,7142,Illmitz,02175/5009 0664/92 68 599,,www.nms-illmitz.at,"SCL Brigitte Maria Renner, BEd, MA","Neue Mittelschule, Sekundarbildung Unterstufe"
670,Private Pädagogische Hochschule Burgenland,Thomas-Alva-Edison-Straße 1,7000,Eisenstadt,02682/24817,,www.ph-burgenland.at,,"Pädagogische Hochschulen, Hochschulen"
5056,Bundeshandelsakademie und Bundeshandelsschule Neusiedl am See,Bundesschulstraße 4,7100,Neusiedl am See,02167/8858,,www.akademie-der-wirtschaft.at,Mag. Hannes Nitschinger,"Kaufmännische Schule, Sekundarbildung Oberstufe"
5923,Bundeshandelsakademie und Bundeshandelsschule Eisenstadt,Bad Kissingen-Platz 3,7001,Eisenstadt,02682/64608,,www.bhak-eisenstadt.at,Mag. Reinhard Gaul,"Kaufmännische Schule, Sekundarbildung Oberstufe"
4462,Höhere Lehranstalt für wirtschaftliche Berufe Theresianum Eisenstadt,Kalvarienbergplatz 8,7000,Eisenstadt,02682/62236-27 02682/62236-30,,www.theresianum-eisenstadt.at,MMag. Edith Straussberger,"Kaufmännische Schule, Sekundarbildung Oberstufe"
1226,Volksschule Sankt Margarethen im Burgenland,Hauptplatz 5,7062,Sankt Margarethen im Burgenland,02680/2212,,vs-st-margarethen.at,Karin Lang,"Volksschule, Grundbildung"
2851,Netzwerk Mittelschule Markt Allhau,Schulgasse 15,7411,Markt Allhau,03356/244,,www.nms-ma.at,"Daniela Hallemann, BEd, MA","Neue Mittelschule, Sekundarbildung Unterstufe"
4804,Höhere technische Bundeslehranstalt Eisenstadt,Bad Kissingen-Platz 3,7000,Eisenstadt,+43 2682 64605,,www.htleisenstadt.at,,Sekundarbildung Oberstufe
998,Erwin Moser Volksschule Gols,Obere Hauptstraße 5,7122,Gols,02173/2275 06641609630,,vsgols.at,"Vs Dir. Elisabeth Kainz, dipl.Päd","Volksschule, Grundbildung"
3320,Schule für allgemeine Gesundheits- und Krankenpflege Oberwart,Dornburggasse 82,7400,Oberwart,057979/24714,,pflegeausbildung-burgenland.at,"Gabriele Ehrenhöfer, MSc","Sozialberufliche Schule, Sekundarbildung Oberstufe"
475,Volksschule Apetlon - Nationalparkschule,Kirchengasse 7,7143,Apetlon,02175/2236 0664/9268599,,vs-apetlon.at,"Brigitte Maria Renner, BEd, MA","Volksschule, Grundbildung"
4316,Volksschule Illmitz - Nationalparkschule,Zickhöhe 25,7142,Illmitz,02175/2349 06479268599,,www.vs-illmitz.at,"Brigitte Maria Renner, BEd, MA","Volksschule, Grundbildung"
636,Sonnenland Schule,Ing. H. Sylvester Straße 7,7000,Eisenstadt,0688/8287726,,www.sonnenlandschule.at,Mag. Regina Thurner,SAS
484,Neue Mittelschule Jennersdorf - Schwerpunkt Informatik mit PTS und Expositur Neuhaus,Schulstraße 2,8380,Jennersdorf,03329/45331,,www.ipadschule.at,"Hannes Thomas, BEd, MAS, MSc","Polytechnische Schule, Neue Mittelschule, Sekundarbildung Unterstufe"
4071,Bundeshandelsakademie und Bundeshandelsschule Frauenkirchen,Kirchenplatz 1,7132,Frauenkirchen,02172/2164,,www.bhakbhas.at,Mag. Hannes Schmid,"Kaufmännische Schule, Sozialberufliche Schule, Sekundarbildung Oberstufe"
3854,Bundesbildungsanstalt für Elementarpädagogik / Bundesbildungsanstalt für Sozialpädagogik - Kolleg,Dornburggasse 93,7400,Oberwart,03352/32355,,www.bafep-oberwart.at,OStR Prof. Mag. Herwig Wallner,"AHS, Sekundarbildung Oberstufe, Kindergarten"
322,Landesfachschule für Keramik und Ofenbau Stoob,Keramikstraße 16,7344,Stoob,02612/42484,,www.keramikschule.at,Mag. Christa Pichler,"TMS und THS, Sekundarbildung Oberstufe"
3704,Mittelschule Zurndorf,Mühlgasse 42,2424,Zurndorf,02147 2224,,www.ms-zurndorf.at,"Dipl.-Päd.in Gerda Kappel, BEd","Neue Mittelschule, Sekundarbildung Unterstufe"
1744,Volksschule Grieselstein,Grieselstein Dorf 33,8380,Jennersdorf,03329/48033,,www.vs-jennersdorf.schulweb.at,Schulleiterin,"Volksschule, Grundbildung"
4651,Volksschule Jennersdorf,Wollingergasse 1,8380,Jennersdorf,03329/46554,,www.vs-jennersdorf.schulweb.at,Schulleiterin,"Volksschule, Grundbildung"
5255,Polytechnische Schule Oberpullendorf,Spitalstraße 33,7350,Oberpullendorf,02612/42630,,pts-oberpullendorf.at,,"Polytechnische Schule, Sekundarbildung Oberstufe"
1592,Volksschule Oberpetersdorf,Schulgasse 2,7332,Kobersdorf,02618/8008,,www.school4you.at/7332/vs-oberpetersdorf,Angelika Hallwachs,"Volksschule, Grundbildung"
203,Oberstufenrealgymnasium Theresianum Eisenstadt,Kalvarienbergplatz 8,7000,Eisenstadt,02682/62236 02682/62236-30,,www.theresianum-eisenstadt.at,MMag. Edith Straussberger,"AHS, Sekundarbildung Oberstufe"
2080,Mittelschule Neuhaus am Klausenbach - NATURPARKSCHULE,Hauptstraße 2,8385,Neuhaus am Klausenbach,03329/2402,,www.mittelschule-neuhaus.at,Stefanie Kropf,"Neue Mittelschule, Hauptschule, Sekundarbildung Unterstufe"
2421,PANNONEUM - Wirtschafts- und Tourismusschulen Neusiedl am See,Bundesschulstraße 4,7100,Neusiedl,02167/8257,,www.pannoneum.at,,"WMS und WHS, Sekundarbildung Oberstufe"
5944,Bundesoberstufenrealgymnasium Jennersdorf,Schulstraße 4,8380,Jennersdorf,03329/46078,,www.borg-bhas-jennersdorf.at,,AHS
4657,Höhere Lehranstalt für wirtschaftliche Berufe Pinkafeld,Schulstraße 7,7423,Pinkafeld,03357/42490,,www.hlw-pinkafeld.at,Mag. Harald Zapfel,
5143,Neue Mittelschule Sankt Michael im Burgenland,Schulstraße 250,7535,Sankt Michael im Burgenland,03327/2302,,www.nms-stmichael.at,Direktor,"Neue Mittelschule, Hauptschule, Sekundarbildung Unterstufe"
1,"Hohe Schule der Wirtschaft und Dienstleistungen, just4web.cz (Sample schriftlich)",Dobrovského 2366,58001,Havlíčkův Brod,564 036 164 774 712 218,,www.just4web.cz,Pavel Just,"Volksschule, Hochschulen"
1781,Neue Musikmittelschule Großpetersdorf mit kroatischem Schwerpunkt,Stegersbacher Straße 7,7503,Großpetersdorf,03362/4015,,www.mms-grosspetersdorf.at,"Andreas Bencsics, MAS, MSc","Neue Mittelschule, Sekundarbildung Unterstufe"
2593,Volksschule Güssing,Schulstraße 11,7540,Güssing,03322/42394,,vs-guessing.at,"Dir. Sabine Unger, MA","Volksschule, Grundbildung"
5708,ÖKOLOG Volksschule Leithaprodersdorf,Schulgasse 24,2443,Leithaprodersdorf,02255/7466,,www.vs-leithaprodersdorf.at,,Volksschule
3441,Sport Mittelschule Oberschützen,Schulweg 6,7432,Oberschützen,03353/7693,,www.sms-oberschuetzen.at,"Daniel Karacsonyi, BEd MA","Neue Mittelschule, Sekundarbildung Unterstufe"
1712,Volksschule Deutschkreutz,Hauptstraße 66,7301,Deutschkreutz,02613/8037021,,www.vs-deutschkreutz.com,Christine Pöltl,"Volksschule, Grundbildung"
90,Montessori-Schule Pinkafeld des Vereins Montessori-Heute Pinkafeld,Schützner Straße 15,7423,Pinkafeld,06602272474,,montessori-pinkafeld.at,,Volksschule
483,Neue Mittelschule Andau,Schulgasse 3,7163,Andau,02176/2245 0664 88166688,,www.hs-andau.info,,"Neue Mittelschule, Sekundarbildung Unterstufe"
2227,Volksschule Draßburg-Baumgarten / Osnovna škola Rasporak-Pajngrt,Schulgasse 1,7021,Draßburg/Rasporak,02686/2398,,www.volksschule-drassburg.at,Kathrin Baumgartner,"Volksschule, Grundbildung"
656,Bundes-Oberstufenrealgymnasium Güssing,Schulstraße 17,7540,Güssing,03322/42125,,www.borg-gs.at,Mag. Robert Antoni,AHS
3989,Volksschule Rust am See,Baumgartengasse 15,7071,Rust am See,02685/257,,schulzentrum-rust.at,Claudia Nährer,"Volksschule, Grundbildung"
1132,Neue Mittelschule Rust am See,Baumgartengasse 15,7071,Rust am See,02685/220,,www.schulzentrum-rust.at,Claudia Nährer,"Neue Mittelschule, Sekundarbildung Unterstufe"
2195,Volksschule Loretto,Hauptplatz 5,2443,Loretto,02255/8219,,www.volksschuleloretto.at,,"Volksschule, Grundbildung"
1051,Volksschule Henndorf,,,,03329/46554,,vs-jennersdorf.schulweb.at,,
5815,Bundeshandelsakademie und Bundeshandelsschule Mattersburg,Michael-Koch-Straße 44,7210,Mattersburg,02626/64580,,www.hak-mattersburg.at,,"Kaufmännische Schule, Sekundarbildung Oberstufe"
3990,"Bundesgymnasium, Bundesrealgymnasium und Bundes-Oberstufenrealgymnasium Oberpullendorf",Gymnasiumstraße 21,7350,Oberpullendorf,02612/42407,,www.brgop.at,Mag.a Helga Fabsits,AHS
2715,Volksschule Buchschachen,Schulweg 13,7411,Buchschachen,03356/666,,www.lernen-im-dorf.at,Dorothea de Kruijff,"Volksschule, Grundbildung"
3128,Berufsschule Oberwart,Schulgasse 32,7400,Oberwart,03352/32362,,www.bs-oberwart.at,"BDir. OSR Ing. Dipl.-Päd. Norbert Seldte, BEd","Berufsschule, Sekundarbildung Oberstufe"
3281,Neue Mittelschule Schattendorf,Fabriksgasse 53,7022,Schattendorf,02686/2147,,nms-schattendorf.at,"Petra Leitgeb, BEd MA","Neue Mittelschule, Sekundarbildung Unterstufe"
4019,Volksschule Raiding,Jägerzeile 4,7321,Raiding,0664 9645846,,,,"Volksschule, Grundbildung"
5795,Neue Mittelschule Kittsee,Schulstraße 3,2421,Kittsee,02143/2333,,www.nms-kittsee.at,Isabell Lichtenberger,"Neue Mittelschule, Sekundarbildung Unterstufe"
3909,Polytechnische Schule Eisenstadt,Rosental,7000,Eisenstadt,02682/64302,,www.pts-eisenstadt.at,Wolfgang Berghofer,"Polytechnische Schule, Sekundarbildung Oberstufe"
2147,Volksschule Pöttsching,Hauptstraße 43,7033,Pöttsching,02631/2246,,vs-poettsching.at,Elke Kamper,"Sonderschule, Sonderschule, Volksschule"
1674,Bundeshandelsakademie und Bundeshandelsschule Oberpullendorf,Gymnasiumstraße 19,7350,Oberpullendorf,02612/42621,,www.hak-op.at,Mag. Robert Friedl,"Kaufmännische Schule, Sekundarbildung Oberstufe"
306,Neue Mittelschule Oberwart,Schulgasse 29,7400,Oberwart,03352/38185,,www.emsoberwart.at,Wolf Hans-Peter,"Neue Mittelschule, Sekundarbildung Unterstufe"
4246,Zweisprachiges Bundesgymnasium Oberwart,Badgasse 7,7400,Oberwart,03352/34024,,www.bg-oberwart.at,Mag. Iris Zsótér,AHS
2950,Landesberufsschule Eisenstadt,Gölbeszeile 10-12,7000,Eisenstadt,02682/6330322,,www.bs-eisenstadt.at,,Berufsschule
184,Volksschule Schattendorf,Kirchenplatz1,7022,Schattendorf,02686/2123,,www.vsschattendorf.at,,"Volksschule, Grundbildung"
2214,Zweisprachige Volksschule Siget in der Wart,Kirchenstraße 13,7501,Siget in der Wart,03352/33229,,,,"Volksschule, Grundbildung"
3376,Neue Mittelschule Stegersbach,Sparkassenplatz 4,7551,Stegersbach,03326/52418,,www.nms-stegersbach.at,,"Neue Mittelschule, Sekundarbildung Unterstufe"
4607,Höhere technische Bundeslehr- und Versuchsanstalt Pinkafeld,Meierhofplatz 1,7423,Pinkafeld,+43 3357 42491 0,,www.htlpinkafeld.at,DI Dr. Wilfried Lercher M.A.,
694,Joseph Haydn Konservatorium des Landes Burgenland Eisenstadt,Glorietteallee 2,7000,Eisenstadt,02682/63734,,www.haydnkons.at,"Prof. Mag. Tibor Nemeth, ArtD.","Musikschule, Sonstige Bildungseinrichtung"
4669,Kolibri - Schule für ganzheitliches Lernen des Trägervereins von Kolibri Schule für ganzheitliches Lernen Welten,Deutscheckerstraße 2,8383,Welten,03329/48254,,www.kolibri-schule.at,,SAS
186,Volksschule Stegersbach,Kirchengasse 23,7551,Stegersbach,03326/52389,,,,"Volksschule, Grundbildung"
4232,Volksschule Wimpassing,Hauptstraße 12,2485,Wimpassing,0660/1726805,,,,"Volksschule, Grundbildung"
2740,Volksschule Neudorf bei Parndorf,Untere Hauptstraße 1,2475,Neudorf bei Parndorf,02142/6433,,,Gusti Bucsich,"Volksschule, Grundbildung"
3334,Volksschule Tadten,Obere Hauptstraße 5,7162,Tadten,02176/2192 0664 88166688,,www.vs-tadten.at,,"Volksschule, Grundbildung"
988,Volksschule Inzenhof,Inzenhof 8,7540,Güssing,03322/42195,,,,"Volksschule, Grundbildung"
2967,Landwirtschaftliche Fachschule Güssing,Stremtalstraße 19,7540,Güssing,03322/42288-0,,www.lfsguessing.at,FS-Dir. Ing. Dipl.-Päd. Gerhard Müllner,"LFMS, Sekundarbildung Oberstufe"
1035,Volksschule Wiesfleck,Untere Hauptstraße 11,7425,Wiesfleck,03357/45353,,www.vs-wiesfleck.at,Kristin Bernhart,"Volksschule, Grundbildung"
462,Volksschule Stotzing,Hofstatt 2,2443,Stotzing,0660 4987004,,vs.stotzing.at,Karin Eder,"Volksschule, Grundbildung"
730,Neue Mittelschule Rudersdorf,Schulgasse 1,7571,Rudersdorf,03382/71650,,www.nms-rudersdorf.at,,"Neue Mittelschule, Sekundarbildung Unterstufe"
1127,Volksschule Kohfidisch,Schulgasse 1,7512,Kohfidisch,03366/76593,,www.vs-kohfidisch.at,Direktor,"Volksschule, Grundbildung"
5755,Volksschule Markt Allhau,Schulgasse 13,7411,Markt Allhau,03356/258,,www.volksschule-markt-allhau.at,Christina Frotschnig,"Volksschule, Grundbildung"
2,Neue Mittelschule Kobersdorf,Badgasse 13,7332,Kobersdorf,02618/8236,,www.hs.kobersdorf.com,,"Neue Mittelschule, Sekundarbildung Unterstufe"
5411,Volksschule Jois,Untere Hauptstraße 42,7093,Jois,02160/836710,,www.jois.at/marktgemeinde/bildung-und-gesundheit/volksschule/,,"Volksschule, Grundbildung"
377,Volksschule Aschau,Schulgasse 7,7432,Aschau im Burgenland,03353/7731,,www.gemeindeoberschuetzen.at,,"Volksschule, Grundbildung"
147,Volksschule Neutal,Kirchengasse 13,7343,Neutal,02618/2201,,www.vs-neutal.at,Hildegard Resch,"Volksschule, Grundbildung"
487,Neue Mittelschule Neudörfl an der Leitha,Kirchplatz 1,7201,Neudörfl an der Leitha,02622/77366,,nms-neudoerfl.at,Karin Sinawehl,"Neue Mittelschule, Sekundarbildung Unterstufe"
2767,Mittelschule Deutschkreutz,Hauptstraße 66,7301,Deutschkreutz,02613/80282,,www.nms-deutschkreutz.at,,"Neue Mittelschule, Sekundarbildung Unterstufe"
1965,Volksschule Hannersdorf,Hannersdorf 186,7473,Hannersdorf,03364/2715,,vs-hannersdorf.at,,Volksschule
4265,"Höhere Bundeslehranstalt für Mode, Produktmanagement, Tourismus und Wirtschaftliche Berufe,gstechnik Oberwart",Badgasse 5,7400,Oberwart,03352/34414,,www.hbla-oberwart.at,,"WMS und WHS, Sekundarbildung Oberstufe"
3240,Volksschule Mischendorf,Schulgasse 1,7511,Mischendorf,03366/78560,,,Direktor,"Volksschule, Grundbildung"
1927,Volksschule Deutsch Schützen,Schulgasse 1,7474,Deutsch Schützen,03365/2221,,vs.deutsch-schuetzen.at,,"Volksschule, Grundbildung"
5732,Polytechnische Schule Stegersbach,Sparkassenplatz 4,7551,Stegersbach,03326/52170,,www.pts-stegersbach.at,Siegfried Prader,"Polytechnische Schule, Sekundarbildung Oberstufe"
4911,Volksschule Markt Neuhodis,Markt Neuhodis 30a,7464,Markt Neuhodis,03363/79586,,www.vs-marktneuhodis.at,betr. Schulleitung,"Volksschule, Grundbildung"
1348,Landesberufsschule Pinkafeld,Schlossgasse 1,7423,Pinkafeld,03357/42271-0,,www.bs-pinkafeld.at,Ing. Wilhelm Pfeiffer,"Berufsschule, Sekundarbildung Oberstufe"
1948,Volksschule Großhöflein,Schulgasse 9,7051,Großhöflein,0676/845476606,,,,"Volksschule, Grundbildung"
5770,Neue Mittelschule Stoob,Schulgasse 6,7344,Stoob,02612/42758,,www.bnms-stoob.at,,"Neue Mittelschule, Sekundarbildung Unterstufe"
4355,Volksschule Frauenkirchen,Kirchenplatz 1b,7132,Frauenkirchen,02172/2330,,www.vs-frauenkirchen.at,,"Volksschule, Grundbildung"
6083,Mittelschule Neufeld an der Leitha,Hauptstraße 32,2491,Neufeld an der Leitha,02624/52698,,www.nmsneufeld.at,,"Neue Mittelschule, Sekundarbildung Unterstufe"
2156,Volksschule Wörterberg,Wörterberg 139,8293,Wörterberg,03358/2479,,,Dagmar Krammer,"Volksschule, Grundbildung"
896,Neue Mittelschule Gols am See,Badgasse 8,7122,Gols am See,02173/2411,,www.nms-gols.at,,"Neue Mittelschule, Hauptschule, Sekundarbildung Unterstufe"
5451,Volksschule Strem,Hauptstraße 1,7522,Strem,03324/7375,,,,"Volksschule, Grundbildung"
4052,Neue Mittelschule Pamhagen,Schulgasse 2,7152,Pamhagen,02174/2149,,www.nms-pamhagen.at,"Dir. NMS OSR Konrad Unger, BEd",Neue Mittelschule
5054,Volksschule Oberloisdorf,Schulgasse 3,7451,Oberloisdorf,02611/2384 0699/ 174 57 317,,,Michaela Töpfer,"Volksschule, Grundbildung"
54,2e römisch-katholische Volksschule der Vereinigung von Ordensschulen Österreichs Neusiedl am See,Untere Hauptstraße 66,7100,Neusiedl am See,02167/2438,,www.klosterschule.at,,"Volksschule, Grundbildung"
133,Volksschule Oberpullendorf,Eisenstädterstraße 9,7350,Oberpullendorf,02612/42246,,www.vsoberpullendorf.at,,"Volksschule, Grundbildung"
217,Bundesgymnasium und Bundesrealgymnasium Eisenstadt,Kurzwiese,7000,Eisenstadt,02682/62625,,www.gymnasium-eisenstadt.at,,AHS
244,Volksschule Unterpullendorf,Hauptstraße 25,7452,Unterpullendorf,02612/43205,,school4you.schulweb.at/7452/vs-un,,"Volksschule, Grundbildung"
411,Volksschule Bernstein,Stuben 69,7434,Bernstein,03354/6608 03354 6372,,www.bernstein.gv.at,,"Volksschule, Grundbildung"
619,Neue Mittelschule Rechnitz,Schulgasse 10,7471,Rechnitz,03363/7931912,,www.nms-rechnitz.at/nmsneu,,"Neue Mittelschule, Sekundarbildung Unterstufe"
755,Bundesgymnasium und Bundesrealgymnasium Neusiedl am See,Bundesschulstraße 3,7100,Neusiedl am See,02167/2690,,www.gymnasium-neusiedl.at,,AHS
796,Volksschule Eltendorf,Kirchenstraße 18,7562,Eltendorf,03325/2261,,www.vs-eltendorf.schulweb.at,,"Volksschule, Grundbildung"
806,Volksschule Kobersdorf,Badgasse 12,7332,Kobersdorf,02618/8589,,www.school4you/7322/vs-kobersdorf,,"Volksschule, Grundbildung"
856,Berufsschule Mattersburg,Bahnstraße 41,7210,Mattersburg,02626/67651,,www.bsma.at,,"Berufsschule, Sekundarbildung Oberstufe"
876,Volksschule Lackendorf,Schulgasse 1,7321,Lackendorf,02619/67281,,www.vs.lackenhof.schulweb.at,,"Volksschule, Grundbildung"
880,Neue Mittelschule Pinkafeld,Schulstraße 2,7423,Pinkafeld,03357/42449,,www.hspinkafeld.at,,"Polytechnische Schule, Neue Mittelschule, Hauptschule, Sekundarbildung Oberstufe, Sekundarbildung Unterstufe"
885,Allgemeine Sonderschule Sonderpädagogisches Zentrum Stegersbach,Sparkassenplatz 4,7551,Stegersbach,03326/52692,,www.avin.at/spz-stegersbach,,"Sonderschule, Sonderschule, Sekundarbildung Unterstufe, Grundbildung"
1235,Volksschule Podersdorf am See,Schulplatz 1,7141,Podersdorf am See,02177/2262,,www.vspodersdorf.com,,"Volksschule, Grundbildung"
1315,Polytechnische Schule Güssing,Batthyanystraße 23,7540,Güssing,03322/43278,,www.pts-guessing.at,,"Polytechnische Schule, Sekundarbildung Oberstufe"
1387,Evangelisches Realgymnasium und Oberstufenrealgymnasium des evangelischen Schulwerks Oberschützen Oberschützen,G. A. Wimmer-Platz 2,7432,Oberschützen,03353/7538,,www.evang-musikgym.at,,AHS
1388,Polytechnische Schule Neusiedl am See,Sportzentrum 3,7100,Neusiedl am See,02167/8239,,scifi.pages.at/polyneusiedl,,"Polytechnische Schule, Sekundarbildung Oberstufe"
1465,2e Schule für Sozialbetreuungsberufe d. Vereins z. Errichtung und Erhaltung e. Fachschule für soziale Betreuung Pinkafeld Pinkafeld,Dr. Alfred Kranich-Platz 3,7423,Pinkafeld,03357/20720,,www.fsb-pinkafeld.at,,"Sozialberufliche Schule, Sekundarbildung Oberstufe"
1542,Volksschule Forchtenstein,Hauptstraße 89,7212,Forchtenstein,02626/63154,,www.bildungsserver.com/schulen/vsforchte,,"Volksschule, Grundbildung"
1628,Volksschule Lutzmannsburg,Schulgasse 1,7361,Lutzmannsburg,02615/87993,,vs.kroatischgerersadorf.schulweb.at,,"Volksschule, Grundbildung"
1729,Allgemeine Sonderschule Sonderpädagogisches Zentrum Eisenstadt,Neusiedler Straße 58 A,7000,Eisenstadt,02682/62828,,www.school4you.at/7000/aso-eisenstadt.at,,"Sonderschule, Sonderschule, Volksschule, Sekundarbildung Unterstufe, Grundbildung"
1823,Neue Mittelschule Bernstein,Schulgasse 11,7434,Bernstein,03354/6590,,bildungsserver.com/schulen/mnsbernstein,,"Neue Mittelschule, Sekundarbildung Unterstufe"
2028,Volksschule Schachendorf,Dürnbach 118,7472,Schachendorf,03364/2622,,www.wellcom.at/vs-duernbach,,"Volksschule, Grundbildung"
2086,Neue Mittelschule Kohfidisch,Schulgasse 1,7512,Kohfidisch,03366/76594,,www.nms-kohfidisch.at,,"Neue Mittelschule, Hauptschule, Sekundarbildung Unterstufe"
2218,Volksschule Neufeld an der Leitha,Hauptstraße 32,2491,Neufeld an der Leitha,02624/52426,,www.lollipop-vsneufeld.at,,"Volksschule, Grundbildung"
2247,2e römisch-katholische Neue Mittelschule der Schwestern vom Göttlichen Erlöser Steinberg-Dörfl,Untere Hauptstraße 17,7453,Steinberg-Dörfl,02612/8475,,www.marianum-steinberg.at,,"Neue Mittelschule, Sekundarbildung Unterstufe"
2248,Volksschule Rohrbach bei Mattersburg,Hauptplatz 1,7222,Rohrbach bei Mattersburg,02626/63027,,www.vs-rohrbach.at,,"Volksschule, Grundbildung"
2346,Volksschule Mönchhof,Kirchenplatz 2,7123,Mönchhof,02173/80236,,vs.moenchhof.it-mahr.net,,"Volksschule, Grundbildung"
2375,Neue Mittelschule Güssing,Schulstraße 9,7540,Güssing,03322/42283,,www.hs-guessing.com,,"Neue Mittelschule, Hauptschule, Sekundarbildung Unterstufe"
2394,Neue Mittelschule Neusiedl am See,Sportzentrum 3,7100,Neusiedl am See,02167/2441,,www.shs-neusiedl.at,,"Neue Mittelschule, Hauptschule, Sekundarbildung Unterstufe"
2466,Volksschule Zemendorf-Stöttera,Hauptstraße 103,7023,Zemendorf-Stöttera,02626/5237,,www.vszemendorf.at.tt,,"Volksschule, Grundbildung"
2495,Neue Sportmittelschule Frauenkirchen,Kirchenplatz 1d,7132,Frauenkirchen,02172/2416,,www.shs-frk.at,,"Neue Mittelschule, Sekundarbildung Unterstufe"
2856,Neue Mittelschule Purbach am Neusiedlersee,Schmalkräftengasse 20,7083,Purbach am Neusiedlersee,02683/5163,,www.hs-purbach.info,,"Neue Mittelschule, Sekundarbildung Unterstufe"
2978,Allgemeine Sonderschule Sonderpädagogisches Zentrum Mattersburg,Bauweltstraße 5,7210,Mattersburg,02626/62428,,www.bildungsserver.com/schulen/spzmatter,,"Sonderschule, Sonderschule, Sekundarbildung Unterstufe, Grundbildung"
3037,Volksschule Güssing,Großmürbisch 10,7540,Güssing,03322/44058,,www.bildungsserver.com/schulen/vsgrmuerb,,"Volksschule, Grundbildung"
3393,Polytechnische Schule Mattersburg,Michael-Koch-Straße 44,7210,Mattersburg,02626/62225,,www.poly-mattersburg.at.tt,,"Polytechnische Schule, Sekundarbildung Oberstufe"
3544,Volksschule Nickelsdorf,Lindengasse 26,2425,Nickelsdorf,02146/2203,,www.vs.nickelsdorf.at,,"Volksschule, Grundbildung"
3598,Neue Mittelschule Siegendorf,Haydnplatz 2,7011,Siegendorf,02687/48355,,hs.siegendorf.wellcom.at,,"Neue Mittelschule, Sekundarbildung Unterstufe"
3646,Bundeshandelsschule Jennersdorf,Schulstraße 4,8380,Jennersdorf,03329/46078,,www.borg-bhas-jennersdorf.at,,"Kaufmännische Schule, Sekundarbildung Oberstufe"
3739,"Volksschule ""Zweisprachige Volksschule Ketnyelvu Nepiskola"" Rotenturm an der Pinka",Unterwart/Alsoor 231,7501,Rotenturm an der Pinka,03352/34208,,www.unterwart.at,,"Volksschule, Grundbildung"
3788,Volksschule Hirm,Hauptplatz 9,7024,Hirm,02687/47770,,www.bildungsserver.com/schulen/vshirm,,"Volksschule, Grundbildung"
3793,Volksschule Nikitsch,Kroatisch Minihof,7302,Nikitsch,02614/8232,,www.school4you.at/7302/vs-kroatischminih,,"Volksschule, Grundbildung"
3901,Volksschule Wallern im Burgenland,Kirchengasse 22,7151,Wallern im Burgenland,02174/2347,,www.members.aon.at/vs.wallern,,"Volksschule, Grundbildung"
3947,Volksschule Oberwart,Schulgasse 4,7400,Oberwart,03352/32333,,members.aon.at/vs.oberwart,,"Volksschule, Grundbildung"
4231,Volksschule Pinkafeld,Rathausplatz 11,7423,Pinkafeld,03357/42253,,www.blackboard.at/schulen/vspinkafeld,,"Sonderschule, Sonderschule, Volksschule, Sekundarbildung Unterstufe, Grundbildung"
4375,Volksschule Parndorf,Schulgasse 2,7111,Parndorf,02166/2360,,www.vs-parndorf.at,,"Volksschule, Grundbildung"
4435,Volksschule Breitenbrunn,Gottfried Kumpf-Gasse 52,7091,Breitenbrunn,02683/5223,,www.vs-breitenbrunn.at,,"Volksschule, Grundbildung"
4525,Volksschule Unterkohlstätten,Holzschlag 96,7435,Unterkohlstätten,03354/8554,,www.bildungsserver.com/schulen/vsholzsch,,"Volksschule, Grundbildung"
4649,Volksschule Weiden am See,Schulzeile 5,7121,Weiden am See,02167/7213,,www.home.pages.at/vsweidenamsee,,"Volksschule, Grundbildung"
4673,Volksschule Andau,Schulgasse 3,7163,Andau,2176224512,,www.vs-andau.bnet.at,,"Volksschule, Grundbildung"
4974,Volksschule Mattersburg,Schulgasse 2,7210,Mattersburg,02626/62346,,www.bildungsserver.com/schulen/vsmatters,,"Volksschule, Grundbildung"
5037,Volksschule Marz,Schulstraße 16,7221,Marz,02626/63942,,www.bildungsserver.com/schulen/vsmarz,,"Volksschule, Grundbildung"
5182,Volksschule Neusiedl am See,Am Tabor,7100,Neusiedl am See,02167/2558,,www.vsamtabor.at,,"Volksschule, Grundbildung"
5338,Neue Mittelschule Oberpullendorf,Eisenstädterstraße 9,7350,Oberpullendorf,02612/42598,,www.hs-oberpullendorf.at,,"Neue Mittelschule, Sekundarbildung Unterstufe"
5442,Bundesgymnasium und Bundesrealgymnasium Oberschützen,Hauptplatz 7,7432,Oberschützen,03353/7501-0,,www.gym-os.at,,AHS
5482,Volksschule Gattendorf,Untere Dorfstraße 8-10,2474,Gattendorf,02142/5397,,www.vs.gattendorf.info,,"Volksschule, Grundbildung"
5557,Höhere Bundeslehranstalt für wirtschaftliche Berufe Güssing,Schulstraße 17,7540,Güssing,03322/42753,,www.ecole.at,,"WMS und WHS, Sekundarbildung Oberstufe"
5573,Gymnasium der Diözese Eisenstadt Eisenstadt,Wolfgarten,7001,Eisenstadt,02682/629880,,www.wolfgarten.at,,AHS
5629,Neue Mittelschule Mattersburg,Wulkalände 4,7210,Mattersburg,02626/62802,,www.nms-mattersburg.at,,"Neue Mittelschule, Sekundarbildung Unterstufe"
5757,2e römisch-katholische Neue Mittelschule des Vereins der Schulen der Schwestern vom Göttlichen Erlöser Eisenstadt,Kalvarienbergplatz 8,7000,Eisenstadt,02682/6223631,,www.hs-theresianum.at,,"Neue Mittelschule, Hauptschule, Sekundarbildung Unterstufe"
5772,Bundesgymnasium und Bundesrealgymnasium Mattersburg,Hochstraße 1,7210,Mattersburg,02626/62338,,www.brgmattersburg.at,,AHS
5807,Werkmeisterschule f. Berufstätige f. Maschinenbau-Automatisierungstechnik 2schule des WIFI der Wirtschaftskammer Burgenland Neutal,Dankowitschstraße,7343,Neutal,03352/32367,,www.bgld.wifi.at,,"TMS und THS, Sekundarbildung Oberstufe"
5918,Volksschule Großpetersdorf,Stegersbacher Straße,7503,Großpetersdorf,03362/2329,,www.vs.grosspetersdorf.at,,"Sonderschule, Sonderschule, Volksschule, Sekundarbildung Unterstufe, Grundbildung"
5940,Bundeshandelsakademie und Bundeshandelsschule Oberwart,Schulgasse 4,7400,Oberwart,03352/32514,,www.hak-oberwart.at,,"Kaufmännische Schule, Sekundarbildung Oberstufe"
6001,Neue Mittelschule Eisenstadt,Rosental,7001,Eisenstadt,02682/62478,,www.hs-eisenstadt.ac.at,,"Neue Mittelschule, Sekundarbildung Unterstufe"
6118,Volksschule Rechnitz,Schulgasse 10,7471,Rechnitz,03363/7931913,,www.rechnitz.com/index1.htm,,"Sonderschule, Sonderschule, Volksschule, Sekundarbildung Unterstufe, Grundbildung"
2266,Volksschule Bernstein,Schulgasse 11,7434,Bernstein,03354/6372,,,,"Volksschule, Grundbildung"
818,Volksschule Heiligenbrunn,Heiligenbrunn 3,7522,Heiligenbrunn,03324/7313,,,,"Volksschule, Grundbildung"
772,Volksschule Siegendorf,Haydnplatz 1,7011,Siegendorf,02687/20520,,,,"Volksschule, Grundbildung"
3007,Volksschule Draßmarkt,Schulgasse 1,7372,Draßmarkt,02617/2332,,,,Volksschule
5126,Allgemeine Sonderschule/Lernwerkstättenschule Oberwart,Schulgasse 29,7400,Oberwart,03352/38647,,,,"Sonderschule, Sonderschule, Sekundarbildung Unterstufe, Grundbildung"
3575,Volksschule Piringsdorf,Bundesstraße 14,7373,Piringsdorf,0676 / 77 24 214,,,,"Volksschule, Grundbildung"
4819,"Werkmeisterschule f. Berufst.f. Bauwesen, Werkmeisterschule f. Berufst.f.Maschinenbau-Betriebstechnik d. WIFI der WK Burgenland Oberwart",Raimundgasse 36,7400,Oberwart,0590907-5210,,,,WMS und WHS
1117,Volksschule Bocksdorf,Herrengasse 19,7551,Bocksdorf,03326/54331,,,,"Volksschule, Grundbildung"
3394,Volksschule Nikitsch,Hauptstraße 101,7302,Nikitsch,02614/8290,,,,"Volksschule, Grundbildung"
1219,Volksschule Steinberg-Dörfl,Obere Hauptstraße 119,7453,Steinberg-Dörfl,02612/8252,,,,"Volksschule, Grundbildung"
4526,Volksschule,Höhenstraße 4,8291,Burgauberg,03326/54690,,,,"Volksschule, Grundbildung"
3118,Allgemeine Sonderschule Oberpullendorf,Eisenstädterstraße 9,7350,Oberpullendorf,02612/42747,,,,"Sonderschule, Sonderschule, Sekundarbildung Unterstufe, Grundbildung"
4408,Volksschule Pamhagen,Schulgasse 2,7152,Pamhagen,02174/2117,,,"Dir. NMS OSR Konrad Unger, BEd",
1985,Volksschule Donnerskirchen,Schulgasse 12,7082,Donnerskirchen,02683/8664,,,,"Volksschule, Grundbildung"
28,Volksschule Zurndorf,Mühlgasse 42,2424,Zurndorf,02147/2219,,,,"Volksschule, Grundbildung"
56,Volksschule Großwarasdorf,Schulstraße 3,7304,Großwarasdorf,02614/2200,,,,"Volksschule, Grundbildung"
126,Volksschule Lackendorf,Hauptstraße 16,7321,Lackendorf,02619/7539,,,,"Volksschule, Grundbildung"
145,Volksschule Kittsee,Schulstraße 3,2421,Kittsee,02143/2330,,,,"Volksschule, Grundbildung"
198,Fachschule für wirtschaftliche Berufe und Hauswirtschaftsschule der Schwestern vom Göttlichen Erlöser Steinberg-Dörfl,Untere Hauptstraße 17,7453,Steinberg-Dörfl,02612/847520,,,,"WMS und WHS, Sekundarbildung Oberstufe"
210,Volksschule Lockenhaus,Hauptstraße 1,7442,Lockenhaus,02616/2640,,,,"Volksschule, Grundbildung"
280,2e römisch-katholische Neue Mittelschule der Vereinigung von Ordensschulen Österreichs Neusiedl am See,Untere Hauptstraße 66,7100,Neusiedl am See,02167/2438,,,,"Neue Mittelschule, Hauptschule, Sekundarbildung Unterstufe"
287,Volksschule Wulkaprodersdorf,Kirchenplatz 2,7041,Wulkaprodersdorf,02687/62226,,,,"Volksschule, Grundbildung"
308,Volksschule Rotenturm an der Pinka,Rotenturm an der Pinka 270,7501,Rotenturm an der Pinka,03352/34251,,,,"Volksschule, Grundbildung"
342,Volksschule Hornstein,Schulgasse 10,7053,Hornstein,02689/222611,,,,"Volksschule, Grundbildung"
396,Volksschule Ritzing im Burgenland,Teichgasse 5,7323,Ritzing im Burgenland,02619/67596,,,,"Volksschule, Grundbildung"
399,Volksschule Schützen am Gebirge,Schulstraße 4,7081,Schützen am Gebirge,02684/2237,,,,"Volksschule, Grundbildung"
439,Volksschule Klingenbach,Neugasse 41,7013,Klingenbach,02687/48419,,,,"Volksschule, Grundbildung"
447,Volksschule Loipersbach,Badstraße 3,7022,Loipersbach,02686/7500,,,,"Volksschule, Grundbildung"
496,Volksschule Dobersdorf,Dobersdorf 102,7564,Dobersdorf,03382/71110,,,,"Volksschule, Grundbildung"
525,Volksschule Winden am See,Bergäckerstraße 2-8,7092,Winden am See,02160/8274,,,,"Volksschule, Grundbildung"
673,Volksschule Stinatz,Hauptplatz 4,7552,Stinatz,03358/3120,,,,"Volksschule, Grundbildung"
732,Volksschule Steinbrunn,Schulplatz 3,7035,Steinbrunn,02688/72287,,,,"Volksschule, Grundbildung"
743,Volksschule Eberau,Eberau 93,7521,Eberau,03323/2228,,,,"Volksschule, Grundbildung"
835,Storchennestschule des Montessorivereins-Storchennest Kaisersdorf,Mittelgasse 17,7342,Kaisersdorf,02617/2441,,,,SAS
890,Volksschule Mörbisch am See,Eschengasse 27,7072,Mörbisch am See,02685/8350,,,,"Volksschule, Grundbildung"
936,Volksschule Limbach,Hauptstraße 4,7543,Limbach,03328/32155,,,,"Volksschule, Grundbildung"
995,Volksschule Pilgersdorf,Deutschgerisdorf,7441,Pilgersdorf,02616/2892,,,,"Volksschule, Grundbildung"
1007,Allgemeine Sonderschule Sonderpädagogisches Zentrum Frauenkirchen,Kirchenplatz 1b,7132,Frauenkirchen,02172/2577,,,,"Sonderschule, Sonderschule, Volksschule, Sekundarbildung Unterstufe, Grundbildung"
1087,Volksschule Eisenstadt,Kleinhöfleiner Hauptstraße 8a,7000,Eisenstadt,02682/,,,,"Volksschule, Grundbildung"
1158,Volksschule Gerersdorf bei Güssing,Schulstraße 2,7542,Gerersdorf bei Güssing,03328/32363,,,,"Volksschule, Grundbildung"
1164,Volksschule Oberdorf Oberdorf im Burgenland,Kirchenplatz 1,7501,Oberdorf im Burgenland,03352/6225,,,,"Volksschule, Grundbildung"
1358,Volksschule Sankt Andrä am Zicksee,Kirchenplatz 1,7161,Sankt Andrä am Zicksee,02176/2382,,,,"Volksschule, Grundbildung"
1365,Neue Mittelschule Lockenhaus,Hauptstraße 1,7442,Lockenhaus,02616/2974,,,,"Neue Mittelschule, Sekundarbildung Unterstufe"
1433,Volksschule Wolfau,Grundwinkel 1,7412,Wolfau,03356/8294,,,,"Volksschule, Grundbildung"
1443,"Musikschule ""music a la mobile"" der Frau Margarete Meixner Zurndorf",Zurndorf,2424,Zurndorf,0699/13710015,,,,Musikschule
1493,Volksschule Kaisersdorf,Hauptstraße 17,7342,Kaisersdorf,02617/2934,,,,"Volksschule, Grundbildung"
1507,"2schule ""freie Schule kematen"" des Vereins LeNa - Lernen mit der Natur i.d. Region Oberwart-Hartberg Kemeten",Strembachgasse 50a,7531,Kemeten,03352/20127,,,,SAS
1602,Volksschule Ollersdorf im Burgenland,Kirchengasse 44,7533,Ollersdorf im Burgenland,03326/52453,,,,"Volksschule, Grundbildung"
1622,Volksschule Pilgersdorf,Schulgasse 1,7441,Pilgersdorf,02616/7236,,,,"Volksschule, Grundbildung"
1659,Volksschule Jabing,Am Kirchenriegel 6,7503,Jabing,03362/7883,,,,"Volksschule, Grundbildung"
1697,Volksschule Stadtschlaining,Goberling 56,7461,Stadtschlaining,03355/2525,,,,"Volksschule, Grundbildung"
1743,Volksschule Bad Tatzmannsdorf,Kirchenstraße 11,7431,Bad Tatzmannsdorf,03353/8246,,,,"Volksschule, Grundbildung"
1804,Volksschule Heiligenkreuz im Lafnitztal,Schulstraße 1,7561,Heiligenkreuz im Lafnitztal,03325/4304,,,,"Volksschule, Grundbildung"
1840,Volksschule Mühlgraben,Obere Dorfstraße 2/1,8385,Mühlgraben,03329/26801,,,,"Volksschule, Grundbildung"
1872,Volksschule Stadtschlaining,Oberwarter Straße 7,7461,Stadtschlaining,0664-6566366,,,,"Volksschule, Grundbildung"
1952,Volksschule Mannersdorf an der Rabnitz,Hauptstraße 19,7444,Mannersdorf an der Rabnitz,02611/3374,,,,"Volksschule, Grundbildung"
1967,Volksschule Kemeten,Schulgasse 7,7531,Kemeten,03352/5033,,,,"Volksschule, Grundbildung"
2069,Volksschule Horitschon,Schulgasse 19,7312,Horitschon,02610/42341,,,,"Volksschule, Grundbildung"
2110,Volksschule Oberschützen,Schulweg 4,7432,Oberschützen,03353/7814,,,,"Volksschule, Grundbildung"
2148,Volksschule Mariasdorf,Mariasdorf 160,7433,Mariasdorf,03353/7830,,,,"Volksschule, Grundbildung"
2192,Volksschule Pinkafeld,Neustift an der Lafnitz 70,7423,Pinkafeld,03338/3350,,,,"Volksschule, Grundbildung"
2333,Allgemeine Sonderschule Sonderpädagogisches Zentrum Güssing,Batthyanystraße 23,7540,Güssing,03322/43595,,,,"Sonderschule, Sonderschule, Sekundarbildung Unterstufe, Grundbildung"
2370,Volksschule Wiesen,Bahnstraße 4,7203,Wiesen,02626/81667,,,,"Volksschule, Grundbildung"
2687,Volksschule Purbach am Neusiedlersee,Landsatzgasse 10,7083,Purbach am Neusiedlersee,02683/5114,,,,"Volksschule, Grundbildung"
2738,Volksschule Antau,Hauptplatz 1,7041,Antau,02687/62988,,,,"Volksschule, Grundbildung"
2800,Volksschule Neckenmarkt,Feldgasse,7311,Neckenmarkt,02610/42300,,,,"Volksschule, Grundbildung"
2888,Volksschule Markt Sankt Martin,Kirchenplatz 11,7341,Markt Sankt Martin,02618/2440,,,,"Volksschule, Grundbildung"
2896,Volksschule Oberwart,Unterschützen 29,7400,Oberwart,03352/33470,,,,"Volksschule, Grundbildung"
2936,Volksschule Rattersdorf-Liebing,Schulgasse 2,7443,Rattersdorf-Liebing,02611/2692,,,,"Volksschule, Grundbildung"
3060,Volksschule Deutsch Jahrndorf,Neubaugasse 27,2423,Deutsch Jahrndorf,02144/333,,,,"Volksschule, Grundbildung"
3062,Volksschule Pama,Schulgasse 1,2422,Pama,02142/6422,,,,"Volksschule, Grundbildung"
3072,Volksschule Loipersdorf-Kitzladen Markt Allhau,Loipersdorf 230,7411,Markt Allhau,03359/2252,,,,"Volksschule, Grundbildung"
3089,Volksschule Neuberg,Hauptplatz 3,7537,Neuberg,0664/88 495 191,,,,"Volksschule, Grundbildung"
3096,Volksschule Eisenstadt,Bahnstraße 2-4,7000,Eisenstadt,02682/62233,,,,"Volksschule, Grundbildung"
3107,Volksschule Pinkafeld,Grafenschachen 24,7423,Pinkafeld,03359/2531,,,,"Volksschule, Grundbildung"
3132,Volksschule Lackenbach,Mühlgasse 4,7322,Lackenbach,02619/8614,,,,"Volksschule, Grundbildung"
3174,Neue Mittelschule Horitschon,Bachgasse,7312,Horitschon,02610/42200,,,,"Neue Mittelschule, Sekundarbildung Unterstufe"
3260,Polytechnische Schule Frauenkirchen,Kirchenplatz 1,7132,Frauenkirchen,02172/2409,,,,"Polytechnische Schule, Sekundarbildung Oberstufe"
3265,Volksschule Sieggraben,Untere Hauptstraße 17,7223,Sieggraben,02621/2843,,,,"Volksschule, Grundbildung"
3306,Volksschule Königsdorf,Kirchenplatz 5,7563,Königsdorf,03384/2288,,,,"Volksschule, Grundbildung"
3311,Volksschule Neudau,Hackerberg 77,8292,Neudau,03358/2716,,,,"Volksschule, Grundbildung"
3391,Volksschule Trausdorf an der Wulka,DDr. Stefan Laszlo-Platz 2,7061,Trausdorf an der Wulka,02682/65610,,,,"Volksschule, Grundbildung"
3409,"Montessori 2schule Bad Sauerbrunn des ""Montessori Pädagogik Verein Bad Sauerbrunn"" Bad Sauerbrunn",Hartiggasse 10a,7202,Bad Sauerbrunn,,,,,SAS
3504,Volksschule Bernstein,Rettenbach 25,7434,Bernstein,03354/6660,,,,"Volksschule, Grundbildung"
3533,Volksschule Lutzmannsburg,Frankenau,7361,Lutzmannsburg,02615/87981,,,,"Volksschule, Grundbildung"
3587,Volksschule Olbendorf,Olbendorf 4,7534,Olbendorf,03326/53039,,,,"Volksschule, Grundbildung"
3619,Volksschule Weppersdorf,Eichengasse 4,7331,Weppersdorf,02618/2836,,,,"Volksschule, Grundbildung"
3833,Volksschule Deutsch Kaltenbrunn,Untere Marktstraße 35,7572,Deutsch Kaltenbrunn,03382/71229,,,,"Volksschule, Grundbildung"
4008,Volksschule Neuhaus am Klausenbach,Hauptstraße 3,8385,Neuhaus am Klausenbach,03329/2412,,,,"Volksschule, Grundbildung"
4011,Volksschule Güssing,Moschendorf,7540,Güssing,03324/6235,,,,"Volksschule, Grundbildung"
4015,Volksschule Mogersdorf,Mogersdorf 200,8382,Mogersdorf,03325/8280,,,,"Volksschule, Grundbildung"
4178,Volksschule Kalkgruben,Schulgasse 1,7331,Kalkgruben,02621/2043,,,,"Volksschule, Grundbildung"
4185,Volksschule Unterrabnitz-Schwendgraben,Hauptstraße 52,7371,Unterrabnitz-Schwendgraben,02616/30021,,,,"Volksschule, Grundbildung"
4194,Dislozierte Klasse der Volksschule (Leitung: 105111) 8382 Maria-Bild Krobotek,Krobotek Nr. 82,8382,Krobotek,03325/8747,,,,"Volksschule, Grundbildung"
4196,Volksschule Halbturn,Budapesterstraße 2,7131,Halbturn,02172/8563,,,,"Volksschule, Grundbildung"
4217,Volksschule Weiden bei Rechnitz,Weiden bei Rechnitz 64,7463,Weiden bei Rechnitz,03355/2493,,,,"Volksschule, Grundbildung"
4384,Volksschule Eisenstadt-Sankt Georgen,Schulgasse 1,7000,Eisenstadt-Sankt Georgen,02682/72229,,,,"Volksschule, Grundbildung"
4564,Volksschule Stoob,Schulgasse 6,7344,Stoob,02612/43982,,,,"Volksschule, Grundbildung"
4654,Neue Mittelschule Großwarasdorf,Schulstraße 3,7304,Großwarasdorf,02624/7009,,,,"Neue Mittelschule, Sekundarbildung Unterstufe"
4775,Polytechnische Schule Oberwart,Schulgasse 32,7400,Oberwart,03352/38001,,,,"Polytechnische Schule, Sekundarbildung Oberstufe"
4788,2e Neue Mittelschule des Vereins Katholische 2schule zum heiligen Josef - Josefinum Eberau Eberau,Marktstraße 29,7521,Eberau,03323/,,,,"Neue Mittelschule, Hauptschule, Sekundarbildung Unterstufe"
5072,Volksschule Rudersdorf,Schulgasse 3,7571,Rudersdorf,03382/71688,,,,"Volksschule, Grundbildung"
5082,Volksschule Unterkohlstätten,Unterkohlstätten 8,7435,Unterkohlstätten,03354/8366,,,,"Volksschule, Grundbildung"
5207,Volksschule Maria-Bild,Maria-Bild Nr. 2,8382,Maria-Bild,03329/46750,,,,"Volksschule, Grundbildung"
5317,Volksschule Riedlingsdorf,Schulgasse 1,7422,Riedlingsdorf,03357/4241013,,,,"Volksschule, Grundbildung"
5324,Volksschule Lutzmannsburg,Schulgasse 15,7361,Lutzmannsburg,02615/81156,,,,"Volksschule, Grundbildung"
5412,Volksschule Müllendorf,Weinberggasse 12a,7052,Müllendorf,02682/72984,,,,"Volksschule, Grundbildung"
5494,Volksschule Sigless,Schulgasse 2,7032,Sigless,02626/71202,,,,"Volksschule, Grundbildung"
5509,Volksschule Güttenbach,Schulweg 1/2,7536,Güttenbach,03327/8153,,,,"Volksschule, Grundbildung"
5564,Volksschule Horitschon,Bauerngasse 41,7312,Horitschon,02610/43321,,,,"Volksschule, Grundbildung"
5592,Volksschule Kukmirn,Schulstraße 3,7543,Kukmirn,03328/32232,,,,"Volksschule, Grundbildung"
5664,Volksschule Minihof-Liebau,Minihof-Liebau 21,8384,Minihof-Liebau,03329/2870,,,,"Volksschule, Grundbildung"
5712,Volksschule Oggau,Schulgasse 6,7063,Oggau,02685/7666,,,,"Volksschule, Grundbildung"
5820,Volksschule Litzelsdorf,Marktstraße 58,7532,Litzelsdorf,03358/3027,,,,"Volksschule, Grundbildung"
5970,Werkmeisterschule für Berufstätige für Maschinenbau-Automatisierungstechnik des WIFI der WK Burgenland Eisenstadt,Robert-Graf-Platz 1,7000,Eisenstadt,0590907-5210,,,,"TMS und THS, Sekundarbildung Oberstufe"
6027,Volksschule Oslip,Hauptstraße 8,7064,Oslip,02684/2234,,,,"Volksschule, Grundbildung"
6091,Volksschule Tobaj,Deutsch-Tschantschendorf 1,7544,Tobaj,03327/8100,,,,"Volksschule, Grundbildung"
6104,Volksschule Deutsch Kaltenbrunn,Untere Marktstraße 35,7572,Deutsch Kaltenbrunn,03383/71229,,,,"Volksschule, Grundbildung"
3705,Volksschule Sankt Michael im Burgenland,Schulstraße 250,7535,Sankt Michael im Burgenland,03327/8515,,,,"Volksschule, Grundbildung"
273,"2schule ""Schule für Sozialbetreuungsberufe"" des Vereins zur Errichtung und Erhaltung einer Fachschule für soziale Betreuung Pinkafeld Güssing",Schulstraße 17,7540,Güssing,03322/,,,,"Sozialberufliche Schule, Sekundarbildung Oberstufe"
436,Werkmeisterschule für Beruftstätige für Mechatronik des BFI Burgenland Großpetersdorf,Fabriksgasse 3a,7503,Großpetersdorf,03362/,,,,"TMS und THS, Sekundarbildung Oberstufe"
981,"Musikschulen des Vereins ""Burgenländisches Musikschulwerk"" (Hauptanstalt einschließlich Zweigstellen) Eisenstadt",Kernausteig 3,7000,Eisenstadt,,,,,"Musikschule, SAS"
2515,Volksschule Sankt Martin an der Raab,Hauptstraße 1,8383,Sankt Martin an der Raab,03329/48668,,,,"Volksschule, Grundbildung"
3172,"2schule ""Waldorfschule Pannonia"" des Waldorfvereins Pannonia Pamhagen",Hauptstraße 57,7152,Pamhagen,02174/,,,,"Hauptschule, Volksschule, SAS, Sekundarbildung Unterstufe, Grundbildung"
3576,Volksschule Neudörfl an der Leitha,Zollikofenplatz,7201,Neudörfl an der Leitha,02622/77230,,,,"Volksschule, Grundbildung"
4887,Volksschule Bad Sauerbrunn,Mattersburger Straße 4,7202,Bad Sauerbrunn,02625/32798,,,,"Volksschule, Grundbildung"
6034,Landwirtschaftliche Bildungsstätte der Burgenländischen Landwirtschaftskammer Oberwart,Prinz-Eugen-Straße 7,7400,Oberwart,03352/32308,,,,"LFMS, Sekundarbildung Oberstufe"
