skz,name,street,zip,city,phone,email,website,principal,school_type
1213,"Bildungsanstalt für Elementarpädagogik Maria Regina und Fachschule für pädagogische Assistenzberufe, Kolleg und Aufbaulehrgang",Hofzeile 17,1190,Wien,01/3687521-50,,www.mariaregina-clarafey.at/bafep,Mag. Karin Hochmeister,"LMS und LHS, Sonstige Bildungseinrichtung, Sekundarbildung Oberstufe, Kindergarten"
3303,Stadt Wien - Modeschule Hetzendorf,Hetzendorfer Straße 79,1120,Wien,+43-1-4000-85710,,www.modeschule.wien.at,MMag. Monika Kycelt,"WMS und WHS, Sekundarbildung Oberstufe"
601,Höhere Bundeslehr- und Versuchsanstalt für chemische Industrie Wien,Rosensteingasse 79/Eingang Gschwandnergasse 62,1170,Wien,01/4861480 01/4861489,,www.hblva17.ac.at,Ing. Mag. Dr. Annemarie KARGLMAYER,"TMS und THS, Sekundarbildung Oberstufe"
4078,Höhere Bundeslehranstalt für Tourismus Wien,Wassermanngasse 12,1210,Wien,01/2582890,,www.wassermanngasse.at,Mag. Andreas Hübner,"Kaufmännische Schule, TMS und THS, WMS und WHS, Berufsschule, Sekundarbildung Oberstufe"
3764,Kunstschule Wien,Lazarettgasse 27,1090,Wien,+43 1 677 616 026 40,,www.kunstschule.wien,"Mag.a art. Eliane Huber-Irikawa, MFA","Berufsschule, Sonstige Bildungseinrichtung"
959,Walz Wiener Lernzentrum - Private Oberstufe mit Öffentlichkeitsrecht,Heinrich Collin-Straße 9,1140,Wien,01/8042939,,www.walz.at,Renate Chorherr,"AHS, Sekundarbildung Oberstufe"
3897,"kaufmännische Schulen des BFI Wien, Handelsakademie, Handelsschule, Aufbaulehrgang, Schule für IT, Handelsakademie und Handelsschule für Berufstätige des BFI Wien",Margaretenstraße 65,1050,Wien,01/5879650,,www.schulenbfi.at,Mag. Johann Karner,Kaufmännische Schule
1497,Vienna Business School Schönborngasse,Schönborngasse 3-5,1080,Wien,01/406 45 14,,www.schoenborngasse.vbs.ac.at,"Hofrätin Mag. Eveline Grubner, MA","Kaufmännische Schule, Sekundarbildung Oberstufe"
4904,Gymnasium und Oberstufenrealgymnasium St. Ursula Wien,Franz-Asenbauer-Gasse 49,1230,Wien,+43 (1) 888 21 25 - 26,,st-ursula-wien.at/gym-org/,,"AHS, Sekundarbildung Oberstufe, Sekundarbildung Unterstufe"
177,Handelsschule und Handelsakademie-Aufbaulehrgang des Schulverbundes SSND Österreich,Friesgasse 4,1150,Wien,01/8936550-17,,www.schulefriesgasse.ac.at,Dir. Mag. Ingrid Aubauer,"Kaufmännische Schule, Sekundarbildung Oberstufe"
3856,Freie Waldorfschule Wien-West,Seuttergasse 29,1130,Wien,01/8766821,,fwww.at,,"AHS mit NMS, Neue Mittelschule, Volksschule, Sonstige Bildungseinrichtung, SAS, Grundbildung, Kindergarten"
3625,Evangelisches Realgymnasium Donaustadt,Maculangasse 2,1220,Wien,+43 1 255 73 59,,www.erg-donaustadt.at,Mag. Elisabeth Kapfenberger,"WMS und WHS, Musikschule, AHS, Sekundarbildung Oberstufe, Sekundarbildung Unterstufe"
5851,Bundeshandelsakademie und Bundeshandelsschule Wien 10,Pernerstorfergasse 77,1100,Wien,01/6025191,,www.bhakwien10.at,Mag. Jörg Hopfgartner,"Kaufmännische Schule, Sekundarbildung Oberstufe"
1506,American International School Vienna,Salmannsdorfer Straße 47,1190,Wien,+43140132,,www.ais.at,Dr. Kathryn Miner,"Volksschule, SAS, AHS, Sekundarbildung Oberstufe, Sekundarbildung Unterstufe, Kindergarten"
5076,Realgymnasium und Oberstufenrealgymnasium des Schulvereins De La Salle,Scheidlstraße 2,1180,Wien,01/4798494,,www.marianum.at,Mag.a Marie-Antoinette Call-Breitenecker,"AHS, Sekundarbildung Oberstufe, Sekundarbildung Unterstufe"
1026,Bundesgymnasium und Bundesrealgymnasium Wien,Radetzkystraße 2a,1030,Wien,01/7121549,,www.grg3rad.at,HR Mag. Etlinger Robert,AHS
3926,Amerlinggymnasium,Amerlingstraße 6,1060,Wien,01/5870727 01/5870174,,www.amerlinggymnasium.at,,"AHS, Sekundarbildung Oberstufe, Sekundarbildung Unterstufe"
3860,Bildungszentrum Mater Salvatoris Gymnasium und Wirtschaftskundliches Realgymnasium Wien,Kenyongasse 4-12,1070,Wien,+43 (1) 523 29 83 - 106,,www.kenyon.at/ahs,Mag. Thomas Leszkovich,"AHS, Sekundarbildung Oberstufe, Sekundarbildung Unterstufe"
3925,Höhere Bundeslehranstalt für Tourismus und Höhere Bundeslehranstalt für wirtschaftliche Berufe Wien,Firnbergplatz 1,1220,Wien,01/2584160,,www.firnbergschulen.at,,"TMS und THS, WMS und WHS, Sekundarbildung Oberstufe"
70,"Sigmund-Freud-Gymnasium, Bundesgymnasium und Bundesrealgymnasium Wien",Wohlmutstraße 3,1020,Wien,01/7280192,,www.freudgymnasium.at,Mag. Theresia Übelhör,AHS
1425,Höhere Bundeslehr- und Versuchsanstalt für Textilindustrie und Informatik,Spengergasse 20,1050,Wien,01/54615-0,,www.spengergasse.at,Dr. Gerhard Hager,"TMS und THS, Sekundarbildung Oberstufe"
2536,"business.academy.donaustadt, BHAK und BHAS Wien 22",Polgarstraße 24,1220,Wien,0043 1 20261310,,www.bhakwien22.at,OStR Mag. Peter Rak,"Kaufmännische Schule, Sekundarbildung Oberstufe"
1145,Bundesrealgymnasium Wien 5,Reinprechtsdorfer Straße 24-26,1050,Wien,01/5451274,,www.haydngym.at,,AHS
5379,Bundesgymnasium und Bundesrealgymnasium Wien 4,Wiedner Gürtel 68,1040,Wien,01/5053343,,www.wiednergymnasium.at,HR Mag. Dr. Edwin Scheiber,AHS
1543,Gymnasium und Wirtschaftskundliches Realgymnasium Maria Regina,Hofzeile 22,1190,Wien,01/3687521,,www.mariaregina-clarafey.at/ahs,"Dir. Mag. Andrea Murtinger, MA",AHS
4508,Höhere technische Bundeslehranstalt Wien,Ettenreichgasse 54,1100,Wien,01/60111,,www.htlwien10.at,Ing. Mag. Stefan Wenka,"TMS und THS, Sekundarbildung Oberstufe"
2230,Fachschule und Aufbaulehrgang für wirtschaftliche Berufe des Schulvereins der Dominikanerinnen Wien,Auhofstraße 177,1130,Wien,01/8773691/219,,www.dominikanerinnen.at/fw13,,Sekundarbildung Oberstufe
4244,PTS / FMS Wien 15,Benedikt Schellinger-Gasse 1-3,1150,Wien,01/9854568 01/9853755,,fms15.at,"OSRn Dipl. Päd. Beatrix Poppe, BEd","Polytechnische Schule, Sekundarbildung Oberstufe"
4987,Bundesrealgymnasium mit Modellversuch Neue Mittelschule Wien,Anton-Krieger-Gasse 25,1230,Wien,01/8885252,,www.antonkriegergasse.at,,"AHS mit NMS, AHS, Sekundarbildung Unterstufe"
1989,Schauspielschule Krauss Wien,Weihburggasse 9,1010,Wien,01/5124324,,www.schauspielschulekrauss.at,Michaela Krauss-Boneau,"Berufsschule, Hochschulen, Sonstige Bildungseinrichtung"
557,Bundesbildungsanstalt für Elementarpädagogik Wien,Lange Gasse 47,1080,Wien,01/4096767,,www.bafep8.at,Mag. Tilmann Schleicher,Sekundarbildung Oberstufe
5495,Tourismusschulen MODUL der Wirtschaftskammer Wien,Peter-Jordan-Straße 78,1190,Wien,01/476700,,www.modul.at,MMag. Werner SCHNABL,"WMS und WHS, Sekundarbildung Oberstufe"
1532,ibc-:hetzendorf,Kriehubergasse 24-26,1050,Wien Wien,01/8043579,,www.ibc.ac.at,Mag. Andrea Tuschl-Reisinger,"Kaufmännische Schule, Sekundarbildung Oberstufe"
2474,Schumpeter BHAK/BHAS Wien 13,Maygasse 43,1130,Wien,01/8045375,,www.bhakwien13.at,,"Kaufmännische Schule, Sekundarbildung Oberstufe"
1263,Höhere Bundeslehr- und Forschungsanstalt für Gartenbau Schönbrunn,Grünbergstraße 24,1131,Wien,01/8135950,,www.gartenbau.at,MR DI Mag. Dr. Josefa Reiter-Stelzl,"LFHS, Sekundarbildung Oberstufe"
3661,Kolleg für Sozialpädagogik der MERA Bildungsholding GmbH,Schottenfeldgasse 69,1070,Wien,01/5854090-54,,www.bildungsforum.at/standorte/wien,Dipl. Päd. Sabine Kittel,"Sozialakademie, LMS und LHS, Sozialberufliche Schule, Sekundarbildung Oberstufe"
2602,Bundesgymnasium Wien,Wasagasse 10,1090,Wien,01/3176197,,www.bg9.at,Mag. Johannes Bauer,AHS
4828,Schottengymnasium der Benediktiner in Wien,Freyung 6,1010,Wien,00431/53498-318,,www.schottengymnasium.at,Mag. Josef Harold,AHS
5228,Privates Bilinguales Realgymnasium des Schulvereins Komensky Wien,Schützengasse 31,1030,Wien,01/713 31 88-60,,www.komensky.at,Mag. Helena Huber,"AHS mit NMS, AHS"
284,Öffentliches Gymnasium der Stiftung Theresianische Akademie Wien,Favoritenstraße 15,1040,Wien,01/5051571405,,www.theresianum.ac.at,HR Mag. Andreas Schatzl,"Volksschule, AHS, Kindergarten"
336,Fachmittelschule und Polytechnische Schule,Maiselgasse 1,1030,Wien,+43 1 4000 56 40 60,,pts3.at,Irene Ditrich,"Polytechnische Schule, Sonstige Bildungseinrichtung, Sekundarbildung Oberstufe"
2524,BG RG ORG Wien 22,Polgarstraße 24,1220,Wien,01/2026141,,www.polgargym.at,,AHS
5637,Bundesgymnasium und -realgymnasium Wien 1,Stubenbastei 6-8,1010,Wien,01/5127810-12 01/5127810-17 (Konferenzzimmer 1) 01/5127810-18 (Konferenzzimmer 2),,www.stubenbastei.at,Mag. Nina Hochleitner,AHS
649,Realgymnasium und Oberstufenrealgymnasium des Vereins der Wiener Sängerknaben Wien,Obere Augartenstraße 1c,1020,Wien,01/2163942,,www.wsk-schule.at,,AHS
1045,Bundesgymnasium Wien,Diefenbachgasse 19,1150,Wien,01/8936701,,www.diefenbachymnasium.at,Mag. Helmut LANGEGGER,AHS
2183,Werbe Akademie des WIFI Wien,Währinger Gürtel 97,1180,Wien,+43 1 476 77 5251,,www.werbeakademie.at,,"Sonstige Bildungseinrichtung, Sekundarbildung Oberstufe"
4181,Mayflower Christian Academy International School Vienna,Fontanastrasse 8,1100,Wien,01/6419495,,www.internationalcampusvienna.at,,"Volksschule, AHS, Sekundarbildung Unterstufe, Grundbildung, Kindergarten"
1763,modas - dein Kolleg für Sozialpädagogik,Pfeilgasse 10-12/R 04,1080,Wien,01/4025615,,www.modas.at,,"Sozialakademie, Pädagogische Hochschulen"
2704,Bundesgymnasium Wien,Kundmanngasse 20-22,1030,Wien,01/7133718,,www.kundmanngasse.at,Mag. Marion Waldmamnn,AHS
4465,"Gymnasium, Realgymnasium und Oberstufenrealgymnasium des Schulvereins De La Salle Wien",Anton-Böck-Gasse 37,1210,Wien,01/29125-760,,www.delasalle.at,HR Mag. Günther Grafeneder,AHS
1194,Caritas Campus 22,Am langen Felde 37-39,1220,Wien,0517805030,,campus22.caritas-schule.at,,"Sozialberufliche Schule, Sonstige Bildungseinrichtung, Sekundarbildung Oberstufe"
2325,Bundesgymnasium Wien,Auf der Schmelz 4,1150,Wien,01/9820351,,www.schmelz.at,Mag. Erika Thurnher,AHS
305,Höhere Bundeslehranstalt für wirtschaftliche Berufe Wien,Reumannplatz 3,1100,Wien,01/5046165,,www.hlw10.at,Mag. Dr. Elke Hochfellner,"WMS und WHS, Sekundarbildung Oberstufe"
666,Höhere Bundeslehranstalt für Tourismus und für wirtschaftliche Berufe Wien,Bergheidengasse 5-19,1130,Wien,01/8047281,,www.bergheidengasse.at,HR Mag. Anita Petschning,"WMS und WHS, Sekundarbildung Oberstufe"
5025,PHÖNIX - Realgymnasium Wien,Knöllgasse 20-24,1100,Wien,01/2084657,,www.phoenixschulen.at,,AHS
4013,Bundes-Blindenerziehungsinstitut Wien,Wittelsbachstraße 5,1020,Wien,01/7280866,,www.bbi.at,Mag. Horst Ganitzer,"Kaufmännische Schule, Berufsschule, Polytechnische Schule, Neue Mittelschule, Sonderschule, Volksschule, Sonstige Bildungseinrichtung, Kindergarten"
1364,Höhere Bundeslehranstalt für Mode und Bekleidungstechnik und Höhere Bundeslehranstalt für wirtschaftliche Berufe Wien,Michelbeuerngasse 12,1090,Wien,01/4050416,,www.hlmw9.at,Mag. Johannes Töglhofer,"WMS und WHS, Sekundarbildung Oberstufe"
5333,Bundesrealgymnasium Wien,Linzerstraße 146,1140,Wien,01/9112577,,www.brg14.at,Mag. Andrea Ertl,AHS
1340,Bundesrealgymnasium Wien,Anton Baumgartner-Straße 123,1230,Wien,01/6671099,,www.grg23-alterlaa.ac.at,,AHS
4895,htl donaustadt,Donaustadtstraße 45,1220,Wien,01/20105-0,,www.htl-donaustadt.at,Prof. Dipl.-Ing. Kurt Stadler,"TMS und THS, Sekundarbildung Oberstufe"
2353,Montessori Schule - Statutschule des Montessori Vereins Hütteldorf Wien,Henckellgasse 19,1140,Wien,01/9116968,,www.montessoricampus.at,Barbara Stifter,"Neue Mittelschule, Volksschule, SAS, AHS, Sekundarbildung Oberstufe, Sekundarbildung Unterstufe"
1128,Bundesoberstufenrealgymnasium Wien,Erdbergstraße 186-196,1030,Wien,01/7980350,,www.ballsportgymnasium.at,,"AHS, Sekundarbildung Oberstufe"
201,Privates Gymnasium Sacré Coeur Wien,Rennweg 31,1030,Wien,01/712624666,,www.sacre-coeur.at/gymnasium,Mag. Birgit Gmeindl-Oser,AHS
2174,"Bundesgymnasium, Bundesrealgymnasium mit Modellversuch Neue Mittelschule Wien",Contiweg 1,1220,Wien,01/2834823-11,,www.contiweg.at,,"AHS mit NMS, AHS, Sekundarbildung Oberstufe, Sekundarbildung Unterstufe"
4419,Werkmeisterschule für Berufstätige des WIFI der Wirtschaftskammer Wien,Währinger Gürtel 97,1180,Wien,01/47677-5555,,www.wifiwien.at/werkmeister,Mag. Susanne Riegler,"WMS und WHS, Sonstige Bildungseinrichtung, Sekundarbildung Oberstufe"
4709,SZ-FIDS 12 Rosasgasse,Rosasgasse 8,1120,Wien,01/8134273,,sz-fids12.schule.wien.at,Niki Glattauer,"Sonderschule, Sonderschule, Volksschule, Sekundarbildung Oberstufe, Grundbildung"
4787,Evangelisches Gymnasium und Werkschulheim,Erdbergstraße 222A,1110,Wien,01/5038898,,www.evgym.at,Mag. Elisabeth Sinn,AHS
5303,Brigittenauer Gymnasium (GRgORg 20),Karajangasse 14,1200,Wien,01/3303141-22,,www.borg20.at,MMag. Árpád Krämer,AHS
4994,Goethe-Gymnasium Wien,Astgasse 3,1140,Wien,01/8947539,,www.goethegymnasium.at,,AHS
3419,Berufsschule für Gartenbau und Floristik Wien,Donizettiweg 31,1220,Wien,01 4000 95860,,www.zukunftgestalten.wien,,Berufsschule
5995,SPAR-Akademie - Private Berufsschule der SPAR Österreichische Warenhandels-AG,Hietzinger Hauptstraße 17,1130,Wien,01/877 12 56,,www.spar.at/akademie,"Robert Renz, MBA",Berufsschule
1698,Gymnasium und wirtschaftskundliches Realgymnasium des Schulvereins der Dominikanerinnen Wien,Schlossberggasse 17,1130,Wien,01/8773691,,www.dominikanerinnen.at,Ing. Mag. Lorenz Taferner,AHS
922,Konservatorium für Kirchenmusik der Erzdiözese Wien Wien,Stock im Eisen-Platz 3/IV,1010,Wien,01/5131865,,www.kimukons.at,Mag. Mirjam Schmidt,"Berufsschule, Musikschule, Sonstige Bildungseinrichtung"
1559,Höhere Bundeslehranstalt für wirtschaftliche Berufe,Straßergasse 37-39,1190,Wien,01/320 21 81 Sekretariat 01/320 21 81-20 LZ 01/320 21 81-24 LZ,,www.hlw19.at,Mag. Erich Rehberger,Sekundarbildung Oberstufe
1014,Bundesgymnasium Wien,Fichtnergasse 15,1130,Wien,01/8771414,,www.fichtnergasse.at,Mag. Albrecht Bauer,AHS
4978,Handelsakademie II und Handelsschule III der Wiener Kaufmannschaft Wien,Hamerlingplatz 5-6,1080,Wien,+43 1 4062347,,www.hamerlingplatz.vbs.ac.at,Frau Mag. Monika Hodoschek,"Kaufmännische Schule, Sekundarbildung Oberstufe"
3846,Bundesrealgymnasium mit besonderer Berücksichtigung der musischen Ausbildung,Boerhaavegasse 15,1030,Wien,01/7134423,,www.boerhaavegasse.at,,AHS
2712,Schule für Sozialbetreuungsberufe der Caritas der Erzdiözese Wien Wien,Absberggasse 27,1100,Wien,01/2142580,,www.sob.caritas-wien.at,Dr.Hannes Meyer,"Sozialberufliche Schule, Sonstige Bildungseinrichtung"
3680,"Fachschule, Aufbaulehrgang und Höhere Lehranstalt für wirtschaftliche Berufe des Instituts Sancta Christiana Wien",Willergasse 55,1230,Wien,01/8884143,,www.stachristiana.at,,"Sozialberufliche Schule, Sekundarbildung Oberstufe"
3956,"Speziallehrgang f. Leitungsfunktionen i.d. Sozialarbeit, Exp.d.Lehranst.f.heilpädag. Berufe (902469) d. Caritas d.Erzd.Wien",Kardinal-König-Platz 3,1130,Wien,01/8039869,,www.sozialmanagement.at,,"Sozialakademie, Sozialberufliche Schule, Sonstige Bildungseinrichtung"
5839,Handelsschule am Bundes-Blindenerziehungsinstitut Wien,Wittelsbachstraße 5,1020,Wien,01/7280866,,www.bbi.at,Prof. Susanne Alteneder,"Kaufmännische Schule, Sekundarbildung Oberstufe"
4965,Tierpflegerschule Vetmeduni Vienna,Veterinärplatz 1,1210,Wien,01/25077-3750,,www.vetmeduni.ac.at/tierpflegerschule,Univ.-Prof. Dr. med. vet. PhD Yves Moens,"LFMS, Sekundarbildung Oberstufe"
4070,Bundesgymnasium Wien,Albertgasse 18-22,1080,Wien,01/4056115,,www.grg8.at,Mag. Roman Wolf,AHS
842,"Bundesgymnasium Wien ""Das 21er""",Franklinstraße 21,1210,Wien,01/2711599,,www.das21er.ac.at,Mag. Karl Heinz Hochschorner,AHS
1160,Kirchliche Pädagogische Hochschule Wien/Krems,Mayerweckstraße 1,1210,Wien,01/29108 0,,www.kphvie.ac.at,,"Pädagogische Hochschulen, Hochschulen"
1448,Gymnasium und Realgymnasium des Institutes Neulandschulen Wien,Alfred-Wegener-Gasse 10-12,1190,Wien,01/3202107 550,,www.nls.at,Schulleiter,AHS
1722,Höhere technische Bundeslehr- und Versuchsanstalt Wien,Leberstraße 4c,1030,Wien,01/7992631,,www.bautechnikum.at,,"TMS und THS, Sekundarbildung Oberstufe"
5395,Prayner Konservatorium des Herrn Mag. Josef Schmid mit Öffentlichkeitsrecht Wien,Mühlgasse 28-30 (Hauptstandort) und Mariahilferstrasse 51 (Expositur),1040,Wien,+43 (0)1 / 587 57 49 und (0)1 / 581 20 58,,www.konservatorium-prayner.at,,"Berufsschule, Musikschule, Hochschulen, Sonstige Bildungseinrichtung"
4470,International Christian School of Vienna,Wagramer Straße 175/Panethgasse 6A,1220,Wien,01/25122-0,,www.icsv.at,Dr. Sharon Brobst,"AHS mit NMS, Volksschule, SAS"
6188,Vienna European School,Paulinengasse 16,1180,Wien,+43 (0) 1 470 46 00,,www.ves.at,,"AHS mit NMS, Neue Mittelschule, Volksschule, AHS, Sekundarbildung Oberstufe, Sekundarbildung Unterstufe, Kindergarten"
4540,Bildungszentrum Kenyongasse Bildungsanstalt für Elementarpädagogik Wien,Kenyongasse 4-12,1070,Wien,01/5232983-209,,www.kenyon.at/bafep,,"LMS und LHS, Sekundarbildung Oberstufe, Kindergarten"
2476,Höhere graphische Bundeslehr- und Versuchsanstalt Wien,Leyserstraße 6,1140,Wien,01/9823914,,www.graphische.net,,"TMS und THS, Sekundarbildung Oberstufe"
5971,Bundesrealgymnasium und Wirtschaftskundlliches Realgymnasium Wien,Feldgasse 6 -8,1080,Wien,01/4073469,,www.feldgasse.at,Mag. Sabine Holl-Blauensteiner,AHS
4058,Kolleg für Sozialpädagogik für Berufstätige des Vereines Wiener Arbeitsgemeinschaft für Sozialpädagogik Wien,Schloßhofer Straße 4/Stg. 6/3 Stk.,1210,Wien,01/2699600,,www.sozialpaedagogik.at,,"LMS und LHS, Sekundarbildung Oberstufe"
5350,Danube International School Vienna,Josef Gall Gasse 2,1020,Wien,01/7203110-0,,www.danubeschool.com,Dr. Michelle Purghart,"Volksschule, AHS, Kindergarten"
3731,Bundesgymnasium und wirtschaftskundliches Bundesrealgymnasium Wien,Haizingergasse 37,1180,Wien,01/4780678-11,,www.gwiku18.at,Mag. Manuela Wallner,AHS
4123,Bundesreal- und Oberstufenrealgymnasium für Studierende der Musik,Neustiftgasse 95-99,1070,Wien,01/5231249,,www.mgw.at,,AHS
5368,Gymnasium und Realgymnasium des Schulverbundes SSND Österreich/ Schulschwestern Notre Dame Wien,Friesgasse 4,1150,Wien,01/8936550,,www.schulefriesgasse.ac.at,,AHS
5301,Lehranstalt für systemische Familientherapie der Erzdiözese Wien für Berufstätige,Trauttmansdorffgasse 3a,1130,Wien,01/4786300,,www.lasf.at,,"WMS und WHS, Sozialberufliche Schule, Sekundarbildung Oberstufe"
4691,Bundeshandelsakademie und Bundeshandelsschule Wien 11,Geringergasse 2,1110,Wien,01/7679555,,www.bhakwien11.at,Frau Mag. Patricia Mitak-Schabel,"Kaufmännische Schule, Sekundarbildung Oberstufe"
385,Gymnasium und Realgymnasium Kollegium Kalksburg der Vereinigung von Ordensschulen Österreichs Wien,Promenadeweg 3,1230,Wien,01/8884158-151,,gym.kalksburg.at,,AHS
3491,Bundesgymnasium Wien,Parhamerplatz 18,1170,Wien,01/4863407,,www.parhamer.at,,AHS
4748,Privatschule Infinum,Hetzendorfer Straße 77,1120,Wien,01/8047879,,infinum.edupage.org,Dir. Mag. Nina L. Glavic,"AHS mit NMS, Neue Mittelschule, Volksschule, AHS, Sekundarbildung Oberstufe, Grundbildung"
5275,Bundesgymnasium Wien Zirkusgasse,Hegelgasse 14,1010,Wien,01/2142215,,www.ahs-zirkusgasse.at,Mag. Margot Stöger,AHS
2204,"Alfschule (Aktives Lernen Favoriten) des Vereins Bildungswerkstatt Lebensschule, Verein zur Förderung von aktivem und offenem Lernen Wien",Jenny-Lind-Gasse 1,1100,Wien,01/6893354,,www.alf-schule.at,Geyer Eva,"Hauptschule, Volksschule, SAS, AHS"
3748,Bundesgymnasium Wien,Jodok-Fink-Platz 2,1080,Wien,01/4056599,,www.bg8.at,,AHS
4113,Höhere technische Bundeslehranstalt Wien,Thaliastraße 125 - Hettenkoferg. 15,1160,Wien,01/491110,,www.htl-ottakring.at,,"TMS und THS, Sekundarbildung Oberstufe"
471,Expositur der höheren gewerblichen Bundeslehranstalt (Fachrichtung Wirtschaft) (909429) Wien,Maygasse 25,1130,Wien,01/8046364,,www.hlmw9.at/de/wirtschaft/hoerbeeintraechtigte.html,Mag. Prof. Patricia Neuhofer,"WMS und WHS, Sekundarbildung Oberstufe"
2576,Hochschule für Agrar- und Umweltpädagogik Wien Wien,Angermayergasse 1,1130,Wien,01/8772266-0,,www.agrarumweltpaedagogik.ac.at,,"Pädagogische Hochschulen, Hochschulen"
4074,Bundesgymnasium Wien,Wenzgasse 7,1130,Wien,01/8771032,,www.wenzgasse.at,,AHS
3218,Private Volksschule Avicenna (lbn Sina),Prager Straße 124,1210,Wien,01/2700044,,avicenna.schule.wien.at,Mag. Josef Lanzl,"AHS mit NMS, Volksschule, Grundbildung"
2805,2e Handelsakademie und Handelsschule Marienanstalt - Sacre Coeur der Erzdiözese Wien Wien,Fasangasse 4,1030,Wien,01/7984567,,www.hak-sacre-coeur.at,,"Kaufmännische Schule, Sekundarbildung Oberstufe"
2930,Bildungsanstalt für Elementarpädagogik der Stadt Wien,Patrizigasse 2,1210,Wien,01/4000 90950,,www.bafep21.wien.at,,"LMS und LHS, Sekundarbildung Oberstufe"
2766,BG und BRG Wien XVI und ORG für LeistungsportlerInnen,Maroltingergasse 69-71,1160,Wien,01/4931838,,www.g16.at,Mag. Elisabeth Gutenberg,AHS
2344,Bundesrealgymnasium Wien 15,Henriettenplatz 6,1150,Wien,01/8936743,,www.brgorg15.at,,AHS
4266,IRPA 2er Studiengang für das Lehramt für Islamische Religion an Pflichtschulen Wien,Eitnergasse 6,1230,Wien,01/8674400,,www.irpa.ac.at,,"Pädagogische Hochschulen, Hochschulen"
2824,Gymnasium des Institutes Neulandschulen Wien,Ludwig-von-Höhnel-Gasse 17-19,1100,Wien,01/6881195-550,,www.nls.at,,AHS
919,Bundessportakademie Wien,Auf der Schmelz 6,1150,Wien,01/427727901,,www.bspa.at/wien,,"LMS und LHS, Sekundarbildung Oberstufe"
5284,Bundesgymnasium Wien,Rahlgasse 4,1060,Wien,01/5878346,,www.ahs-rahlgasse.at,Mag.a Ilse Rollett,AHS
6101,Bundesgymnasium Wien XIX Wien,Gymnasiumstraße 83,1190,Wien,01/3688885,,www.g19.at,,AHS
5186,Bundesgymnasium Wien,Kleine Sperlgasse 2c,1020,Wien,01/2147376,,www.sperlgymnasium.at,,AHS
630,Bundesgymnasium und Bundesrealgymnasium Wien,Gottschalkgasse 21,1110,Wien,01/7132199,,www.grg11.at,,AHS
2816,"Lycee Francais de Vienne, Wien",Liechtensteinstraße 37a,1090,Wien,01/3172241,,www.lyceefrancais.at,Doriane RAPP,"Volksschule, AHS"
1701,Bundesgymnasium Wien,Ettenreichgasse 41-43,1100,Wien,01/6044218,,www.ettenreich.at,HR Dir. Mag. Reingard GLATZ,AHS
416,"Islamische Fachschule für Soziale Bildung der Islamischen Religionsgemeinde Wien für Wien, Niederösterreich und Burgenland Wien",Neustiftgasse 117,1070,Wien,01/78632248,,,Mag.a Zeynep Elibol,"WMS und WHS, Sozialberufliche Schule, Sekundarbildung Oberstufe"
1736,Höhere Bundeslehranstalt für Mode sowie Kunst und Gestaltung,Herbststraße 104,1160,Wien,01/4920970,,www.herbststrasse.at,,"TMS und THS, WMS und WHS, Sekundarbildung Oberstufe"
17,Bundesrealgymnasium Wien,Waltergasse 7,1040,Wien,01/5053447,,www.brg4.at,,AHS
46,Bundesgymnasium Wien,Billrothstraße 73,1190,Wien,01/3682539,,www.billroth73.at,,AHS
58,Gymnasium Albertus Magnus Schule der Vereinigung von Ordensschulen Österreichs Wien,Semperstraße 45,1180,Wien,01/4796918,,ams-wien.at,,AHS
109,Berufsschule für Baugewerbe Wien,Wagramer Straße 65,1222,Wien,01/59916-96070,,www.bsbau.at,,"Berufsschule, Sekundarbildung Oberstufe"
119,"Berufsschule für Holz, Klang, Farbe und Lack Wien",Hütteldorfer Straße 7-17,1150,Wien,01/59916/95261,,www.bsholz-wien.at,,"Berufsschule, Sekundarbildung Oberstufe"
165,Polytechnische Schule Wien,Pernersdorfergasse 30,1100,Wien,01/624476,,www.wbn.wien.at/schulen/910034,,"Polytechnische Schule, Sekundarbildung Oberstufe"
374,Zwi Perez Chajes Schule Realgymnasium mit Modellversuch Neue Mittelschule der Israelitischen Kultusgemeinde Wien Wien,Simon Wiesenthal-Gasse 3,1020,Wien,01/2164046-15,,www.zpc.at,,"AHS mit NMS, AHS, Sekundarbildung Unterstufe"
409,Bundesgymnasium Wien,Laaer-Berg-Straße 25-29,1100,Wien,01/6043422,,www.grg10laa.asn-wien.ac.at,,AHS
455,Bundes-Oberstufenrealgymnasium Wien,Hegelgasse 12,1010,Wien,01/5123937,,h12.at,,AHS
479,Berufsschule für Handel und Administration Wien,Panikengasse 31,1160,Wien,01/59916-95905,,www.bsha.at,,"Berufsschule, Sekundarbildung Oberstufe"
603,Polytechnische Schule Wien,Anton Baumgartner-Straße 44,1230,Wien,01/,,www.schulen.wien.at/schulen/923024,,"Polytechnische Schule, Sekundarbildung Oberstufe"
838,Bundesrealgymnasium Wien,Glasergasse 25,1090,Wien,01/3175459,,www.erich-fried-realgymnasium.at,,AHS
952,Vienna Business School Handelsakademie und Handelsschule Floridsdorf des Fonds der Wiener Kaufmannschaft Wien,Franklinstraße 24,1210,Wien,01/2706288,,www.floridsdorf.vbs.ac.at,,"Kaufmännische Schule, Sekundarbildung Oberstufe"
1047,Bundes-Oberstufenrealgymnasium Wien,Hegelgasse 14,1010,Wien,01/5125186,,www.he14.at,,AHS
1049,Berufsschule für Verwaltungsberufe Wien,Castelligasse 9,1050,Wien,01/59916-95935,,www.bs-wien.at,,"Berufsschule, Sekundarbildung Oberstufe"
1108,Bundesgymnasium Wien,Klostergasse 25,1180,Wien,01/4792127,,www.klostergasse.at,,AHS
1220,Bundesgymnasium und Bundesrealgymnasium mit Modellversuch Neue Mittelschule Wien,Theodor Kramer-Straße 3,1220,Wien,01/2586950,,www.theodor-kramer.at,,"AHS mit NMS, AHS, Sekundarbildung Unterstufe"
1232,Bundesgymnasium Wien,Rainergasse 39,1050,Wien,01/5444341,,www.rainergymnasium.at,,AHS
1490,Handelsakademie und Handelsschule - Augarten des Fonds der Wiener Kaufmannschaft Wien,Untere Augartenstraße 9,1020,Wien,01/3300241,,www.augarten.vbs.ac.at,,"Kaufmännische Schule, Sekundarbildung Oberstufe"
1591,Bundesgymnasium Wien,Billrothstraße 26-30,1190,Wien,01/3684615,,www.billrothgymnasium.at,,AHS
1643,Bundesrealgymnasium Wien,Pichelmayergasse 1,1100,Wien,01/6891838,,www.brg-pichelmayergasse.at,,AHS
2042,Bundesrealgymnasium Wien,Krottenbachstraße 11,1190,Wien,01/3681488,,www.brg19.at,,AHS
2048,Bundesgymnasium und Bundesrealgymnasium Wien,Geringergasse 2,1110,Wien,01/7678777,,www.g11.ac.at,,AHS
2129,Bundesgymnasium Wien,Ödenburger Straße 74,1210,Wien,01/2923550,,www.grg21oe.at,,AHS
2132,Bundesfachschule für wirtschaftliche Berufe und Fachschule für Sozialberufe Wien,Kalvarienberggasse 28,1170,Wien,01/4066726,,www.kalvarienberggasse.at,,"WMS und WHS, Sozialberufliche Schule, Sekundarbildung Oberstufe"
2159,Bundesrealgymnasium Wien,Schuhmeierplatz 7,1160,Wien,01/4920819,,www.rg16.at,,AHS
2253,Berufsschule für Maschinen - und Fertigungstechnik Wien,Apollogasse 1,1070,Wien,01/59916-95561,,www.berufundschule.info,,"Berufsschule, Sekundarbildung Oberstufe"
2339,"Berufsschule für Metalltechnik, Glasbautechnik und Technischer Zeichner Wien",Mollardgasse 87,1060,Wien,01/59916-95620,,www.wiener-berufsschulen.at/MGT,,"Berufsschule, Sekundarbildung Oberstufe"
2360,"Berufsschule für Chemie, Grafik und gestaltende Berufe Wien",Hütteldorfer Straße 7-17,1150,Wien,01/59916-95211,,www.cgg.at,,"Berufsschule, Sekundarbildung Oberstufe"
2640,Bundesgymnasium für Berufstätige Wien,Henriettenplatz 6,1150,Wien,01/8925433,,www.abendgymnasium.at,,AHS
2655,Berufsschule für Elektro- und Veranstaltungstechnik Wien,Mollardgasse 87,1060,Wien,01/59916/95650-95653,,www.bs-evt.at,,"Berufsschule, Sekundarbildung Oberstufe"
2869,Bundesgymnasium Wien,Geblergasse 56,1170,Wien,01/4056535,,www.grg17geblergasse.at,,AHS
2893,Polytechnische Schule Wien,Schopenhauerstraße 81,1180,Wien,01/4706110,,www.schulen.wien.at/schulen/918014,,"Polytechnische Schule, Sekundarbildung Oberstufe"
2920,"Bundesakademie für Sozialarbeit, Ausbildung für Berufstätige Wien",Grenzackerstraße 18,1100,Wien,60118-5158,,bas.pib-wien.dienstleistungen.ws,,"Sozialakademie, Sonstige Bildungseinrichtung"
2990,Bundes-Oberstufenrealgymnasium Wien,Landstraßer Hauptstraße 70,1030,Wien,01/7131350,,www.borg3.at,,AHS
3233,Bundesrealgymnasium Wien,Schottenbastei 7-9,1010,Wien,01/5338450,,www.brg1.at,,AHS
3349,Bundesgymnasium und Bundesrealgymnasium mit Modellversuch Neue Mittelschule Wien,Kandlgasse 39,1070,Wien,01/5236258,,www.schulen.wien.at/schulen/907026,,"AHS mit NMS, AHS, Sekundarbildung Unterstufe"
3367,Pädagogische Hochschule Wien Wien,Grenzackerstraße 18,1100,Wien,01/60118-2000,,www.phwien.ac.at,,"Pädagogische Hochschulen, Hochschulen"
3671,Akademisches Gymnasium Wien,Beethovenplatz 1,1010,Wien,01/7131352,,www.akg-wien.at,,AHS
3686,Berufsschule für Elektrotechnik und Mechatronik Wien,Mollardgasse 87,1060,Wien,01/59916/95661,,www.bs-elektrotechnik1.at.tf,,"Berufsschule, Sekundarbildung Oberstufe"
3699,Bundesbildungsanstalt für Kindergartenpädagogik Wien,Ettenreichgasse 45c,1100,Wien,01/6048154-11,,www.bakip10.schule.at,,"LMS und LHS, Sekundarbildung Oberstufe"
3828,Berufsschule für Informationstechnik Wien,Mollardgasse 87,1060,Wien,01/59916-95631,,www.bsit.at,,"Berufsschule, Sekundarbildung Oberstufe"
3987,"Bundesgymnasium, Bundesrealgymnasium und Bundesoberstufenrealgymnasium Wien",Heustadelgasse 4,1220,Wien,01/2858112,,www.heustadelgasse.at,,AHS
4029,Bundesrealgymnasium Wien,Marchettigasse 3,1060,Wien,01/5976538,,www.marchettigasse.at,,AHS
4056,Berufsschule für Bürokaufleute Wien,Meiselstraße 19,1150,Wien,01/59916/95585,,www.bsbk.at,,"Berufsschule, Sekundarbildung Oberstufe"
4333,Fachschule der Stadt Wien für wirtschaftliche Berufe Wien,Dörfelstraße 1,1120,Wien,01/59916-95035,,www.fs12.at,,"WMS und WHS, Sekundarbildung Oberstufe"
4363,"Berufsschule für Spengler, Karosseriebau- und Metalltechnik Wien",Scheydgasse 40,1210,Wien,01/59916-95705,,www.siegfried-marcus-berufsschule.at,,"Berufsschule, Sekundarbildung Oberstufe"
4622,"Berufsschule für Sanitär-, Heizungs- und Klimatechnik Wien",Mollardgasse 87,1060,Wien,01/59916-95670,,www.sht-wien.com,,"Berufsschule, Sekundarbildung Oberstufe"
4733,"Bundesrealgymnasium und Bundesoberstufenrealgymnasium (Vereinsgasse 21-23, 1020 Wien) Wien",dzt. per Adresse: Schellinggasse 13,1010,Wien,01/2140185,,members.aon.at/brg2,,AHS
4765,Berufsschule für Kraftfahrzeugtechnik Wien,Scheydgasse 40,1210,Wien,01/59916-95735,,www.siegfried-marcus-berufsschule.at,,"Berufsschule, Sekundarbildung Oberstufe"
4779,"Höhere technische Bundeslehranstalt, Bundeshandelsakademie und Bundeshandelsschule Wien",Ungargasse 69,1030,Wien,01/7131518,,www.szu.at,,"Kaufmännische Schule, TMS und THS, Sekundarbildung Oberstufe"
4976,Bundesrealgymnasium Wien,Schopenhauerstraße 49,1180,Wien,01/4055381,,www.rg18.ac.at,,AHS
5059,2e Polytechnische Schule der Evangelischen Schulgemeinde A.B. Wien Wien,Karlsplatz 14,1040,Wien,01/5059634,,www.kp14.at,,"Polytechnische Schule, Sekundarbildung Oberstufe"
5110,Berufsschule für Einzelhandel und EDV-Kaufleute Wien,Kempelengasse 20,1100,Wien,01/59916-95145,,www.EH4.com,,"Berufsschule, Sekundarbildung Oberstufe"
5178,Bundesrealgymnasium Wien,Draschestraße 90-92,1230,Wien,01/6174266,,www.grg23vbs.ac.at,,AHS
5465,Bundesgymnasium und Bundesrealgymnasium Wien,Bernoullistraße 3,1220,Wien,01/2032355,,www.bernoulligymnasium.at,,AHS
5885,"Berufsschule für Frisur, Maske und Perücke Wien",Kreitnergasse 32,1160,Wien,01/59916-95941,,www.bs-frisurmaske.at,,"Berufsschule, Sekundarbildung Oberstufe"
5912,Berufsschule für Gastgewerbe Wien,Längenfeldgasse 13-15,1120,Wien,01/59916-95351,,www.bsgg.at,,"Berufsschule, Sekundarbildung Oberstufe"
5972,Lauder Chabad Oberstufenrealgymnasium des Jüdischen Pädagogischen Zentrums Wien,Rabbiner-Schneerson-Platz 1,1020,Wien,01/3341818,,www.lauderchabad.at,,AHS
6050,Gastgewerbefachschule des Schulvereins der Wiener Gastwirte Wien,Judenplatz 3-4,1010,Wien,01/5330642,,www.gafa.ac.at,,"WMS und WHS, Sekundarbildung Oberstufe"
6064,"Bundesgymnasium, Bundesrealgymnasium und Bundesoberstufenrealgymnasium Wien",Gerasdorferstraße 103,1210,Wien,01/2947170,,www.elgym.at,,AHS
6144,Bundesgymnasium Wien,Erlgasse 32-34,1120,Wien,01/8139182,,www.erlgasse.at,,AHS
3890,Einjähriger Berufsorientierungslehrgang des Vereins JBBZ,Adalbert Stifter-Straße 18,1200,Wien,01/33106-0,,,,"Polytechnische Schule, SAS, Sekundarbildung Oberstufe"
1244,"Bundesgymnasium, Bundesrealgymnasium u. Wirtschaftskundliches Bundesrealgymnasium",Franklinstraße 26,1210,Wien,01/2783455,,www.grg21f26.com,,AHS
2452,Bundesgymnasium Wien,Rosasgasse 1-3,1120,Wien,01/8133248,,www.rosasgasse.at,,AHS
3119,"Außenstelle der Werkmeisterschule für Berufstätige des WIFI der Wirtschaftskammer (Leitung: 918437) Standort: Mollardgasse 87, 1060 Wien Wien",p.A. Währinger Gürtel 97,1180,Wien,01/599160,,,,"TMS und THS, Sekundarbildung Oberstufe"
2823,Austrian International Schools Vienna,Nordbahnanlage 4,1210,Wien,01/6077059,,aisv.at,,"AHS mit NMS, Neue Mittelschule, Volksschule, Sekundarbildung Oberstufe, Kindergarten"
52,Handelsakademie I und Handelsschule I der Wiener Kaufmannschaft Wien,Akademiestraße 12,1010,Wien,01/5058100,,,,"Kaufmännische Schule, Sekundarbildung Oberstufe"
188,Polytechnische Schule Wien,Burggasse 14-16,1070,Wien,01/,,,,"Polytechnische Schule, Sekundarbildung Oberstufe"
478,Bundesgymnasium und Bundesrealgymnasium Wien,Donauinselplatz,1210,Wien,01/2714097,,,,AHS
504,2e Polytechnische Schule des Institutes Neulandschulen Wien,Alfred Wegener Gasse 10-12,1190,Wien,01/3202107,,,,"Polytechnische Schule, Sekundarbildung Oberstufe"
754,IHL 2er Hochschullehrgang für Islamische Religionspädagogische Weiterbildung Wien,Neustiftgasse 117,1070,Wien,01/78632247,,www.ihl.ac.at,,"Pädagogische Hochschulen, Hochschulen"
773,Polytechnische Schule Wien,Dr. Albert-Geßmann-Gasse 32,1210,Wien,01/2926818,,,,"Polytechnische Schule, Sekundarbildung Oberstufe"
976,Fachschule der Stadt Wien für Mode und Bekleidungstechnik Wien,Siebeneichengasse 17,1150,Wien,01/59916-95290,,,,"WMS und WHS, Sekundarbildung Oberstufe"
1255,Technologisches Gewerbemuseum Höhere technische Bundeslehr- und Versuchsanstalt Wien,Wexstraße 19-23,1200,Wien,01/33126,,www.tgm.ac.at,,"TMS und THS, Sekundarbildung Oberstufe"
1585,"Berufsschule für Industrie, Finanzen und Transport Wien",Längenfeldgasse 13-15,1120,Wien,01/59916/95360,,www.bsift.at,,"Berufsschule, Sekundarbildung Oberstufe"
1813,"Berufsschule für Lebensmittel, Touristik und Zahntechnik Wien",Längenfeldgasse 13-15,1120,Wien,01/59916-95341,,,,"Berufsschule, Sekundarbildung Oberstufe"
2827,Berufsschule für Haar- und Körperpflege Wien,Goldschlagstraße 137,1140,Wien,01/59916-95801,,www.haar-koerper.at.tf,,"Berufsschule, Sekundarbildung Oberstufe"
3057,Polytechnische Schule Mater Salvatoris der österreichischen Provinz der Kongregation der Schwestern vom Göttlichen Erlöser Wien,Kenyongasse 4-12,1070,Wien,01/5232983,,,,"Polytechnische Schule, Sekundarbildung Oberstufe"
3137,2er Studiengang für das Lehramt für Jüdische Religion an Pflichtschulen Wien,Rabbiner-Schneerson-Platz 1/Augarten,1020,Wien,01/3341818-10,,www.chabad.at,,"Pädagogische Hochschulen, Hochschulen"
3310,Polytechnische Schule Wien,Stromstraße/Engerthstraße 76,1200,Wien,01/3304513,,,,"Polytechnische Schule, Hauptschule, Sekundarbildung Oberstufe, Sekundarbildung Unterstufe"
3745,"2schule ""Oberstufenrealgymnasium"" des Vereins Al Azhar International Schools Wien",Weisselgasse 28,1210,Wien,01/,,,,AHS
3855,"""Wiener Jeschiwah"" - Fachschule für Jüdische Sozialberufe des Israelitischen Tempel- und Schulvereins ""Machsike Hadass"" Wien",Große-Mohren-Gasse 19,1020,Wien,01/2161626,,,,"Sozialberufliche Schule, Sekundarbildung Oberstufe"
3993,Polytechnische Schule Wien,Wintzingerodestraße 1-3,1222,Wien,01/2037382,,,,"Polytechnische Schule, Sekundarbildung Oberstufe"
4283,Sondererziehungsschule Wien,Hoefftgasse 7,1110,Wien,01/7673336,,,,"Polytechnische Schule, Sonderschule, Sonderschule, Sekundarbildung Oberstufe, Sekundarbildung Unterstufe, Grundbildung"
4400,"Außenstelle der Werkmeisterschule für Berufstätige des WIFI der Wirtschaftskammer (Leitung: 918437) Standort: Wagramer Straße 65, 1220 Wien Wien",p.A. Währinger Gürtel 97,1180,Wien,01/232111,,,,"TMS und THS, Sekundarbildung Oberstufe"
4764,Berufsschule für Handel und Reisen Wien,Hütteldorfer Straße 7-17,1150,Wien,01/59916/95231,,,,"Berufsschule, Sekundarbildung Oberstufe"
4805,Polytechnische Schule Wien,Schaumburgergasse 7,1040,Wien,01/,,,,"Polytechnische Schule, Sekundarbildung Oberstufe"
4998,2schule - Technische gewerbliche Abendschule Werkmeisterschule für Berufstätige des Berufsförderungsinstitutes Wien Wien,Plösslgasse 13,1040,Wien,01/5053550,,www.tga.asn-wien.ac.at,,"TMS und THS, Sekundarbildung Oberstufe"
5359,Höhere technische Bundeslehranstalt Wien,Rennweg 89b,1030,Wien,01/24215,,www.htl.rennweg.at,,"TMS und THS, Sekundarbildung Oberstufe"
5544,2es Oberstufenrealgymnasium des Vereins Österreichisch-Ägyptische 2schule Wien,Webergasse 30,1200,Wien,01/33069844,,,,AHS
5635,Bundesgymnasium Wien,Hagenmüllergasse 30,1030,Wien,01/7123250,,,,AHS
6108,Oberstufenrealgymnasium des Kuratoriums für Künstlerische und Heilende Pädagogik Rudolf Steiner Wien,Auhofstraße 78F,1130,Wien,01/8760229,,www.waldorf-hietzing.at,,AHS
6160,2schule für WerbedesignerInnen für Berufstätige des Vereines Berufsförderungsinstitut Wien Wien,Engerthstraße 117,1200,Wien,0222/9822690,,,,"TMS und THS, Sekundarbildung Oberstufe"
1307,"Wiener islamisches Gymnasium des Vereines ""SOLMIT"" Solidarisch Miteinander Wien",Rauchfangkehrergasse 34/6,1150,Wien,01/8972715,,,,AHS
1968,"2e Handelsschule des Vereins ""Jüdisches pädagogisches Zentrum"" Wien",Rabbiner Schneersonplatz 1,1020,Wien,01/,,,,"Kaufmännische Schule, Sekundarbildung Oberstufe"
4180,Berufsschule für Einzelhandel Wien,Amalienstraße 31-33,1130,Wien,01/59916-95041,,,,"Berufsschule, Sekundarbildung Oberstufe"
4767,"2schule ""Beth-Jakov""-Dreijährige jüdische Mädchenfachschule f. Kommunikation u. Wirtschaft d. Israelitischen Tempel- u. Schulvereines Machsike Hadass Wien",Große Stadtgutgasse 24,1020,Wien,01/2143794,,,,"WMS und WHS, Sekundarbildung Oberstufe"
5791,2e Berufsschule für Brau- und Getränketechnik und für Destillateure des Vereins Österreichisches Getränkeinstitut Wien,Blaasstraße 29,1190,Wien,01/,,,,"Berufsschule, Sekundarbildung Oberstufe"
6010,Schule für Sozialbetreuungsberufe des Aus- und Weiterbildungszentrum Soziales Wien GmbH Wien,Schlachthausgasse 37,1030,Wien,01/,,,,"Sozialberufliche Schule, Sekundarbildung Oberstufe"
